{"type":"FeatureCollection","features":[{"type":"Feature","id":48,"geometry":{"type":"Polygon","coordinates":[[[-95.9007604522985,35.1465042184335],[-95.9006654514941,35.146557218194],[-95.9005344517194,35.1466262177976],[-95.8999824522214,35.1469022180122],[-95.8995524520866,35.1471892178308],[-95.8987824514896,35.1477022182366],[-95.897982451299,35.1482022189414],[-95.8971814510621,35.1487022187469],[-95.8965484514106,35.1490542188867],[-95.8962814507307,35.1492022185573],[-95.8953814504066,35.1498022185007],[-95.894581450216,35.1503022192055],[-95.8935814506577,35.151002219287],[-95.8926814503409,35.1517022193637],[-95.8921814505653,35.1521022199206],[-95.8912814502557,35.1529022192311],[-95.8904814500869,35.153702219436],[-95.8899814494121,35.154102219993],[-95.8892814493767,35.1548022200599],[-95.8883814490743,35.1557022204028],[-95.8877814491943,35.156602220731],[-95.8873814495668,35.1571022205169],[-95.8869814490472,35.157702220436],[-95.8864814492789,35.1582022211261],[-95.8860814487594,35.1588022210451],[-95.8856814491246,35.1592022206979],[-95.8852814485978,35.1597022213831],[-95.8847814488513,35.1605022215734],[-95.883581449113,35.1626032217762],[-95.8835814491203,35.1627032219093],[-95.8833814488605,35.1630032223185],[-95.8830814484817,35.1636032222327],[-95.8827814490095,35.1643032222799],[-95.8822814483709,35.1652032226033],[-95.8818814487797,35.1662032221556],[-95.8812814480221,35.1674032228832],[-95.8808814484163,35.1682032230685],[-95.8803814486699,35.1690032232587],[-95.8798814480386,35.1700032237152],[-95.879826448193,35.1701002237121],[-95.8794814484256,35.1707032237673],[-95.8788814485674,35.1719032235956],[-95.8782814478098,35.1731032243233],[-95.8779814483449,35.1739032245037],[-95.8779174480824,35.1740062238795],[-95.8774814476991,35.1747032246939],[-95.8773814475728,35.1749032240657],[-95.8768814478409,35.1759032245221],[-95.8763814481089,35.1769032249786],[-95.8759814475966,35.1776032250307],[-95.8755814479837,35.1783032250829],[-95.8752814475832,35.178603225497],[-95.8746574475242,35.1799812254735],[-95.8745184473951,35.1802782257408],[-95.8742954478605,35.1804842253965],[-95.8737674477217,35.1813772253971],[-95.8735444473044,35.1818122257623],[-95.8732934473757,35.1820872259158],[-95.8730714469982,35.1824302256189],[-95.8706704474291,35.1859922269711],[-95.8702814473988,35.1863032269995],[-95.8698814468574,35.1866032265191],[-95.8691814467931,35.1869032269528],[-95.8681814462992,35.187103227268],[-95.8674814462202,35.1872032274354],[-95.8666814460006,35.1873032267085],[-95.8658814457737,35.1873032267476],[-95.8647844452572,35.1872162272701],[-95.8637814454935,35.1870032273504],[-95.8633814449231,35.1869032272367],[-95.8625814446889,35.1868032271428],[-95.8618814446028,35.1868032271771],[-95.8609814442351,35.1868032272211],[-95.8602804440952,35.1867032271223],[-95.8594804438683,35.1867032271615],[-95.8587804437822,35.1867032271958],[-95.8579984434906,35.1867032272341],[-95.8574804437434,35.1866032271263],[-95.8567804436572,35.1866032271606],[-95.8556804430151,35.1867032273476],[-95.8551804432178,35.1868032275052],[-95.8544804431534,35.1871032279389],[-95.8534804426667,35.1874032274879],[-95.8527804425878,35.1875032276553],[-95.8518804422419,35.1878032280988],[-95.8509804418887,35.1880032284091],[-95.8503804419505,35.1881032276723],[-95.8494804415973,35.1883032279826],[-95.8485804412295,35.1883032280267],[-95.8482804417138,35.1884032281745],[-95.8477804410098,35.188403228199],[-95.8473804413387,35.1883032280854],[-95.8471804410499,35.1882032279621],[-95.8464804409492,35.1880032286294],[-95.845906440397,35.1878122279085],[-95.8458804409893,35.1878032283925],[-95.8454804404116,35.1876032281458],[-95.8450804407332,35.1874032278991],[-95.8445804400148,35.1872032285566],[-95.8440804401884,35.1869032281817],[-95.8438224399001,35.1866962285033],[-95.8435804403547,35.1865032285729],[-95.8431804397771,35.1863032283262],[-95.8428804402395,35.1861032280747],[-95.8423804395138,35.1858032276997],[-95.8419804398354,35.1856032283524],[-95.8409804392905,35.1851032277356],[-95.8409804392832,35.1850032276025],[-95.8408804391352,35.1849032283736],[-95.8399804387384,35.1845032278851],[-95.8396804392081,35.1844032277666],[-95.8393844389685,35.1843662278668],[-95.8388804389738,35.1843032276726],[-95.8386724383238,35.1843382284039],[-95.8382804381364,35.1844032278351],[-95.8372804385344,35.1845032280172],[-95.8359804376252,35.1848032284802],[-95.8344804373338,35.1851032280537],[-95.8330804371759,35.1853032283885],[-95.8318804373068,35.1856032288467],[-95.8307804366647,35.1857032290336],[-95.8295804367884,35.1859032284593],[-95.8282794358328,35.1862032289224],[-95.8273794354867,35.1865032293658],[-95.8265304356996,35.1866992285891],[-95.8260794354769,35.1868032289295],[-95.8252794352716,35.1871032293681],[-95.8242794347921,35.1875032290503],[-95.8233694348995,35.1880492291923],[-95.8232794352263,35.1881032289988],[-95.8224794350283,35.1885032295705],[-95.8219794343389,35.1887032298612],[-95.8212794342816,35.1891032295287],[-95.8204794340764,35.1894032299673],[-95.8197794340119,35.1897032295016],[-95.8190794339547,35.1901032300685],[-95.8177794339739,35.1908032301647],[-95.8168794336351,35.1912032307413],[-95.81587943317,35.1918032306898],[-95.8155954335044,35.1920062302095],[-95.8151794331201,35.1923032304904],[-95.8140794325142,35.1929032304438],[-95.8132794323307,35.1935032312818],[-95.8122794327577,35.1940042311434],[-95.8116394327767,35.1942892308797],[-95.8113794324189,35.1944042308207],[-95.8102794317985,35.1948042314071],[-95.8094104319878,35.1950652309428],[-95.809279432211,35.1951042309561],[-95.8083794318649,35.1954042313996],[-95.806679431299,35.1958042320154],[-95.8054794305232,35.1960042314411],[-95.8041794305132,35.1963042319041],[-95.8032794301526,35.1964042320813],[-95.8020794302689,35.1965042322732],[-95.8006794301108,35.1967042317087],[-95.7997794297429,35.1967042317527],[-95.7984794288336,35.1970042322158],[-95.7975794293723,35.1971042323929],[-95.7959784288717,35.1971042324713],[-95.7948784282294,35.1972042326583],[-95.7932784277824,35.1973042328697],[-95.7920784278841,35.1972042327953],[-95.7913784268913,35.1971042326964],[-95.7904784274154,35.1970042326073],[-95.7894784268921,35.19680423239],[-95.7884784263689,35.1966042330719],[-95.7875784259863,35.1964042328497],[-95.7863784260663,35.1960042323758],[-95.7855784258101,35.1956042327817],[-95.7847784255612,35.1953042324214],[-95.783978425305,35.1949042328273],[-95.7834784254785,35.1946042324523],[-95.7827784244566,35.1941042327201],[-95.7824784249189,35.1939042324685],[-95.7819784241859,35.1935042328597],[-95.7819604242491,35.1934862320272],[-95.7814784243448,35.1930042322185],[-95.7803784245219,35.19200423184],[-95.7803784245147,35.1919042326063],[-95.7802784243666,35.1918042324779],[-95.7798784237743,35.1914042319649],[-95.7794784240669,35.1908042320849],[-95.7788784231857,35.1903042323478],[-95.7784784234928,35.1899042318348],[-95.7776784232149,35.1892042318412],[-95.7770784232331,35.1887042321041],[-95.7763784230959,35.1880042321056],[-95.7756784229588,35.1873042312078],[-95.7751784222185,35.1868042314658],[-95.7745784222149,35.1860042313292],[-95.7741784216226,35.1856042317155],[-95.7735784216336,35.1850042309459],[-95.7729784216517,35.1845042312087],[-95.7721784213665,35.1837042310819],[-95.7716784215183,35.1831042312068],[-95.7712784209188,35.1826042305606],[-95.7708784212259,35.1822042309468],[-95.7705324204375,35.1817722307482],[-95.7704784206263,35.1817042311999],[-95.7702784203157,35.1813042306771],[-95.7699784207709,35.1810042302923],[-95.7697784204675,35.1807042308019],[-95.7693784207673,35.180204231055],[-95.7690784203086,35.1797042304039],[-95.7688784200125,35.1795042301473],[-95.7684784203123,35.1790042304004],[-95.7676774199953,35.1784042305399],[-95.767077420028,35.1781042301698],[-95.7660774194902,35.1777042305853],[-95.7654774195301,35.1775042303483],[-95.7639774191876,35.1771042298889],[-95.7625774181011,35.1769042305904],[-95.7618774180075,35.1768042304914],[-95.7614774183435,35.176804230511],[-95.7612774180619,35.1768042305207],[-95.761177417921,35.1768042305256],[-95.7604774178347,35.1768042305598],[-95.7599774180227,35.1767042304511],[-95.7595774174594,35.1767042304706],[-95.7590774176547,35.1767042304951],[-95.7585774169506,35.1767042305195],[-95.7579774170051,35.1767042305488],[-95.7577774167307,35.1768042306917],[-95.7568774172693,35.1769042308689],[-95.7566774169949,35.1770042310118],[-95.7562774164389,35.1771042302652],[-95.755977416923,35.177204230413],[-95.754712416801,35.1783842311468],[-95.7542524161837,35.1788042308293],[-95.7518784159658,35.1809742315866],[-95.7502774156155,35.1830502324508],[-95.7495754154845,35.1837152317967],[-95.7485794153412,35.1861982325887],[-95.7480264149878,35.1877222330263],[-95.7471024154048,35.1890922335468],[-95.7458254147413,35.190478233926],[-95.7439014146523,35.1918882336493],[-95.7433834149267,35.1920902340335],[-95.7422934138723,35.1925152339782],[-95.7400004136775,35.1928112343046],[-95.7362864123241,35.1929452343948],[-95.7351784121937,35.1928212350034],[-95.7342104122615,35.1927122345008],[-95.7319284116374,35.1924562344513],[-95.7297744106431,35.1920512346918],[-95.729041410807,35.1918042349832],[-95.7277954105507,35.1913852345312],[-95.7277474101224,35.1913702347384],[-95.7276744103327,35.1913482346228],[-95.7275414104567,35.1912992350586],[-95.7269734101825,35.1911082343374],[-95.7267204101348,35.1910232349111],[-95.7242644094882,35.1901172344541],[-95.722150408532,35.1894612347631],[-95.7189674083671,35.1888532346486],[-95.7182784078949,35.1889002350596],[-95.7172044075567,35.1889722348482],[-95.7161644070193,35.1893582347835],[-95.7147874071556,35.1913162355696],[-95.7136324068719,35.1943312358189],[-95.7123894069885,35.1971362362425],[-95.7098324064623,35.2004722370328],[-95.7082704060694,35.2018252376967],[-95.7071604058901,35.2023072375835],[-95.7037754054017,35.2024042377433],[-95.6971754033447,35.2030042379656],[-95.6934474023114,35.2041102389911],[-95.6912124021274,35.204674239132],[-95.6893984016596,35.2049302393817],[-95.6879284009457,35.2050332388263],[-95.6868314004324,35.2049992391045],[-95.6857544008349,35.2048042391222],[-95.6843244001457,35.2044712390635],[-95.6829153995328,35.2041622392154],[-95.6812903996873,35.2037492390596],[-95.6806923989238,35.2035952391536],[-95.6799873985959,35.2034652394646],[-95.6798303985132,35.2035132389966],[-95.6791143986102,35.2038752396036],[-95.6786323987904,35.2045592398186],[-95.6781973984797,35.205623239638],[-95.677468398927,35.2067272395251],[-95.6767013984839,35.2074522398536],[-95.6755143983309,35.2079342406434],[-95.6744433981656,35.2084732404692],[-95.6741963975351,35.2089162403069],[-95.6742343975268,35.2093032402358],[-95.6745953981142,35.2097722403481],[-95.6752813984797,35.210168240662],[-95.6765343981499,35.210428240947],[-95.6774943986186,35.2106472402474],[-95.6791083988698,35.2112872410208],[-95.6804963994626,35.2123452404733],[-95.6814723998408,35.2134842409981],[-95.6823394005887,35.21501824093],[-95.6827744001779,35.2164042412256],[-95.6809744006747,35.2210042420432],[-95.6768743996728,35.2248042437068],[-95.6720733984434,35.2273042436735],[-95.6650733967941,35.228904244348],[-95.6649953967761,35.2289302446562],[-95.6574733952643,35.231404245351],[-95.6507723932152,35.234704246476],[-95.6432723918986,35.2382042470073],[-95.6358743898885,35.2413242479269],[-95.6349723903543,35.2417042484771],[-95.6315723893513,35.2443042494079],[-95.6280713881538,35.2468042493111],[-95.6252713878724,35.2477042497474],[-95.6251713877242,35.2476042496191],[-95.6249713874498,35.247704249762],[-95.6246713879338,35.2478042499099],[-95.6242713873849,35.2480042501958],[-95.6231713876486,35.248204250516],[-95.6223713874282,35.248304249789],[-95.6210713865181,35.2486042502521],[-95.6195713862255,35.2489042507251],[-95.6182713862075,35.2491042501557],[-95.6166713857813,35.2495042507667],[-95.6156713852865,35.249704251082],[-95.614771384918,35.249704251126],[-95.6139713855897,35.2497042511652],[-95.6133713847445,35.2497042511946],[-95.6127713847986,35.2497042512239],[-95.612471384376,35.2497042512386],[-95.6120713847191,35.2498042513914],[-95.6115713849141,35.2498042514159],[-95.6112713844915,35.2498042514306],[-95.610871383928,35.2498042514501],[-95.6102713839748,35.2497042513463],[-95.6091703841484,35.2493042508675],[-95.60807038344,35.2485042507553],[-95.6071703830278,35.2479042508996],[-95.6060703832187,35.2471042507874],[-95.6052703829184,35.2461042503941],[-95.6046703820004,35.2451042508904],[-95.6040703819818,35.2441042504873],[-95.6036703822377,35.2430042499413],[-95.6035703820024,35.2417042500135],[-95.6033703816261,35.2404042500907],[-95.6034703816944,35.2394042496533],[-95.6039703814122,35.2382042489301],[-95.6045703821702,35.2370042491013],[-95.6052703821916,35.2361042487678],[-95.6067703824333,35.2351042482619],[-95.6077703820143,35.2347042485796],[-95.6087703825019,35.2344042481312],[-95.6101703826536,35.2341042485625],[-95.6117713831262,35.2337042479515],[-95.6134713836787,35.2331042479686],[-95.6154713846393,35.2323042477048],[-95.6172713844261,35.2316042475838],[-95.6181713847655,35.2312042470071],[-95.6188713848304,35.2309042474727],[-95.6198713853034,35.2304042467579],[-95.6201713857115,35.2302042473762],[-95.6206713854875,35.2298042468191],[-95.6217713860868,35.2291042467324],[-95.6226713855051,35.2284042466554],[-95.6229713858914,35.2279042468742],[-95.6229713858769,35.2277042466078],[-95.6229713858696,35.2276042464746],[-95.622471385854,35.2247042462343],[-95.6215713854275,35.2239042461122],[-95.6208713852899,35.2232042461134],[-95.6194713841446,35.2222042457494],[-95.6180713839348,35.2217042451519],[-95.6168713840214,35.2214042457104],[-95.6153713836925,35.2212042455173],[-95.6140713827533,35.2211042454477],[-95.6128713828615,35.2211042455063],[-95.6097233816292,35.2206162455498],[-95.6088503816037,35.2204812456375],[-95.608428381814,35.220417245393],[-95.6081433811872,35.2204102459822],[-95.6069183810333,35.2203812455987],[-95.6056543808695,35.2203542462091],[-95.6023493796146,35.2207452464866],[-95.5993873790156,35.221657246587],[-95.5962083783092,35.2234442467391],[-95.5950703786498,35.2242042469076],[-95.594270378473,35.2249042469797],[-95.5930703777762,35.2262042478704],[-95.5921703774657,35.2270042480805],[-95.5911703779282,35.2280042476626],[-95.5902693776076,35.2293042485387],[-95.5892693771926,35.2306042485204],[-95.5883693768966,35.2316042489969],[-95.5875693767488,35.2327042487023],[-95.5862693768178,35.2341042497311],[-95.5846693764423,35.2352042494757],[-95.5836693759981,35.236104249824],[-95.5822693759044,35.2372042504581],[-95.5812693754531,35.2380042506731],[-95.5802693758938,35.238704250755],[-95.5792693754279,35.2393042507037],[-95.5777693751933,35.2404042513427],[-95.5758693744241,35.2419042516347],[-95.5758693744314,35.2420042517679],[-95.5757693742905,35.2420042517727],[-95.5744693743304,35.2430042513695],[-95.574069374688,35.2433042517887],[-95.5726693736876,35.2443042522896],[-95.5715493739529,35.2449162519004],[-95.5703773736034,35.245503252155],[-95.5689553733246,35.2457212524249],[-95.567422372391,35.2458862520451],[-95.5673973730304,35.2458892521852],[-95.5673683725851,35.2458922523255],[-95.5672633731125,35.24590325284],[-95.5659083723346,35.2459982528079],[-95.5654333718906,35.2460032521633],[-95.5652503723973,35.2460052522649],[-95.5652193718592,35.2460082524052],[-95.5652083722486,35.2460102524984],[-95.5648763721439,35.2460562528457],[-95.5643683719717,35.2461102526727],[-95.5640953719054,35.2461582531097],[-95.5640803721093,35.24616125235],[-95.5638693722193,35.2461972531277],[-95.5631513713097,35.2463622527081],[-95.5631393716527,35.2463652528475],[-95.5631233718103,35.2463692530335],[-95.5629633715876,35.2464062529558],[-95.5629443716061,35.2464102531418],[-95.5619633711142,35.2469032526324],[-95.5616413714818,35.247066253],[-95.5615903709172,35.247092253307],[-95.5613843712641,35.2471972527824],[-95.5605643710455,35.247710253191],[-95.5597843708744,35.2481032534378],[-95.5590183704495,35.2484442530751],[-95.5586743706955,35.2485972529809],[-95.5578633708865,35.2490042538774],[-95.5576653707039,35.249093253511],[-95.5576313709269,35.2491082533078],[-95.557607370714,35.2491192538182],[-95.5575833705011,35.2491302534293],[-95.556962370501,35.2494102538326],[-95.5565683702209,35.2494832536344],[-95.5565413698685,35.2494882538671],[-95.5564253698865,35.2495102539921],[-95.5557393704632,35.2497072541531],[-95.5552643700258,35.2498032541243],[-95.5552493702297,35.2498062533646],[-95.5548653695088,35.2498052542365],[-95.5545273700365,35.2500072537126],[-95.5544483699736,35.2500542540938],[-95.5543683698644,35.2501032536684],[-95.553268369214,35.2501032537222],[-95.5527683694234,35.250303254013],[-95.5521683694847,35.2504032541755],[-95.5516683687948,35.2506032544663],[-95.5511683689969,35.2507032537246],[-95.5504683689173,35.2508032538921],[-95.5498683689786,35.2509032540546],[-95.5489683686171,35.2510032542318],[-95.5480673682093,35.251103254409],[-95.5472673679815,35.2511032544482],[-95.546467367761,35.2512032546205],[-95.5459673679631,35.2513032547781],[-95.5451673677498,35.2515032541843],[-95.5440673671138,35.2517032545044],[-95.5432673669006,35.2519032548099],[-95.5423673665537,35.2522032552535],[-95.5414673662068,35.2525032547978],[-95.540667366008,35.2529032553697],[-95.5395673662859,35.2533032550569],[-95.5385673658199,35.2539032550056],[-95.5375673653539,35.2545032558536],[-95.5364673656318,35.2549032555408],[-95.5353673650249,35.2555032554944],[-95.5346673649743,35.2560032561946],[-95.5337673646346,35.2564032558721],[-95.5330673645695,35.2567032563059],[-95.5325673647788,35.2569032565967],[-95.531867364721,35.2573032562643],[-95.5312673638974,35.2576032566932],[-95.5306673639877,35.2581032564892],[-95.5305673638541,35.2582032566273],[-95.5280663640134,35.2600032573484],[-95.5268663632656,35.2606032573069],[-95.525866362785,35.2610032569892],[-95.5245663627883,35.2615032577187],[-95.5234663621668,35.261903257406],[-95.5226663619535,35.2621032577115],[-95.5216663623649,35.26240325816],[-95.5207663620034,35.2625032574379],[-95.5199663617683,35.2624032582431],[-95.5192663616813,35.2624032582774],[-95.5180663608898,35.2624032583361],[-95.5169663611458,35.2625032576237],[-95.5159663606506,35.262703257939],[-95.5149913604365,35.263191258097],[-95.5149663601773,35.2632032586538],[-95.5149113603283,35.2632532582735],[-95.5139663606324,35.2641032581028],[-95.513266359726,35.2652032587028],[-95.5129663602681,35.2661032590169],[-95.5129663603481,35.2672032586834],[-95.5131663606808,35.2679032596059],[-95.5133663601215,35.268703258863],[-95.5133803607722,35.2687242589352],[-95.5134403608634,35.2688152595481],[-95.5135013601016,35.2689062592616],[-95.5137663607287,35.2693032596425],[-95.5143663607403,35.2702032599125],[-95.5150663608927,35.2711032592783],[-95.5155663616482,35.2718032601862],[-95.515866361208,35.2723032599381],[-95.5164663612268,35.2733032603413],[-95.5169663619822,35.2740032603498],[-95.5174663618457,35.2748032604915],[-95.5176613619383,35.2753892606329],[-95.5177663623339,35.2757032607762],[-95.5179613624263,35.276287260825],[-95.5180663619228,35.2766032601615],[-95.5184663625738,35.2778032608408],[-95.51876636217,35.2788032612586],[-95.5190583622726,35.2795032612773],[-95.5191143631025,35.2799352614901],[-95.5191743623213,35.2803982613394],[-95.5191253627715,35.2807362608028],[-95.5191233626798,35.280750261451],[-95.5191223626341,35.2807592609684],[-95.5191203625422,35.2807712615241],[-95.5190733630838,35.2810902610069],[-95.5190723630383,35.2811032616089],[-95.5190643626744,35.2812002616036],[-95.5187583629289,35.2819712613413],[-95.5187493625132,35.2819942615073],[-95.5187123626028,35.2820882613645],[-95.518668362369,35.2821982610635],[-95.51863036241,35.2822622613305],[-95.5185933624973,35.2823242615048],[-95.5180673624498,35.2832052618495],[-95.5178663630415,35.2834882614718],[-95.5173673624346,35.2841912616681],[-95.5168953621693,35.2847412619741],[-95.5168823624669,35.2847562617698],[-95.5166753627774,35.2849982621922],[-95.5157753624669,35.2857982624024],[-95.5155983623633,35.2859492622075],[-95.5149623616865,35.2864912621511],[-95.5144643620037,35.286898262133],[-95.5135793614958,35.287785262773],[-95.5131313614291,35.2881272624411],[-95.5131223619115,35.2881342627656],[-95.5131133614946,35.2881412630901],[-95.5127593612853,35.2884112630174],[-95.5119703616176,35.2890982633864],[-95.511802361936,35.2893122634098],[-95.5117913614269,35.2893262631593],[-95.5112633612715,35.2899982637203],[-95.5107643615777,35.29089126372],[-95.510362360965,35.2914912636394],[-95.5101173613266,35.2919352635233],[-95.509968361631,35.2922052634405],[-95.5094693610384,35.2931052637643],[-95.5093293608673,35.2934642642043],[-95.5093163611662,35.2934972639341],[-95.5093063616037,35.2935242642853],[-95.5092993612805,35.293543264266],[-95.5091643613405,35.2938922642428],[-95.5086653607625,35.2949922639335],[-95.5080703611221,35.2960052640977],[-95.5075793608996,35.2968922647185],[-95.5073103610344,35.2971552652168],[-95.5069523606453,35.2975052652508],[-95.5062763608157,35.2981052651837],[-95.505367360081,35.2988122655853],[-95.5049353607541,35.2991242656622],[-95.5049263603371,35.2991302650411],[-95.5045553602386,35.299398265776],[-95.5036623602308,35.2998982655863],[-95.5027543595128,35.300198265131],[-95.5019653598096,35.300398265436],[-95.5018003593555,35.3004432657289],[-95.5017893597449,35.3004462658683],[-95.501766359578,35.3004522652479],[-95.5011693597827,35.3006122654902],[-95.5004133598164,35.3008842655297],[-95.5003733597611,35.3008982661799],[-95.5002643592028,35.3008982661852],[-95.5001543594967,35.3008882657277],[-95.5001213588654,35.300884265544],[-95.4999713591028,35.3008722658952],[-95.499687359419,35.3008302657632],[-95.4994723593385,35.3007982660909],[-95.498667358886,35.3008982662635],[-95.497669358469,35.3008982663124],[-95.4970733587083,35.3008982663416],[-95.4970393589309,35.3009082659069],[-95.497028358421,35.3009112660463],[-95.4966943582275,35.3010122662422],[-95.4962363585706,35.3010022658016],[-95.4957783580145,35.3009922662604],[-95.4950933577174,35.3009052658634],[-95.4942883581568,35.3009052659028],[-95.4940763573183,35.3009022657743],[-95.4933713578979,35.3008922662452],[-95.4929133573432,35.3009022658313],[-95.4927753572389,35.3009052659769],[-95.4920673567808,35.3009052660116],[-95.4919413572308,35.3008782665664],[-95.4919263574343,35.3008752664282],[-95.4915753573388,35.3007982664778],[-95.4911813570461,35.3006982663639],[-95.4903763565789,35.3005982662702],[-95.4896603566419,35.300498266172],[-95.4888873567667,35.3004982662099],[-95.4880833563386,35.3002982659829],[-95.4870843558606,35.3000982666648],[-95.4862633555434,35.2998982664387],[-95.4855473556064,35.2997982663406],[-95.4848713548186,35.2995922667288],[-95.4840493553544,35.2993922665028],[-95.4833583547781,35.2992922664034],[-95.4828683545277,35.2991612666576],[-95.4828543547775,35.2991572664731],[-95.4828413550737,35.2991542663348],[-95.482657354631,35.2991052667733],[-95.4817713539974,35.2989052665503],[-95.4812453538784,35.2988042663965],[-95.4806553543813,35.2986032661128],[-95.4801633540404,35.2985032660037],[-95.4800643539459,35.2985032660085],[-95.4706633512337,35.2956032662038],[-95.468963350593,35.2950032663871],[-95.4667633501397,35.2943032664618],[-95.4653483501348,35.2938312662622],[-95.4649633493581,35.2937032666501],[-95.4630633493421,35.2932032660772],[-95.4616633491533,35.2930032658793],[-95.4606633486507,35.2931032660615],[-95.4590633482236,35.2935032666725],[-95.4576623480249,35.2938032662414],[-95.4558623473233,35.2943032669954],[-95.4535623468382,35.2951032672742],[-95.4523623460828,35.2956032670997],[-95.4516533464983,35.2958872676925],[-95.4512573461301,35.2960252669064],[-95.4512843463812,35.2946272669316],[-95.4512783460208,35.2935002669147],[-95.4512453462393,35.2928162667247],[-95.451111345865,35.2865612658192],[-95.451112345881,35.2861442653987],[-95.451097345041,35.2841602652749],[-95.4510733455808,35.2821552650785],[-95.4510563444806,35.2778692635972],[-95.4510393444298,35.2756442640067],[-95.4510343450099,35.2744432632616],[-95.4510203442901,35.2734722632729],[-95.4510103446783,35.2728212628109],[-95.4510043443699,35.2724062633825],[-95.4510183439817,35.2705052626034],[-95.4510073442968,35.2694862621909],[-95.4510063442423,35.2693732623552],[-95.4510123445038,35.2691432624981],[-95.4510133445485,35.2691202623325],[-95.4510133445475,35.26910726263],[-95.4510293443479,35.2685252626634],[-95.4510083442718,35.2685032625452],[-95.4509853440987,35.268424262486],[-95.4509433439441,35.268349262613],[-95.4509463440764,35.2682542627111],[-95.4509483441649,35.2681952626774],[-95.4509573445594,35.2678822625748],[-95.450942343799,35.2669892617007],[-95.4509293440802,35.2667802619176],[-95.4509113441237,35.2664902619818],[-95.4508943442275,35.2663922619421],[-95.4511163437002,35.2659682620859],[-95.4511093440331,35.2626402608906],[-95.4511593435946,35.2618232608341],[-95.4510123431211,35.2501032587189],[-95.4510613414283,35.2326262553543],[-95.4510623414446,35.2322112559255],[-95.4510643415155,35.2319092554332],[-95.4510303414857,35.2284362547202],[-95.4510233411162,35.2278162547938],[-95.451015341294,35.2229762537422],[-95.4510113410829,35.2226232535869],[-95.4510103407185,35.2182292533988],[-95.4510103407177,35.2182182528895],[-95.4510113407613,35.2181802529288],[-95.4510113407557,35.2181032529611],[-95.4510103406797,35.2176932528646],[-95.4510093403799,35.2141912526057],[-95.4510123403712,35.2121492515937],[-95.4510093401066,35.2104132512596],[-95.4509993392709,35.2052702505684],[-95.4509833393942,35.2048002503926],[-95.4509943397592,35.2027932501014],[-95.4551973404211,35.2027962500355],[-95.4551973404132,35.2026872503849],[-95.45517734003,35.1977752495972],[-95.4551753399131,35.1974412494221],[-95.4551733397713,35.1967632486088],[-95.4551533393643,35.1915192477384],[-95.4551453397819,35.1899862478097],[-95.4550603394113,35.1896262473342],[-95.4551023394076,35.187511247437],[-95.4550783391537,35.1869542468309],[-95.4550913396943,35.1860912473442],[-95.4550923388367,35.1860262470327],[-95.4550963390053,35.1857922469905],[-95.4550843393273,35.185504247147],[-95.4550883394829,35.185090246865],[-95.4550793390423,35.1847682463464],[-95.4550763388959,35.1846672470664],[-95.4550543387137,35.1838182464309],[-95.4550513394697,35.18376124649],[-95.4550403389474,35.1835912467137],[-95.4550423389716,35.1826422459438],[-95.4550383387664,35.182369245895],[-95.4550263390429,35.1814502465147],[-95.4550033387962,35.1803512459958],[-95.4550093389854,35.1791172455205],[-95.4549843386174,35.1776212455069],[-95.4549903387261,35.1752712446237],[-95.4550823384366,35.1744472451401],[-95.4550763380879,35.1734702448728],[-95.4550423376675,35.1645632434835],[-95.4550253374999,35.1606972425598],[-95.4550253374775,35.1603872425964],[-95.4536253373031,35.1603822424329],[-95.4525873368412,35.1605422426966],[-95.452471336856,35.1605192425367],[-95.451598336841,35.1605342423742],[-95.4502923365277,35.1605092421796],[-95.4488763356106,35.1604962425458],[-95.4484293355646,35.1604862430039],[-95.44823233542,35.160460242709],[-95.4481683360478,35.1604402426854],[-95.4481003355894,35.1604002426355],[-95.4480823356508,35.1603552423515],[-95.4462603347909,35.1603392425986],[-95.4454803345907,35.1603332423587],[-95.4429763344769,35.160296242566],[-95.4428413345113,35.1602942424799],[-95.4428303340012,35.1602942424805],[-95.4423923343728,35.160287243077],[-95.4383713331539,35.1602272431924],[-95.4382833326701,35.1602262431504],[-95.4381503327973,35.1602242430642],[-95.437860332838,35.1602202428931],[-95.4341963319927,35.1602362429126],[-95.4297613304649,35.1602422434058],[-95.4235943295542,35.1602522441683],[-95.4210773288422,35.1602812438346],[-95.4202193286231,35.1602912443393],[-95.4201983285485,35.1602912443403],[-95.4201653279175,35.1602912443419],[-95.4140993271912,35.1602632442394],[-95.4140743269316,35.1602692445185],[-95.4023603232791,35.1602032447296],[-95.401100323302,35.1602032447908],[-95.3936833210771,35.1601882453557],[-95.349532309607,35.1600272472389],[-95.3495303084815,35.1456632450021],[-95.3494963084399,35.1419962442982],[-95.3494143079313,35.1377762431741],[-95.3493583076315,35.1321942419421],[-95.3493133080159,35.1290362414223],[-95.3493063076537,35.1285122414436],[-95.3492723076994,35.1260572410959],[-95.3492633072364,35.1254212413278],[-95.3492593070321,35.1251592408888],[-95.3492583069833,35.1251252411133],[-95.3492583069823,35.1251122414108],[-95.3492563077805,35.1249942413435],[-95.3492373067024,35.1222492401588],[-95.3491963070999,35.1166842397127],[-95.3492163070727,35.1159112389961],[-95.3491883064248,35.1124412384191],[-95.3491953066436,35.1109642383836],[-95.3491663060933,35.1095032381912],[-95.3491593057475,35.1092082380231],[-95.3491303060021,35.1064282379161],[-95.3491073057608,35.1053952377544],[-95.3491233055781,35.1050412375515],[-95.3491173061982,35.1050272369036],[-95.3491103058724,35.1050112370625],[-95.349120305434,35.1049712370087],[-95.3491243056021,35.1047292374953],[-95.3491203053745,35.104140237205],[-95.3494813058407,35.1029182372674],[-95.3494673057325,35.09791523586],[-95.3494693057909,35.0974342360731],[-95.3494723049962,35.0969522353405],[-95.3494683055063,35.0941062348745],[-95.3494663053467,35.0931722347986],[-95.3494633051017,35.0916932346708],[-95.3494653051869,35.0915872351589],[-95.3494543046713,35.0915112343387],[-95.3494583045578,35.0873312341622],[-95.3494433044574,35.0830792333511],[-95.3494163023507,35.058526228814],[-95.3493043025422,35.058380228355],[-95.3493503028602,35.0581482284032],[-95.3493373022169,35.0575812282324],[-95.3493283026733,35.0572242287911],[-95.349307302514,35.0560362286473],[-95.3493063023785,35.0547862283298],[-95.3493283024383,35.0539302282667],[-95.3493303025278,35.0538852279818],[-95.3493303025252,35.0538482280674],[-95.3493313025689,35.0538102281066],[-95.3493303024921,35.0533842281682],[-95.3493313025239,35.0531792276701],[-95.3493743013098,35.0460232264012],[-95.3493743013084,35.0460042264209],[-95.3493863017172,35.0439332258625],[-95.3493863017139,35.0438872264307],[-95.3494443006724,35.0293822230519],[-95.3494443006669,35.0293052230841],[-95.3823593090572,35.0293212213396],[-95.3884883109042,35.0293222210905],[-95.4007063136424,35.0293242205941],[-95.4158553174075,35.0293272200025],[-95.4189603184103,35.0293272198528],[-95.4245143196713,35.0293282196312],[-95.4375133235531,35.0293262189117],[-95.446735325845,35.0293252184205],[-95.4540333279438,35.0293242180221],[-95.4544753277572,35.0293242180007],[-95.4546733279463,35.0293242179912],[-95.4679013316542,35.0293132177429],[-95.4679413317106,35.029313217741],[-95.4740003330071,35.0293062171245],[-95.4740863333981,35.0293062171203],[-95.4758803338571,35.0293052169874],[-95.4810543345813,35.0292992173592],[-95.4940023378934,35.029285216086],[-95.5060773411894,35.0292732158467],[-95.5065253412809,35.029273215825],[-95.5077333415437,35.0292712156741],[-95.5077453421002,35.0292712156736],[-95.507744342002,35.0285462153818],[-95.5077403417039,35.0269672151209],[-95.5077403416931,35.0268162153243],[-95.507738341516,35.0256342154577],[-95.5077383415082,35.0255252149077],[-95.5077383414987,35.0253912149989],[-95.5077173405815,35.0135742128736],[-95.5077033403123,35.0062872118395],[-95.5077043402991,35.0054512109049],[-95.5077003400752,35.0049132111772],[-95.5076923393969,35.0005972101009],[-95.5076883390497,34.9983272102228],[-95.507681339296,34.993713208839],[-95.5076803392189,34.9932822086692],[-95.5076743387655,34.990820208895],[-95.5076723385794,34.9895082084052],[-95.5076723385683,34.989352208377],[-95.5076713384718,34.9886462080655],[-95.5076703383902,34.9881522085762],[-95.5076723384747,34.988036207702],[-95.5076693383006,34.9875452083516],[-95.5076703383311,34.9873212078731],[-95.5076683381987,34.9867642081649],[-95.5076653388738,34.9855672076036],[-95.5076613385292,34.9833302074546],[-95.5076603384406,34.9827362069326],[-95.5076453381017,34.9751022060196],[-95.5076323369567,34.9674732044384],[-95.5076323369529,34.9674192046362],[-95.5076273374554,34.9650962041027],[-95.5076283374715,34.9646692041179],[-95.5076323365835,34.9622162029609],[-95.5076173365629,34.9590562023461],[-95.5076133362464,34.9572092022672],[-95.5076123361403,34.9563692020467],[-95.5075993359417,34.9493902008819],[-95.5075973358202,34.9489842009702],[-95.5075963356903,34.947806200389],[-95.5075833354561,34.9403211991788],[-95.5075753346093,34.9336041984526],[-95.5075743345453,34.9333571978085],[-95.507575334573,34.9330931981759],[-95.5075733344005,34.9319661981573],[-95.5076283351222,34.9315391981699],[-95.5076283351202,34.9315111977729],[-95.507635334539,34.9314191980096],[-95.5076553345502,34.9311781976423],[-95.5076673350962,34.9310311980303],[-95.5075263346384,34.9280051973301],[-95.5076033345811,34.9275691969249],[-95.5075873347326,34.9274871967265],[-95.507548334708,34.9272811970832],[-95.5075643345214,34.9268671968002],[-95.5075673346555,34.9267961971101],[-95.5075603342958,34.9263011966753],[-95.5075563340906,34.9260221963485],[-95.5075393341164,34.924819196409],[-95.5075363331307,34.912853194574],[-95.5075563331561,34.912814194566],[-95.507561333384,34.912758194671],[-95.5075353330472,34.9123281945485],[-95.5075523328433,34.9110131939184],[-95.5075743329358,34.9106111941908],[-95.5075453333456,34.9099891941722],[-95.5075333320813,34.8999731917894],[-95.5075333320473,34.8994921920023],[-95.5075233319529,34.8919871907639],[-95.5076223319296,34.8903191899739],[-95.5075593315997,34.8888121894513],[-95.5075143312365,34.887750189746],[-95.50751833141,34.8875801899688],[-95.507521331538,34.8874231898942],[-95.5075273317795,34.8869021891542],[-95.5075273317501,34.8864851896324],[-95.5075273317227,34.8860971896546],[-95.5075173311922,34.8851511890232],[-95.5074893316005,34.883849188997],[-95.5075163305403,34.8765651871967],[-95.5075003305946,34.8751041870029],[-95.5074723304351,34.8657441853143],[-95.5074683301484,34.864308185378],[-95.5074633298153,34.8628711853955],[-95.5074833296754,34.8604841845945],[-95.5074763289665,34.8550261837014],[-95.5074763289607,34.8549431834558],[-95.5075303296663,34.8549431834532],[-95.5075953290833,34.8549431834501],[-95.5076443295571,34.8549431834478],[-95.5098863301057,34.8549231833139],[-95.51235533039,34.8549101834932],[-95.5137183306474,34.8549271833158],[-95.5139653313106,34.854934183628],[-95.5141103308319,34.8548141834611],[-95.5141113307917,34.8535841831698],[-95.5141133306487,34.8502341827491],[-95.5141153305516,34.8475361819388],[-95.5141173304194,34.8443381813611],[-95.5141183303029,34.8420231811965],[-95.5141223304564,34.8415671807681],[-95.5141173302183,34.8414791811905],[-95.5141113299333,34.8413831812427],[-95.5141033304517,34.84124218101],[-95.5141063296834,34.8411261810351],[-95.5141313298763,34.8401711808844],[-95.5141353300513,34.8400231803271],[-95.514134329923,34.838857180301],[-95.5141343299132,34.8387171801143],[-95.5141493296588,34.8379961800063],[-95.514150329701,34.8379371799726],[-95.5141603301329,34.8374841796827],[-95.5141633293334,34.8369251798814],[-95.5141643293581,34.8366171800101],[-95.5141713296453,34.8360841796137],[-95.5141793299687,34.8354061796984],[-95.514221329087,34.8335361794508],[-95.5141853291075,34.8319901789195],[-95.5141533293743,34.8313091788672],[-95.5141593295133,34.8293271788316],[-95.5142253288983,34.8282111784192],[-95.5142453288559,34.8272061777524],[-95.5142333291902,34.8270841783997],[-95.514182328607,34.8268451781283],[-95.5141823285935,34.826653178232],[-95.5142203294327,34.8263161779156],[-95.5142043286174,34.8252721781428],[-95.5142093287977,34.8245381774334],[-95.5142253284615,34.8219901772719],[-95.514228328592,34.8218671769729],[-95.5142393290626,34.8213041769859],[-95.5141313285108,34.8207351767268],[-95.5141323284138,34.8186941766576],[-95.5141333284046,34.817901176814],[-95.5141363280886,34.8114151750881],[-95.5141453266244,34.7974051730389],[-95.5141463266491,34.797096172222],[-95.5141493264005,34.7915611713593],[-95.5141193263276,34.7847011703045],[-95.5141593258367,34.7768811688649],[-95.5141323253798,34.7753931683203],[-95.5141373255441,34.7744261685141],[-95.5141523251518,34.771730167795],[-95.514163324713,34.7710211682427],[-95.5141723250152,34.7693731674828],[-95.5141743250769,34.76892916761],[-95.5141763251447,34.7685721672685],[-95.5141643245696,34.7683071675901],[-95.5141643245196,34.7675921668612],[-95.5141663245853,34.7672041668831],[-95.5141963244837,34.7587111657598],[-95.514201323745,34.757690165252],[-95.5142013237427,34.7576571655227],[-95.5142173241701,34.7531531647298],[-95.5142343237456,34.748661163593],[-95.5142593235188,34.7416841625132],[-95.5142723229772,34.7381701616919],[-95.514273322996,34.7377751613897],[-95.5142983227771,34.7309051607671],[-95.5143203215756,34.7248331593205],[-95.5143233216685,34.724169159154],[-95.5143723212065,34.7107301565557],[-95.5143793205024,34.7088711559188],[-95.514381320567,34.7084661560529],[-95.5143903207714,34.7054051555209],[-95.5143953209437,34.7045481554115],[-95.5144823188262,34.6807241513198],[-95.5144843186766,34.6772311505711],[-95.5144863184229,34.6722401497122],[-95.5144863184163,34.6721451498102],[-95.5144853183642,34.6720611495183],[-95.5144883184665,34.6715301492144],[-95.5144883181199,34.6665331480776],[-95.5144923177175,34.6580521466083],[-95.5144983162046,34.6451751448484],[-95.5144993158226,34.6389861433794],[-95.5145013158093,34.6374521434008],[-95.5145003154795,34.6333541425188],[-95.5145033155803,34.6328011420954],[-95.5145043154869,34.6307791420051],[-95.5145053155249,34.6306581417986],[-95.5145043154721,34.630564141943],[-95.5145063153338,34.627224141083],[-95.5144883153512,34.6265401408905],[-95.5144833150541,34.6255961412498],[-95.5144823149983,34.6254601412482],[-95.5144823149939,34.6253961409829],[-95.5144823149909,34.6253531407906],[-95.5144813149273,34.625104140953],[-95.5144873151988,34.6250061409119],[-95.5144903153344,34.6249561403953],[-95.514492315424,34.6249101409634],[-95.5145073152023,34.6246491405694],[-95.5145093149206,34.6192301396778],[-95.514512314676,34.6136741387381],[-95.5145163133664,34.6050431366172],[-95.5145163132993,34.6040701365328],[-95.5145183130568,34.5992101363417],[-95.5145183127085,34.5941591354013],[-95.5297693166939,34.5941481341728],[-95.5494523220606,34.5940971335812],[-95.5499463224864,34.5940961335116],[-95.5665273261001,34.5941651323269],[-95.5669113268168,34.5941091324139],[-95.5670083268175,34.5940951326604],[-95.5671633268094,34.5940731325338],[-95.5683383264434,34.5941141325781],[-95.5683873269172,34.5941161326684],[-95.5684163264635,34.5941171327133],[-95.5697933273716,34.5941641321265],[-95.5700183270133,34.5941561326448],[-95.5703503271203,34.5941441320735],[-95.5703653278159,34.5941441320728],[-95.570385327844,34.5941431320256],[-95.5704863271316,34.5941391327349],[-95.5707193271443,34.5941301323072],[-95.5710183275196,34.5941191326832],[-95.5721333279663,34.5941301322405],[-95.5755233286952,34.5941641318561],[-95.5763693292565,34.5941581324377],[-95.5764813290545,34.5941571323861],[-95.5787163292781,34.5941461317714],[-95.5788753294569,34.5941451317176],[-95.5789153295132,34.5941451317157],[-95.5789823299224,34.5941451317125],[-95.5804843303282,34.5941381322168],[-95.5895023321401,34.594074131526],[-95.5896213322626,34.5940731314741],[-95.5896553320407,34.5940731314725],[-95.5896803323007,34.594072131425],[-95.5896943320506,34.5940721314243],[-95.5898353322941,34.5940711313714],[-95.5900003327511,34.5940701313173],[-95.601664335859,34.5939871305211],[-95.6059823364509,34.5939561306806],[-95.606228337067,34.5939541305764],[-95.6063803369212,34.5939531305229],[-95.6063923365784,34.5939531305223],[-95.6068783366329,34.5939501303605],[-95.6069673371629,34.59394913031],[-95.608320336954,34.593941130775],[-95.6088473371112,34.5939381306112],[-95.6093513371012,34.5939351304485],[-95.6095203377438,34.5939341303943],[-95.6095933375318,34.5939341303908],[-95.6106113379755,34.593928130065],[-95.6111273376226,34.593925130801],[-95.6114893382222,34.5939231306914],[-95.6118223383761,34.593921130583],[-95.6118393382651,34.5939211305822],[-95.6118593382933,34.5939211305813],[-95.6118763381824,34.5939211305805],[-95.6118873377931,34.59392113058],[-95.6119603384804,34.5939201305302],[-95.6252693414305,34.5938381297025],[-95.6255173412405,34.5938431299223],[-95.6258753416551,34.5938511293764],[-95.6449833464343,34.5938471291881],[-95.6449963470371,34.5938471291875],[-95.6450233464906,34.5938471291863],[-95.6450773462968,34.5938471291837],[-95.6451853468086,34.5938471291786],[-95.6454013469329,34.5938471291684],[-95.6458443467921,34.5938471291475],[-95.6467843472162,34.5938471291031],[-95.6547023492806,34.5938461286828],[-95.6628093511167,34.5938521276783],[-95.662824350913,34.5938521276776],[-95.6628533513585,34.5938521276762],[-95.6629093512576,34.5938521276736],[-95.6630093513983,34.5938521276688],[-95.6631743509561,34.593852127661],[-95.6634113511549,34.5938521276498],[-95.6636883514099,34.5938521276367],[-95.6639473517296,34.5938521276245],[-95.67088635336,34.5938571275281],[-95.6717583533205,34.5937401274657],[-95.6718173533585,34.5937381273703],[-95.675260354741,34.593707127571],[-95.6783933552413,34.5937311276348],[-95.6895463580367,34.5937281269688],[-95.6927143592591,34.593731126958],[-95.6930633592555,34.5937271267563],[-95.6950633593732,34.5937291267544],[-95.6951873597275,34.5937281267022],[-95.6979213606068,34.5937041263611],[-95.6986443608606,34.5937101266047],[-95.6998603605947,34.5937211261572],[-95.7004183612909,34.5937311265938],[-95.7023633615554,34.5937251262241],[-95.702704361181,34.5937241261617],[-95.7031823617632,34.5937131256298],[-95.7097923634248,34.5937261259192],[-95.7120303637871,34.5937241257208],[-95.7130513643701,34.5937241256725],[-95.7247793677488,34.5937211249791],[-95.7303323689552,34.5937181245776],[-95.7308573690197,34.593719124599],[-95.7344213697199,34.5937221245694],[-95.7358913704399,34.5937191243609],[-95.7361953701485,34.5937191243465],[-95.7391413709676,34.5937181241609],[-95.7420223714705,34.5937161239321],[-95.7437473723248,34.5937171238968],[-95.7447473728333,34.5937201239884],[-95.7448403726494,34.593720123984],[-95.7451333727466,34.593712124499],[-95.7453873728346,34.5937171238192],[-95.7468973727114,34.5937121244156],[-95.7478873736555,34.5937161236547],[-95.749168373705,34.5937171236404],[-95.7500593736549,34.5937141234593],[-95.7507843740006,34.5937101241392],[-95.7529663744641,34.5937141233218],[-95.7531263746889,34.5937071238895],[-95.753421374879,34.5937031236903],[-95.7570033755144,34.593707123706],[-95.7596043765225,34.5937081236293],[-95.7597233766452,34.5937101237163],[-95.7601313766797,34.5937081236043],[-95.7603493768965,34.5937061235014],[-95.7652233780908,34.5937041231782],[-95.7699173790317,34.5937011228173],[-95.7765133809408,34.5936971223199],[-95.7831573823774,34.5936881224881],[-95.7840753826804,34.5936911225836],[-95.7842973830823,34.5936841222489],[-95.7853543826365,34.5936851222452],[-95.7876623835464,34.5936811219508],[-95.7879853832365,34.5936811219355],[-95.7894273844565,34.5936791217746],[-95.7899343845858,34.5936831219358],[-95.7900403841054,34.5936821218845],[-95.7920193850467,34.593676121513],[-95.7924443849704,34.5936761214929],[-95.7928703849403,34.5936751214265],[-95.7992193861862,34.5936661216085],[-95.805758388149,34.5936581209286],[-95.8063703886505,34.5936571208533],[-95.8066553883776,34.5936641211639],[-95.8069483884751,34.5936631211037],[-95.8118243897608,34.5936501211703],[-95.8122243903238,34.593652121244],[-95.8122663895737,34.5936531212883],[-95.8152253909945,34.5936441207315],[-95.8157623907159,34.5936431206597],[-95.8195323919744,34.593639120296],[-95.8242003926078,34.5936331206965],[-95.8250083932053,34.5936321206119],[-95.8262583936154,34.5936301204601],[-95.827016393693,34.5936321205168],[-95.8278873936144,34.5936281202904],[-95.8286423944521,34.5936271202083],[-95.8289473942069,34.5936281202402],[-95.829040394023,34.5936281202358],[-95.8298103946568,34.5936261201067],[-95.8301353944396,34.593625120045],[-95.8309093943597,34.5936241199621],[-95.8336683954992,34.5936201196462],[-95.8337113956946,34.5936201196442],[-95.833738395148,34.5936201196429],[-95.8337633954081,34.5936201196417],[-95.833951395133,34.5936201196328],[-95.8341153955437,34.593620119625],[-95.8342253952488,34.5936191195735],[-95.8345273957637,34.5936191195592],[-95.8350003961145,34.5936181194905],[-95.8351033954951,34.5936181194856],[-95.8356263963659,34.5936171194146],[-95.8359053958142,34.5936171194014],[-95.835932396167,34.5936171194001],[-95.8359773964552,34.593617119398],[-95.8360073960477,34.5936171193965],[-95.8360383956867,34.5936171193951],[-95.8361023959565,34.5936161193457],[-95.836153396523,34.5936171193896],[-95.8362113965146,34.5936171193869],[-95.8363123958024,34.5936161193358],[-95.8364263965923,34.5936161193303],[-95.836532396112,34.5936161193253],[-95.8366633958917,34.5936161193191],[-95.8366883961516,34.593616119318],[-95.8367213958833,34.5936151192701],[-95.8367373966253,34.5936151192694],[-95.8368603960339,34.5936151192635],[-95.8370793962971,34.5936151192531],[-95.8372133962159,34.5936151192468],[-95.8372323961977,34.5936151192459],[-95.8373053959856,34.5936141200955],[-95.8374113964046,34.5936141200905],[-95.8374523965072,34.5936141200885],[-95.8374833961462,34.593614120087],[-95.8375153967308,34.5936141200855],[-95.837561396166,34.5936141200833],[-95.8376023962687,34.5936141200814],[-95.8376383961395,34.5936141200797],[-95.8376723968168,34.5936141200781],[-95.8376983962239,34.5936141200769],[-95.8377313968549,34.5936141200753],[-95.8377633965402,34.5936141200738],[-95.8377983963646,34.5936141200721],[-95.8378313960963,34.5936141200706],[-95.8378583964491,34.5936151192162],[-95.8428533978578,34.5936171190723],[-95.8456903981167,34.5935991190038],[-95.8461873986813,34.5935991189802],[-95.8485923995924,34.5935971187737],[-95.84880739967,34.593594119524],[-95.849189399398,34.5935921194132],[-95.8502163993596,34.5935961186505],[-95.8513663996285,34.5935891191712],[-95.8554074008632,34.5935851187946],[-95.8562284011633,34.5935741191457],[-95.8583734017098,34.5935891188393],[-95.8606924022289,34.5935721188416],[-95.8643834034205,34.5935661183889],[-95.86576440361,34.5935631181846],[-95.8669724038714,34.5935701184514],[-95.8671074038367,34.5935721185377],[-95.8685364044528,34.5935601179143],[-95.8686554045752,34.5935581178161],[-95.8710234046705,34.5935681181669],[-95.8718244049427,34.5935601177585],[-95.8742774062802,34.593548117986],[-95.8758214059348,34.5935481179128],[-95.8790444070077,34.5935491178064],[-95.8811104074858,34.5935361180059],[-95.8819944080101,34.5935341178714],[-95.8820034078726,34.5985031186073],[-95.8820174086165,34.5998691188995],[-95.8820234080573,34.6007611188297],[-95.8820204090718,34.6044281195384],[-95.8820334091382,34.6096571206206],[-95.882034409205,34.6099531208354],[-95.8820304091066,34.6112071204395],[-95.8820424089091,34.6133021212093],[-95.8820414089218,34.6141521209939],[-95.8820414089274,34.6142331211469],[-95.8820384097791,34.6155511219154],[-95.8820374097375,34.6156191214665],[-95.8820504094983,34.616445121938],[-95.8820614091769,34.6174211221598],[-95.8820414091782,34.6178451220067],[-95.8820684097251,34.6206411228562],[-95.8820684097266,34.6206631229755],[-95.8820684097714,34.6213081222618],[-95.8820684097777,34.6213981228315],[-95.8820634095886,34.622014122574],[-95.882064409659,34.6223601233051],[-95.8820724102192,34.6250821234272],[-95.8820744104087,34.6264751240706],[-95.8820744104184,34.626615123358],[-95.8820724103525,34.6270011241426],[-95.8820764105674,34.6274251239884],[-95.8820784106937,34.6279071238217],[-95.8820794107476,34.6280161234723],[-95.8820864104046,34.6313491249039],[-95.8820944110212,34.6348821248034],[-95.8821174113425,34.6370971257325],[-95.8820974113442,34.6375261258108],[-95.8821014106398,34.6376611257658],[-95.8821054109277,34.6391331255701],[-95.8820884110842,34.6397881262195],[-95.8820954114382,34.6402101259725],[-95.8821104113022,34.6411841261015],[-95.8821244114456,34.6468391271214],[-95.8821304119024,34.6494041280682],[-95.8821294118731,34.6496491277204],[-95.8821274119179,34.6516241283306],[-95.8821284119676,34.6516721278549],[-95.8821364123649,34.6520491282224],[-95.8821414118284,34.6539311290229],[-95.8821424119186,34.6545601284676],[-95.8821444120537,34.6551691287849],[-95.8821474122407,34.6558561291163],[-95.8821484123678,34.6570141296711],[-95.8821534127218,34.6587681299411],[-95.8821674126328,34.6610791299192],[-95.8821604123302,34.6613961302074],[-95.8821624125035,34.6625521306694],[-95.8821794126509,34.6662581313833],[-95.8821764135515,34.668272131101],[-95.8821844131487,34.670072131702],[-95.882184413157,34.6701921318621],[-95.8821834131785,34.6711651319453],[-95.8821904136364,34.6730761322897],[-95.8821904137012,34.6740051321344],[-95.8821974132451,34.6757061326484],[-95.8821984134187,34.6775281333689],[-95.8822014136281,34.6785361332738],[-95.8822054139494,34.6804811333938],[-95.8822034138607,34.6805401334275],[-95.8842374146547,34.6805421334233],[-95.8843564147772,34.6805421334176],[-95.8853984145348,34.680542133368],[-95.8927814169653,34.6805441331089],[-95.8928784169669,34.6805441331043],[-95.8940244170507,34.6805441330497],[-95.8964554173689,34.6805451329802],[-95.8992384187221,34.6805461328939],[-95.899902418937,34.6805461328623],[-95.9017614188108,34.6805571323837],[-95.9070474202229,34.6805481326144],[-95.9074684208603,34.6805481325944],[-95.9076494202611,34.6805551320106],[-95.9126224215476,34.6805491323951],[-95.9147944224455,34.6805491322917],[-95.9152134220907,34.680547132179],[-95.9184614234236,34.6805501321632],[-95.9192824237243,34.6805471319852],[-95.9195114235515,34.6805421317428],[-95.9196204241095,34.680540131645],[-95.9205384235133,34.6805511321105],[-95.92444242469,34.6805521319708],[-95.9261894256643,34.6805521318875],[-95.9272074252081,34.680552131839],[-95.929657426407,34.6805501316296],[-95.9298724264848,34.680552131712],[-95.9300334267669,34.6807041315472],[-95.9301384262422,34.6807321310399],[-95.9301864266629,34.6806381311821],[-95.9328984274197,34.6806181310262],[-95.9343924274527,34.680607131345],[-95.9345394270712,34.6805531315358],[-95.9346394272094,34.6805181308099],[-95.9348994275712,34.6804611308564],[-95.9350184276921,34.6804381306852],[-95.9353634275028,34.6804351314292],[-95.9375154283767,34.6804951305073],[-95.9380784284063,34.6805231308775],[-95.9383504284286,34.6805121312546],[-95.9384044282348,34.6805141313446],[-95.93845842894,34.6805081310642],[-95.9394184284894,34.6804701310577],[-95.943144429506,34.6804811304901],[-95.9437844295072,34.6804821305059],[-95.9459834307602,34.6805191303155],[-95.9460374305665,34.6805201303592],[-95.9461584307818,34.6805211303997],[-95.9462224301526,34.6805241305356],[-95.9467294302828,34.6805451305844],[-95.9468914306012,34.6805521309008],[-95.947101430447,34.6805521308908],[-95.9474144305726,34.6805511308295],[-95.9474754307034,34.6805521308729],[-95.947911431137,34.6805521308521],[-95.9483584311813,34.6805521308308],[-95.9484484308583,34.6805521308265],[-95.9485214315456,34.6805511307767],[-95.9486344313898,34.6805511307713],[-95.9495674314884,34.6805511307268],[-95.9496704317682,34.6805511307219],[-95.949751431028,34.6805541299577],[-95.9517664318409,34.6805711306487],[-95.9577814337824,34.6805501302889],[-95.9583584335599,34.6805491302152],[-95.9589554333642,34.6805281301137],[-95.9622974345604,34.6805491300273],[-95.9655004356044,34.6805481298283],[-95.9657774358595,34.6805521300003],[-95.9666964362091,34.6805641296127],[-95.9684364359583,34.6805521298735],[-95.9686894359992,34.6805471296299],[-95.9731384372669,34.6805401290937],[-95.9766084381023,34.6805441291133],[-95.9792564394907,34.6805611288748],[-95.979674439089,34.6805531293838],[-95.981323440014,34.680539128657],[-95.9815324398137,34.6805421287859],[-95.9850444407985,34.6805541282746],[-95.9888644416746,34.6805311288262],[-95.9893614413396,34.6805321288488],[-95.9918384419921,34.6805401282017],[-95.9941554433188,34.6805471284153],[-95.9988604438661,34.6805261281179],[-96.0012064447379,34.6805181276356],[-96.0012514450261,34.6805191276797],[-96.0014274450939,34.6805201277176],[-96.0016624451997,34.6805211277527],[-96.001834445082,34.6805211277445],[-96.002132444512,34.6805211277302],[-96.0027004447714,34.6805211277032],[-96.0034634450804,34.6805201276205],[-96.0044674457685,34.6804501279289],[-96.0076944461265,34.6804511278212],[-96.0078464459806,34.680451127814],[-96.0094294465445,34.6804601272558],[-96.0114184470492,34.6804581270683],[-96.014313448199,34.6804561268376],[-96.0159914486716,34.6804651271742],[-96.0164284482534,34.6804831270874],[-96.0170594487378,34.6805031270839],[-96.0183344494071,34.6805011269305],[-96.0186694487543,34.6805011269145],[-96.0198084494122,34.6804991267675],[-96.0209284500883,34.6804981266678],[-96.0240234506198,34.6804931271879],[-96.0250014510064,34.6804941271876],[-96.0254094510407,34.6804921270755],[-96.0256094513221,34.6804931271122],[-96.0275904514555,34.6804881267862],[-96.0285544520921,34.6804871266939],[-96.0312504521067,34.6804761260559],[-96.0326084530286,34.6804861264541],[-96.0330094527383,34.6804861264349],[-96.0332264529088,34.6804881265172],[-96.0337474527866,34.680477125983],[-96.034629453218,34.6804781259873],[-96.0346484531997,34.6804781259863],[-96.0349934530106,34.6804781259699],[-96.0355294535847,34.6804771258979],[-96.0363314539034,34.6804761258134],[-96.036361453496,34.6804761258119],[-96.0366934536032,34.6804751266491],[-96.0370844537484,34.6804741265842],[-96.0375004541537,34.680473126518],[-96.0379184537524,34.680473126498],[-96.0383024544724,34.6804721264335],[-96.0387294544884,34.6804711263668],[-96.0391194545874,34.6804711263482],[-96.039368454443,34.6804701262899],[-96.0394174549166,34.6804701262876],[-96.0395904548452,34.6804701262793],[-96.0396344541876,34.6804701262772],[-96.0400404550285,34.6804691262116],[-96.040061455103,34.6804691262106],[-96.0400944548346,34.680469126209],[-96.0405004547762,34.6804681261433],[-96.0407634552811,34.6804681261308],[-96.0408204552263,34.680468126128],[-96.0412034550006,34.6804671260634],[-96.0415954551922,34.6804661259984],[-96.0418654551224,34.6804661259856],[-96.0419944548093,34.6804661259794],[-96.0421494548024,34.6804651259257],[-96.0423074549347,34.6804651259182],[-96.0426454553201,34.6804641258557],[-96.0429514551211,34.6804641258411],[-96.0430584555864,34.680464125836],[-96.0431884553192,34.6804591255983],[-96.0439244552755,34.6804611256557],[-96.0441594553812,34.6804601255982],[-96.045946456411,34.6804591254667],[-96.0468684568984,34.68045712533],[-96.0499634574296,34.6804521258501],[-96.0532944581129,34.6804461254133],[-96.0557504586895,34.6804421251108],[-96.056757458622,34.6804401249701],[-96.0571324589243,34.6804361256664],[-96.057313459224,34.6804361256577],[-96.0597644595689,34.6804351254944],[-96.0627744606549,34.6804291250729],[-96.0660354616893,34.6804241246856],[-96.0664704611769,34.6804231246186],[-96.0669504618516,34.6804171243178],[-96.0671134613167,34.680420124449],[-96.0674744618701,34.6804301248947],[-96.0687764619923,34.6804221244621],[-96.06928646226,34.6804211243915],[-96.0714964631197,34.6804141248611],[-96.0763094641785,34.6804061242609],[-96.0781024645869,34.6804031240363],[-96.0785094645745,34.6803991238317],[-96.0788934643951,34.6803981237671],[-96.0850804662172,34.6803901240005],[-96.0885244667442,34.6803841235582],[-96.0897744671591,34.6804651236514],[-96.090034467526,34.6804811234805],[-96.0916164680485,34.6805691238819],[-96.0916974682069,34.6805621235539],[-96.0920504683887,34.6805621235371],[-96.0920814680524,34.6809171237839],[-96.0920794680309,34.6819341241051],[-96.0920974680084,34.6825361240972],[-96.0921454684871,34.6832711239503],[-96.0921464686047,34.6842881242714],[-96.0921674687839,34.6857831242393],[-96.092180468499,34.6859481246834],[-96.0921954683081,34.6861311241622],[-96.0922204685896,34.6864381248849],[-96.0922104681733,34.6871161247997],[-96.0922354685408,34.6886511248207],[-96.092237468641,34.6887561251854],[-96.0922874693791,34.6918701254659],[-96.09229046863,34.6920291256327],[-96.0922924687314,34.6921521259314],[-96.0922924687324,34.6921661256803],[-96.0922934687827,34.692222125575],[-96.0923464697234,34.6962391262944],[-96.0923594697764,34.701224127766],[-96.0923814704636,34.7092991284086],[-96.0923714700893,34.7105731289377],[-96.0923704700517,34.7106981293291],[-96.0923704700556,34.7107531291776],[-96.0923684699786,34.7109791288493],[-96.0923674699383,34.7110651292338],[-96.0923624706495,34.7116871292535],[-96.0923384706406,34.714605129456],[-96.0922864713515,34.7206471313047],[-96.0922794710859,34.721488130672],[-96.0922774710055,34.7216641307268],[-96.0922764709715,34.7218401307815],[-96.0922744708943,34.7220621311674],[-96.0922744708953,34.7220761309162],[-96.0922734708524,34.7221251313863],[-96.0922694706937,34.7225061310398],[-96.0922694706949,34.7225241309739],[-96.0922644714001,34.7230601315085],[-96.0922604712485,34.7235431313879],[-96.0922594712071,34.7236131310316],[-96.0921774716863,34.7333541332689],[-96.0921484723766,34.7367171342892],[-96.0921164720542,34.740445134222],[-96.0921154720169,34.7405741347987],[-96.0921044724979,34.741878134918],[-96.0920954721526,34.7429021346641],[-96.0920954721533,34.7429131351734],[-96.0920954721555,34.74294413481],[-96.0920944721114,34.7429771354386],[-96.0920944721126,34.74299313528],[-96.092088472783,34.7436931353137],[-96.0920664728417,34.7462451356576],[-96.0920414728512,34.7500751367151],[-96.0920844732471,34.7529231372704],[-96.0921114736131,34.75311113698],[-96.0920854733475,34.7536891367621],[-96.0920834732845,34.7541121374607],[-96.0920824732463,34.7542281374354],[-96.0920794731425,34.7547301372951],[-96.0920884735908,34.7551691369353],[-96.0920784731693,34.7557691377352],[-96.0920824734089,34.7565371373195],[-96.0920744730687,34.7569751378135],[-96.0920754731421,34.7573571375131],[-96.0920764732153,34.7577381380656],[-96.0920674737303,34.7582081382427],[-96.0920744731804,34.7585601374523],[-96.0920714739646,34.7589001379054],[-96.0920764733638,34.7598461385362],[-96.0920674738774,34.7602961377872],[-96.0920524741178,34.7608171385271],[-96.0920494741213,34.7628401386596],[-96.0920484741135,34.7633881388502],[-96.0920564736356,34.7641021386321],[-96.0920304742757,34.7647721390764],[-96.0920194739357,34.7671861393255],[-96.0920104744221,34.7672481394984],[-96.0920094743869,34.7674071396654],[-96.0920084743461,34.7674851396795],[-96.0920134745907,34.7676671391123],[-96.0920634744971,34.7717181405054],[-96.0920444747314,34.7747821411712],[-96.0921254749244,34.7752661410927],[-96.0921404747272,34.7753581408549],[-96.092139474695,34.7755591411677],[-96.0921394746992,34.7756181412013],[-96.0921394747021,34.7756601413472],[-96.092138474669,34.7758471410119],[-96.092128475251,34.7779231417998],[-96.0921254751373,34.7782831413803],[-96.0921254751402,34.7783241414799],[-96.0921254751419,34.778349141738],[-96.092124475099,34.7783981413087],[-96.0921424751113,34.7794881414111],[-96.092142475112,34.7794981418741],[-96.0921434751609,34.7795331416958],[-96.0921844754388,34.7820171424853],[-96.0921884758616,34.7853791425577],[-96.0921914751041,34.7854161424719],[-96.0921924751514,34.78543014312],[-96.0922174754116,34.7854331423584],[-96.0920704759039,34.7870551428177],[-96.0920774753335,34.7871161429437],[-96.0920494762197,34.7925811441556],[-96.0920244761741,34.7956161443781],[-96.091920475912,34.7965221449606],[-96.0919204767457,34.8083161469135],[-96.0919204769427,34.8111011472513],[-96.091920476949,34.8111891477282],[-96.0918804769069,34.8113901471436],[-96.0918764776224,34.8114141473556],[-96.0918684772673,34.8116381478343],[-96.0919314775015,34.811790147674],[-96.0920084774957,34.8120831477459],[-96.0920284775309,34.8121831478781],[-96.0920384770991,34.8122361476335],[-96.0920414772581,34.8125171480527],[-96.092035477016,34.813029147476],[-96.0920054774834,34.813875147975],[-96.092010477878,34.8161751483408],[-96.0919904779396,34.8174431485921],[-96.0919584778026,34.8237661499573],[-96.0919664782506,34.8248521498748],[-96.0919804780527,34.8255911499143],[-96.0919594780088,34.8260221500847],[-96.0919544787773,34.827449150502],[-96.0919514787126,34.828499150552],[-96.0919554789813,34.8296741509929],[-96.0919414783947,34.8305571514054],[-96.0919354790419,34.8309261514026],[-96.0919364791391,34.8316431513235],[-96.0919374783247,34.8321871513286],[-96.0919374783375,34.8323681516148],[-96.0919574784596,34.8336941518513],[-96.0919534793195,34.8357541518977],[-96.0919544794987,34.8376291523719],[-96.0919504793953,34.8387861528791],[-96.0919394789809,34.8401371524759],[-96.0919374789216,34.8406071526525],[-96.0918864797825,34.8480501546105],[-96.0918854797427,34.8481431544197],[-96.0918804795668,34.848932154077],[-96.0919184795727,34.8495291547355],[-96.091911480156,34.849650154942],[-96.0919024797495,34.8498041548778],[-96.091843479725,34.849994154684],[-96.0917484798354,34.8502651546449],[-96.0917384802724,34.8502841546257],[-96.0916374800997,34.8504861549896],[-96.0917834796805,34.8505561546261],[-96.0918414796758,34.8506071551859],[-96.0918944803446,34.8507451543779],[-96.0918844799052,34.8510871549239],[-96.0918864800238,34.8514511546892],[-96.0918884801403,34.8517851548643],[-96.0918964806052,34.8531091550087],[-96.0918844801504,34.854542155704],[-96.0918104803244,34.8546581556822],[-96.0917064800031,34.8547271552845],[-96.091555480199,34.8547781558544],[-96.0906744798133,34.8547671553876],[-96.090628480378,34.8547661553435],[-96.0903884800402,34.8547631552162],[-96.0895794793952,34.8547411560353],[-96.0890154793214,34.8547421552095],[-96.0890094799548,34.8549161560711],[-96.0890064798235,34.8550261557681],[-96.0890154794235,34.8561801561357],[-96.0890154795094,34.8573901563985],[-96.0890324794724,34.8584321560769],[-96.0890184798092,34.8596531568496],[-96.0890184798099,34.8596631564133],[-96.0890184798107,34.8596741569226],[-96.0890124796221,34.8609361568952],[-96.0890324797284,34.8620371566071],[-96.089013479834,34.8632671568974],[-96.0890094807285,34.8658101577218],[-96.0890234805674,34.867063158176],[-96.0890074808186,34.8683831581363],[-96.0890104810218,34.8692851585283],[-96.0890084814539,34.876668159504],[-96.089006481369,34.8767781601002],[-96.0890204811529,34.877256159747],[-96.0890184812529,34.8799661602091],[-96.0890274817149,34.8805941605054],[-96.0890224817168,34.8838791606093],[-96.0890214817302,34.8847201608751],[-96.0890294823352,34.8880081620165],[-96.0890334817231,34.8894371616263],[-96.0890244822508,34.8900801617188],[-96.0890434823046,34.891092162706],[-96.0890514819105,34.8929771627431],[-96.0890404823625,34.8938591631089],[-96.0890474827252,34.8943931626507],[-96.0890464827284,34.8950891633979],[-96.0890464827292,34.8951011630542],[-96.0890444827322,34.8964451632255],[-96.0890254828605,34.8979901637104],[-96.0891134824694,34.8983361635374],[-96.0889664829668,34.9000161639834],[-96.0889624829191,34.901950164491],[-96.0889594828905,34.9035011643535],[-96.0889524835471,34.9046501644901],[-96.0889474836483,34.9093221658564],[-96.0889434836325,34.9117021663283],[-96.088941483642,34.9131351661235],[-96.0889394836126,34.9140231667666],[-96.0889364836501,34.9164991671865],[-96.0889354836282,34.9168421668789],[-96.0889274845943,34.9229771685296],[-96.0889264846566,34.9245001679949],[-96.0889194848084,34.93117116928],[-96.0889944847544,34.9320861693708],[-96.0889954848202,34.9323581702725],[-96.0889824851932,34.9334291703955],[-96.0889844855703,34.937409171199],[-96.0889674857107,34.9378211704894],[-96.0889594853579,34.9380751705582],[-96.0889664856925,34.9382151707443],[-96.0889924851371,34.938741170814],[-96.0889424855894,34.9397611712755],[-96.0889274859376,34.9417831713608],[-96.0889234857886,34.9422931715906],[-96.0889454859938,34.9434721722152],[-96.0889534855497,34.9446511719413],[-96.0889524864836,34.9457831721898],[-96.0889464862164,34.9459371721254],[-96.0889154857335,34.9467101728414],[-96.088916485787,34.9468111721215],[-96.0889214860716,34.9475481729678],[-96.0889334866836,34.9483241729214],[-96.0889204861281,34.9489861729942],[-96.088951486676,34.9491211729477],[-96.0889884865965,34.9491691724702],[-96.0890864867958,34.9512841732584],[-96.0890864868426,34.9519381729602],[-96.0890864876496,34.963213175159],[-96.0890864879007,34.966720175647],[-96.0890864880639,34.9689971767455],[-96.0890874882521,34.9709781767303],[-96.0890884883663,34.9719241773604],[-96.0890844887525,34.9799001788079],[-96.08908448913,34.9851641797017],[-96.0890844896573,34.9925131808984],[-96.0890744892439,34.9932141809778],[-96.0890014899573,35.00019718232],[-96.0889824900596,35.0013671825298],[-96.0888874905814,35.00736118395],[-96.0888634904756,35.0088621841959],[-96.0888234905989,35.0113591846895],[-96.0888504909879,35.0118641846861],[-96.088841490762,35.0145271847697],[-96.0888264912375,35.0183071853064],[-96.0888004917104,35.0291361875391],[-96.0888054929399,35.042988190332],[-96.0887994931585,35.0498811911],[-96.0871214927149,35.0502791916217],[-96.0870174932899,35.0503041909856],[-96.0866234930122,35.0503991918058],[-96.0858904932079,35.0505781911355],[-96.0826184917092,35.0512311918496],[-96.0810534920005,35.0515101922524],[-96.0801404910426,35.0516751918421],[-96.07828849063,35.0521561926177],[-96.0773464910286,35.0523681925861],[-96.0767804908709,35.0524951921982],[-96.07624049012,35.0526181925232],[-96.0732504900176,35.0534151926958],[-96.0729194899729,35.0536411923833],[-96.0724434894964,35.0538271929239],[-96.0714114893557,35.0545521932649],[-96.0701084892559,35.0555191931319],[-96.0692464889297,35.056591193342],[-96.0686784887771,35.0580741936803],[-96.0683744891493,35.0591901941016],[-96.0682184891513,35.0597671938431],[-96.06804048902,35.0601721937164],[-96.0675624885163,35.0612661940271],[-96.0669054887157,35.0625071948569],[-96.0666744888436,35.0631761943648],[-96.0656324884051,35.0661991949776],[-96.0648584886958,35.0691171961121],[-96.0643614891628,35.0709481963704],[-96.0643104886104,35.0711401962688],[-96.0642364888087,35.0715931965606],[-96.0641924885867,35.0718661966115],[-96.0641344886253,35.0722861962741],[-96.0640954886364,35.0725771962587],[-96.0640424889046,35.0729641970913],[-96.0639874890815,35.0733731971438],[-96.0638494890687,35.074639197307],[-96.063761488726,35.0765891976588],[-96.0635174891919,35.0778311976154],[-96.0635464888207,35.0789751975181],[-96.0635164892835,35.0797421979561],[-96.0634974893378,35.080241197677],[-96.0633214894897,35.0832801989881],[-96.0632274896878,35.084118199119],[-96.0631854895666,35.0845041990054],[-96.0631394892628,35.0849301989451],[-96.0630764890809,35.0855051985895],[-96.063007489521,35.086093198836],[-96.06292948955,35.0867701996061],[-96.0627144895668,35.0880761998262],[-96.061890489265,35.089987200207],[-96.0614094895014,35.090801200145],[-96.0611734893783,35.0912031998822],[-96.0609504889571,35.091583200399],[-96.0596754892967,35.0931072008712],[-96.0581374891337,35.0946622009928],[-96.056578488888,35.0961042012797],[-96.054941488605,35.0973052012048],[-96.0548774883319,35.097262201915],[-96.0544714884084,35.0975142019107],[-96.0536574875707,35.0980382019285],[-96.0528044876061,35.0983362022769],[-96.0514714870029,35.0991422018861],[-96.0511934876119,35.099293201696],[-96.0506284875136,35.0996012024933],[-96.0477564866385,35.1010992027391],[-96.0473984862419,35.1013382030299],[-96.0471854862673,35.1014812024662],[-96.0471314864637,35.1015172023369],[-96.047070486336,35.1015592024857],[-96.0470044868751,35.1015942023107],[-96.0465114865152,35.1018572028197],[-96.0448934861824,35.1026222032427],[-96.0437564856639,35.1032742029071],[-96.0418644852381,35.1043542035379],[-96.0414134850408,35.1048052037556],[-96.0405624852273,35.105909203648],[-96.0402464849846,35.1062152043406],[-96.0392194851273,35.1076512043238],[-96.0390304844757,35.107915203965],[-96.0379514849084,35.1093982043281],[-96.0373874848976,35.1102742044425],[-96.036873484502,35.1110742046333],[-96.0357984842449,35.1128882050321],[-96.0357144839634,35.1131172057457],[-96.0355944847033,35.1132472054749],[-96.0355484843801,35.1134042055513],[-96.0352154842648,35.113936205916],[-96.0351284847299,35.1139782051668],[-96.0350484846202,35.1140172051777],[-96.0343814843338,35.1149512061837],[-96.0336464844727,35.1156282060866],[-96.0332934843321,35.1162002056063],[-96.0328714836916,35.1167972062867],[-96.0328964839555,35.1168502060412],[-96.0329304837384,35.1169182064898],[-96.0323314838947,35.1176752064925],[-96.0316354840598,35.1185772069179],[-96.0310894839597,35.1191112064863],[-96.0307824832422,35.1195162063659],[-96.0306344835855,35.1196812068176],[-96.0299764836967,35.1203422068753],[-96.0289274827502,35.1208252068051],[-96.0283574832973,35.1208292070182],[-96.0279764827165,35.120833207222],[-96.0262514827446,35.120590206848],[-96.0249764820465,35.1202022069335],[-96.0249404821716,35.1201462070406],[-96.0247934816495,35.120139207623],[-96.0243474816448,35.1200472069827],[-96.0243114817659,35.1199362072414],[-96.0242414821159,35.1199202074034],[-96.0220944814322,35.1192902071194],[-96.0200214805748,35.1185502071351],[-96.0193104808598,35.1182962071015],[-96.018251480287,35.1179252070642],[-96.0181384804438,35.1179392068185],[-96.0174874799138,35.1176832066894],[-96.0169314801972,35.1174982071448],[-96.0155364793248,35.1170362074074],[-96.0146304795628,35.1168162071589],[-96.013878478846,35.1165642072199],[-96.0133114786404,35.1166722068518],[-96.0123214785997,35.1167202073238],[-96.0113014780799,35.1169452069987],[-96.0103694780635,35.1174442076636],[-96.0099664782895,35.1178402071312],[-96.0098134783999,35.117990207788],[-96.0097614777907,35.1180402074074],[-96.0092214779826,35.1187652077244],[-96.009015478345,35.1190792078828],[-96.0089194775219,35.1195142082417],[-96.0089074778986,35.1199822083257],[-96.0088904781393,35.121772208461],[-96.0088864779853,35.1222072079161],[-96.009101478153,35.1234492087495],[-96.0094334783346,35.1244722084313],[-96.0095334785208,35.1251002087228],[-96.0103094787125,35.1275682096318],[-96.0103894788535,35.1279602088907],[-96.0111774797026,35.1318202103931],[-96.0122164795498,35.1349752107198],[-96.0128494802358,35.1364902106819],[-96.0130334807063,35.136928211166],[-96.0136614803553,35.1397432110602],[-96.0136464807078,35.1417932115414],[-96.0135024803624,35.1423052118702],[-96.0133774808933,35.1427512118405],[-96.0127534808478,35.1443102121026],[-96.0122984804872,35.1450662120519],[-96.0122704809907,35.1451122123843],[-96.0118084802798,35.1455142121326],[-96.0112484804165,35.1458652122226],[-96.0102644798068,35.1466322127071],[-96.0091344796087,35.1472272133296],[-96.0051074791352,35.1487762132953],[-96.0038604788856,35.1490722135705],[-96.0002854777123,35.1495652140871],[-95.9975854775342,35.1499012135873],[-95.9947854763206,35.1503012142568],[-95.9906854750834,35.1508012142238],[-95.9902864754693,35.1508442144354],[-95.9860844739954,35.1513012151146],[-95.9844584741482,35.1514812145345],[-95.9837174739656,35.1515632147698],[-95.9833834737681,35.1516012147468],[-95.9832844736737,35.1516012147517],[-95.9831844735402,35.1517012148897],[-95.9830844733995,35.1517012148946],[-95.9829844732588,35.1517012148995],[-95.9826844737359,35.1517012149142],[-95.9824404732126,35.1517012149261],[-95.9823844733137,35.1517012149289],[-95.9818844735093,35.1517012149533],[-95.9811844734235,35.1517012149876],[-95.9805844725863,35.1518012151501],[-95.9798844725077,35.1519012153175],[-95.9790844722883,35.1520012154897],[-95.978684472632,35.1521022156887],[-95.9779844725534,35.1522022149568],[-95.9771844723269,35.1522022149959],[-95.9762844719667,35.1523022151731],[-95.9752844714586,35.1523022152221],[-95.9743844710986,35.1524022153992],[-95.9737844711534,35.1524022154286],[-95.9727844706454,35.1524022154776],[-95.9717844710438,35.1525022156596],[-95.9709844708172,35.1525022156988],[-95.9701844705906,35.1525022157379],[-95.9695844697461,35.1525022157673],[-95.9688844696602,35.1525022158016],[-95.9682844697151,35.1525022158309],[-95.9676844697772,35.1526022159934],[-95.9665404697795,35.1525142155725],[-95.9663844697389,35.1525022159239],[-95.966197469161,35.1525022159331],[-95.9655584692059,35.1525022159644],[-95.9649844686679,35.1525022159925],[-95.9636844686296,35.152402215923],[-95.9624844687392,35.1524022159817],[-95.9612844679424,35.1523022159073],[-95.9605844678492,35.1522022158084],[-95.9593844679516,35.1521022166334],[-95.9583834673826,35.1519022164161],[-95.9573834668599,35.1517022161988],[-95.9560834668216,35.1516022161293],[-95.9548834660247,35.1515022160549],[-95.9538834664159,35.1515022161039],[-95.9527834657597,35.1514022160246],[-95.9517834652371,35.1512022167066],[-95.9504834651915,35.151002216504],[-95.9489834648571,35.150702216178],[-95.9478834641864,35.1504022167318],[-95.9465834641263,35.1500022162629],[-95.9452834640589,35.1495022165602],[-95.9443834636698,35.1492022162049],[-95.9434834632733,35.1488022166157],[-95.9425834628768,35.1484022161273],[-95.9416834624876,35.1481022166712],[-95.9381834619854,35.1471022164105],[-95.9378834615559,35.1470022162921],[-95.9372814614891,35.1466032158353],[-95.9364794611551,35.1464032165076],[-95.9357784610084,35.1462042163219],[-95.9348834608509,35.1459022158737],[-95.9337774607938,35.145500216202],[-95.9329854600173,35.1452032159803],[-95.9320894598136,35.1449042165703],[-95.9313854595202,35.1446022161127],[-95.9306764598944,35.1443002165548],[-95.9293734587958,35.143900216086],[-95.9284654589349,35.143600215731],[-95.9273764587744,35.1433022163767],[-95.9263834585765,35.1431042162516],[-95.9255854584279,35.1429022159318],[-95.9243564580845,35.1428002166654],[-95.9233824578754,35.1427002165799],[-95.9224824575074,35.1426932162998],[-95.9212914571288,35.1426072159738],[-95.9200854569601,35.1426072160328],[-95.9190804562189,35.142593216333],[-95.917793455885,35.142507216911],[-95.9164904557209,35.1425932164596],[-95.9151874555578,35.1426932166565],[-95.913385454745,35.1429002164356],[-95.912364455076,35.1431002167517],[-95.9112944540268,35.1432002169372],[-95.9105624542627,35.1433002171061],[-95.9098794540657,35.1433002171395],[-95.9087774542305,35.1434002173266],[-95.9079734538255,35.143500217499],[-95.9066704536768,35.1438002170628],[-95.9058744527502,35.1439932170438],[-95.9049894531,35.1442932174864],[-95.9049374524893,35.144322217033],[-95.9040964530933,35.1447932172965],[-95.9040324528253,35.1448212176966],[-95.9038704525125,35.1448922173944],[-95.9038574528094,35.1448982176728],[-95.9033964521302,35.1451002180542],[-95.9023994526961,35.1455942175915],[-95.9014824524757,35.146094218302],[-95.9007604522985,35.1465042184335]]]},"properties":{"OBJECTID":48,"STATEFP10":"40","COUNTYFP10":"121","COUNTYNS10":"01101848","GEOID10":"40121","NAME10":"Pittsburg","NAMELSAD10":"Pittsburg County","LSAD10":"06","CLASSFP10":"H1","MTFCC10":"G4020","CSAFP10":" ","CBSAFP10":"32540","METDIVFP10":" ","FUNCSTAT10":"A","ALAND10":3381354163,"AWATER10":187418802,"INTPTLAT10":"+34.9255401","INTPTLON10":"-095.7481302","Shape__Area":5321062208.707031,"Shape__Length":359484.13601472665}}],"source":{"service":"https://services7.arcgis.com/cpyRdAfuizCFzBhp/arcgis/rest/services/Pittsburg_County_Data/FeatureServer/0","publisher":"OU Center for Spatial Analysis (contracted by the Oklahoma State Election Board)","retrieved":"2026-09-01","crs":"EPSG:4326","note":""}}