{"type":"FeatureCollection","name":"kiowa_sections","source":"BLM National PLSS CadNSDI, MapServer layer 2 (Section), township OK170030N0130E0, retrieved 2026-09-04","features":[{"type":"Feature","geometry":{"type":"Polygon","coordinates":[[[-95.88222,34.69867],[-95.88222,34.7023],[-95.88222,34.70592],[-95.88222,34.70954],[-95.88661,34.70956],[-95.89099,34.70957],[-95.89538,34.70958],[-95.89977,34.70959],[-95.89977,34.70596],[-95.89977,34.70233],[-95.89977,34.6987],[-95.89977,34.69507],[-95.89538,34.69507],[-95.89099,34.69506],[-95.8866,34.69505],[-95.88222,34.69505],[-95.88222,34.69867]]]},"properties":{"section":25,"plss":"OK170030N0130E0SN250","phase":1}},{"type":"Feature","geometry":{"type":"Polygon","coordinates":[[[-95.91734,34.70232],[-95.91734,34.69869],[-95.91734,34.69506],[-95.91294,34.69506],[-95.90855,34.69506],[-95.90416,34.69507],[-95.89977,34.69507],[-95.89977,34.6987],[-95.89977,34.70233],[-95.89977,34.70596],[-95.89977,34.70959],[-95.90416,34.70959],[-95.90855,34.70959],[-95.91295,34.70958],[-95.91734,34.70958],[-95.91734,34.70595],[-95.91734,34.70232]]]},"properties":{"section":26,"plss":"OK170030N0130E0SN260","phase":1}},{"type":"Feature","geometry":{"type":"Polygon","coordinates":[[[-95.9349,34.70231],[-95.9349,34.69869],[-95.9349,34.69506],[-95.93051,34.69506],[-95.92612,34.69506],[-95.92173,34.69506],[-95.91734,34.69506],[-95.91734,34.69869],[-95.91734,34.70232],[-95.91734,34.70595],[-95.91734,34.70958],[-95.92173,34.70958],[-95.92612,34.70958],[-95.93051,34.70957],[-95.9349,34.70957],[-95.9349,34.70594],[-95.9349,34.70231]]]},"properties":{"section":27,"plss":"OK170030N0130E0SN270","phase":1}},{"type":"Feature","geometry":{"type":"Polygon","coordinates":[[[-95.9525,34.68779],[-95.95249,34.68416],[-95.95249,34.68054],[-95.94809,34.68054],[-95.94369,34.68054],[-95.9393,34.68054],[-95.9349,34.68055],[-95.9349,34.68417],[-95.9349,34.6878],[-95.9349,34.69143],[-95.9349,34.69506],[-95.9393,34.69506],[-95.94371,34.69505],[-95.94811,34.69505],[-95.95251,34.69504],[-95.95251,34.69142],[-95.9525,34.68779]]]},"properties":{"section":33,"plss":"OK170030N0130E0SN330","phase":2}},{"type":"Feature","geometry":{"type":"Polygon","coordinates":[[[-95.9349,34.6878],[-95.9349,34.68417],[-95.9349,34.68055],[-95.93051,34.68055],[-95.92612,34.68055],[-95.92172,34.68055],[-95.91733,34.68055],[-95.91733,34.68418],[-95.91733,34.6878],[-95.91733,34.69143],[-95.91734,34.69506],[-95.92173,34.69506],[-95.92612,34.69506],[-95.93051,34.69506],[-95.9349,34.69506],[-95.9349,34.69143],[-95.9349,34.6878]]]},"properties":{"section":34,"plss":"OK170030N0130E0SN340","phase":2}},{"type":"Feature","geometry":{"type":"Polygon","coordinates":[[[-95.91733,34.6878],[-95.91733,34.68418],[-95.91733,34.68055],[-95.91294,34.68055],[-95.90855,34.68055],[-95.90416,34.68055],[-95.89977,34.68055],[-95.89977,34.68418],[-95.89977,34.68781],[-95.89977,34.69144],[-95.89977,34.69507],[-95.90416,34.69507],[-95.90855,34.69506],[-95.91294,34.69506],[-95.91734,34.69506],[-95.91733,34.69143],[-95.91733,34.6878]]]},"properties":{"section":35,"plss":"OK170030N0130E0SN350","phase":2}}]}