{"type":"FeatureCollection","features":[{"type":"Feature","id":198,"geometry":{"type":"Polygon","coordinates":[[[-95.6990535851761,34.9071750372288],[-95.6967685298081,34.9071702782074],[-95.6967725937864,34.9057822831134],[-95.6923840720952,34.9057677958458],[-95.6923840720952,34.9055815607436],[-95.6923840702986,34.9039677316709],[-95.6922989998412,34.9039669721132],[-95.6857919012654,34.9039086423358],[-95.6857767403983,34.9022133579354],[-95.6821226498424,34.9021659453337],[-95.6821215979152,34.9010956981192],[-95.680741142445,34.9010695716591],[-95.6807446719258,34.9021480647603],[-95.6791594832159,34.9021274973073],[-95.6791620631773,34.900301539752],[-95.6778535250322,34.9000882386443],[-95.6765747202247,34.8998866197231],[-95.6755426610661,34.8997196102337],[-95.6750345658566,34.8996303770663],[-95.675033000093,34.8993600003305],[-95.6750189998493,34.8989159998685],[-95.6749080004196,34.8975939998228],[-95.6748149996348,34.8970160002715],[-95.6747700003273,34.8968089997094],[-95.6747753138622,34.8959314813472],[-95.6768376229723,34.8963898350884],[-95.6783745218459,34.8967337792281],[-95.6802812220875,34.8971504782999],[-95.6838159804411,34.8979478161048],[-95.6861545080264,34.8984552023629],[-95.6878382509062,34.8988461471787],[-95.6879210315579,34.8988653671732],[-95.6879229997667,34.8987899997483],[-95.6879300003377,34.8985220000074],[-95.6879370000104,34.8982669997089],[-95.6879620001248,34.8973780002319],[-95.6879820002163,34.8967100002493],[-95.6896509999456,34.8967119998824],[-95.6924469999792,34.8966860002282],[-95.6924439996061,34.8948639998923],[-95.6939120003923,34.8948729999164],[-95.695754000374,34.8948699996629],[-95.695750000176,34.8950940001181],[-95.6957622145689,34.8985203688026],[-95.6978940002815,34.8985240003331],[-95.6978919997333,34.8992119997064],[-95.6978911885546,34.899405994815],[-95.6967912158622,34.8994009900021],[-95.6967900004417,34.8998379997079],[-95.6967929999164,34.9005400003262],[-95.6967870000686,34.9008469998442],[-95.7012140001967,34.9024669999707],[-95.701204000151,34.9028909996735],[-95.7011734376684,34.9044375252195],[-95.6990656863812,34.9034565941803],[-95.6990919998325,34.9058279999477],[-95.6990719997411,34.9061489998331],[-95.6990659998933,34.9066909998759],[-95.6990559998475,34.9070860000183],[-95.6990535851761,34.9071750372288]]]},"properties":{"OBJECTID":198,"ST_FIPS":40,"CO_FIPS":121,"COUNTY":"Pittsburg","CITYNAME":"Alderson","FIPS":"01150","AD_VAL_NUM":"0023","LAST_UPDAT":"01/01/2000","LAST_VERIF":"12/01/2000","ACRES":375.17,"Shape__Area":2262431.5703125,"Shape__Length":10063.202252571422}},{"type":"Feature","id":199,"geometry":{"type":"Polygon","coordinates":[[[-96.0689859995856,34.769748000289],[-96.0661824761615,34.7697408158852],[-96.0661779998564,34.7693629999297],[-96.0661283355977,34.7639214640434],[-96.0746782651133,34.7638723009676],[-96.0747309998137,34.7675219998829],[-96.0747309998137,34.7686199999088],[-96.0747309998137,34.7692589996778],[-96.0747219995929,34.7697040002334],[-96.0731940003289,34.769716000318],[-96.0730179997035,34.7697189999699],[-96.0689859995856,34.769748000289]]]},"properties":{"OBJECTID":199,"ST_FIPS":40,"CO_FIPS":121,"COUNTY":"Pittsburg","CITYNAME":"Ashland","FIPS":"03050","AD_VAL_NUM":"0065","LAST_UPDAT":"01/01/2000","LAST_VERIF":"12/01/2000","ACRES":125.35,"Shape__Area":753508.00390625,"Shape__Length":3481.3545393726745}},{"type":"Feature","id":200,"geometry":{"type":"Polygon","coordinates":[[[-95.6573830002053,35.181748999633],[-95.6573699997865,35.1799030002413],[-95.6544530002774,35.1799000001556],[-95.6506329998716,35.179887999812],[-95.6447816570802,35.1798759297142],[-95.6462410547009,35.1774247867781],[-95.6466766926979,35.1766637992485],[-95.6472787840255,35.1759238862605],[-95.6477248622428,35.1753062251951],[-95.6483664453069,35.1744537502607],[-95.6481139998475,35.174451000365],[-95.6397685322804,35.1743998383364],[-95.6397884883544,35.1708642707664],[-95.6367289998716,35.1708050003502],[-95.6321019997269,35.1707200001168],[-95.6321466397083,35.1693097333068],[-95.6323254520606,35.1693449922028],[-95.6324782150662,35.1693648286754],[-95.6326241499774,35.1693737397758],[-95.6328210481113,35.1693700776698],[-95.6330083028305,35.1693567730693],[-95.6332108890968,35.1693240167781],[-95.6333724097781,35.1692840838548],[-95.6336169599446,35.1691763662018],[-95.6338254786849,35.1690647182547],[-95.6344221441882,35.168665347946],[-95.6350187423179,35.1682389211009],[-95.635694835062,35.1677729556346],[-95.6358795412608,35.1676553186383],[-95.6360811932791,35.1675454413163],[-95.6362776117126,35.1674611529302],[-95.6365492308135,35.1673801440569],[-95.6367436567837,35.1673437636928],[-95.6369042072845,35.1673205913141],[-95.6370873701777,35.1673067172577],[-95.6372975588862,35.1673089460072],[-95.6374759229791,35.1673238709166],[-95.6377459619434,35.1673624477263],[-95.6379611542681,35.1674141318986],[-95.6381313517767,35.1674786450908],[-95.6383663178174,35.1675813699671],[-95.6388001771502,35.1678082497111],[-95.6391790946219,35.1679927219989],[-95.6397042326689,35.1682813483572],[-95.6400058123812,35.1684199953594],[-95.6402686567384,35.1685145488003],[-95.64052041319,35.168572972726],[-95.6407645833691,35.1686003282682],[-95.6410130358171,35.1686112118824],[-95.6413445653609,35.1686176417397],[-95.6435426647077,35.168654642783],[-95.644882732821,35.1686786438476],[-95.6457796251737,35.1686928282943],[-95.6461808702718,35.1687006093244],[-95.6465467046797,35.168716004688],[-95.6467434806427,35.1687328320043],[-95.6469054154474,35.1687528918644],[-95.647088588222,35.1687855962478],[-95.6472563944154,35.1688300609994],[-95.6475669312293,35.1689398580118],[-95.6480676270158,35.1691474357103],[-95.6484232844099,35.1693228021948],[-95.648581334001,35.169407085714],[-95.6510388892597,35.1694450182625],[-95.6505952176291,35.1704921320242],[-95.6504322030494,35.1708931191379],[-95.6574040001217,35.1709389999676],[-95.6573959997258,35.1713809999019],[-95.6574049999466,35.1717109999177],[-95.6573880002282,35.1721960002359],[-95.6573689999616,35.1728769998695],[-95.6573980002739,35.1736680003087],[-95.6579452692164,35.1736679320196],[-95.6580269997376,35.1735809999185],[-95.6581029999055,35.1735010001866],[-95.6584069996791,35.1731359998599],[-95.6585189998322,35.172959999823],[-95.6585382103045,35.1729300213654],[-95.6609651914026,35.1729547657463],[-95.6606132215928,35.173598429082],[-95.6618894437439,35.1736117932005],[-95.6618714522854,35.1747023646798],[-95.6619057050471,35.1746835883447],[-95.6621048777153,35.1745744937205],[-95.6622649673804,35.1744874451034],[-95.662342744416,35.1744450218197],[-95.6628075138794,35.1742014739272],[-95.6631217544473,35.1740796681329],[-95.6635421992379,35.1739241737027],[-95.6637298653856,35.1738841982469],[-95.6638901077643,35.1738680666349],[-95.6639887059516,35.1738643357081],[-95.6639863101447,35.1730832758886],[-95.66503727884,35.1730879717173],[-95.6650273946769,35.1740017006684],[-95.6648042594485,35.1740026471664],[-95.6639966551435,35.1740504449365],[-95.6639056306524,35.1740554469076],[-95.6638210713364,35.1740604209754],[-95.6637661348652,35.1740638016377],[-95.6636158009041,35.1740958261374],[-95.6632142458872,35.1742443320356],[-95.6629144861618,35.1743605261742],[-95.6624632561063,35.1745969782114],[-95.6623870331562,35.1746385547877],[-95.6622271222558,35.1747255063178],[-95.662028295439,35.1748344120291],[-95.6618677521247,35.1749224199791],[-95.6618373576271,35.1767302516357],[-95.6595330001586,35.1766879998717],[-95.6595420003794,35.1778549997207],[-95.6595289999606,35.1810349996872],[-95.6595189999149,35.1818340000828],[-95.6573840000302,35.1818290000588],[-95.6573830002053,35.181748999633]]]},"properties":{"OBJECTID":200,"ST_FIPS":40,"CO_FIPS":121,"COUNTY":"Pittsburg","CITYNAME":"Canadian","FIPS":"011450","AD_VAL_NUM":"0264","LAST_UPDAT":"01/01/2000","LAST_VERIF":"12/01/2000","ACRES":479.36,"Shape__Area":2909960.7421875,"Shape__Length":11882.818378037266}},{"type":"Feature","id":201,"geometry":{"type":"Polygon","coordinates":[[[-95.5561184119498,35.2223021132297],[-95.5560801967193,35.2173916029816],[-95.5482648232047,35.2174564118913],[-95.5481165409957,35.2101648589576],[-95.5438603573155,35.2101673492902],[-95.5438216830459,35.2119712628897],[-95.5398584507597,35.211928993487],[-95.5398842916971,35.2110361169364],[-95.5392743176529,35.2110306489789],[-95.5392799994971,35.2101698616416],[-95.5393042306535,35.2064973132355],[-95.5405582248913,35.2049292491068],[-95.5421789482589,35.2028355298707],[-95.5460663321924,35.2028021932426],[-95.5475511952548,35.203727051314],[-95.5482644072847,35.2041796196671],[-95.5492499076604,35.2050073718704],[-95.5516794121261,35.2050992410555],[-95.5539634353298,35.2060706620916],[-95.5550264064156,35.2060661604763],[-95.5572836472475,35.2051630622628],[-95.557280403431,35.2046818017503],[-95.5579770945446,35.2043957144168],[-95.5579487014934,35.2065403334066],[-95.5685167870246,35.2065854168127],[-95.5685175577791,35.2083964363644],[-95.5689240427503,35.2084201482497],[-95.5686920150989,35.2089921159308],[-95.5687265139991,35.2090371414598],[-95.5688439525528,35.2090619790707],[-95.5689197290403,35.2090992640979],[-95.5690636912511,35.2091427474941],[-95.56919630235,35.20921421423],[-95.569362996429,35.2092639084193],[-95.5695031749358,35.2093136106518],[-95.5696812273134,35.2093508647367],[-95.5698516961132,35.2093694679187],[-95.5700070139276,35.2093880755002],[-95.5701736945319,35.2094066794077],[-95.570329006058,35.2094128506165],[-95.5704956875607,35.2094314545183],[-95.5706623699616,35.2094531660377],[-95.5707987557813,35.2094904318021],[-95.5708669531827,35.2095183915731],[-95.5709578824524,35.2095556712529],[-95.5710753245994,35.2095836155882],[-95.5711435255941,35.2096209018437],[-95.5712382637206,35.2097017049414],[-95.571302697181,35.2097825167664],[-95.5713519814524,35.2098695517965],[-95.5713596144374,35.2099939065799],[-95.5713710239398,35.2100933893887],[-95.571371081432,35.2102177460311],[-95.5751019635717,35.2102768886188],[-95.5750039600691,35.2175329403235],[-95.5572104049075,35.2174024455684],[-95.5571701864339,35.2210743641795],[-95.5616366962648,35.2211067385499],[-95.5616452688875,35.2247502312517],[-95.566122433636,35.2247976733473],[-95.5661009441378,35.2265860880315],[-95.5683321922169,35.2266036900115],[-95.5683331848553,35.2290710907026],[-95.567008129387,35.2295992643521],[-95.5669201385066,35.2296376919897],[-95.5668250428507,35.2296792293917],[-95.5660748795198,35.2300119189489],[-95.5661090128057,35.2283987446454],[-95.561639039071,35.2283573518796],[-95.5616680133322,35.2265507549087],[-95.5594072259516,35.2265330362408],[-95.5594217472182,35.2256661134349],[-95.5572200887462,35.2256362190003],[-95.5572339740056,35.2223322261127],[-95.5561184119498,35.2223021132297]]]},"properties":{"OBJECTID":201,"ST_FIPS":40,"CO_FIPS":121,"COUNTY":"Pittsburg","CITYNAME":"Carlton Landing","FIPS":"011990","AD_VAL_NUM":"1969","LAST_UPDAT":"08/15/2015","LAST_VERIF":"11/04/2016","ACRES":997.38,"Shape__Area":6060356.4921875,"Shape__Length":17964.353637728447}},{"type":"Feature","id":202,"geometry":{"type":"Polygon","coordinates":[[[-95.6657260611858,35.1160822256688],[-95.6657272873861,35.1141803896384],[-95.665868109985,35.1142039563209],[-95.6662175609187,35.1142711298894],[-95.666509535844,35.1143445700078],[-95.6668522574979,35.1144583093989],[-95.6672340953926,35.1145948899285],[-95.6675971037006,35.1147545040052],[-95.6679667406771,35.1149403369459],[-95.6682841855355,35.1151390905367],[-95.6685485462489,35.1153200654517],[-95.6687353194712,35.1154600342475],[-95.668910087608,35.1156040971961],[-95.6692165451723,35.1158772879863],[-95.6694095140751,35.1160741471521],[-95.6703050607515,35.116072183001],[-95.6703016148141,35.1144663858714],[-95.6705700637603,35.1144659582027],[-95.6724951516175,35.1144628667898],[-95.6724986379792,35.1160675367879],[-95.6726096940028,35.1160673582287],[-95.6747245518621,35.1160639266589],[-95.6747080219626,35.1196458256818],[-95.6769101511517,35.1196521653568],[-95.6769110000597,35.1195290001074],[-95.6769250003034,35.1185650001316],[-95.6769492880537,35.1170042860215],[-95.6747245518621,35.1160639266589],[-95.6789609806909,35.1160570517617],[-95.6791394552766,35.1160567593067],[-95.6791300813566,35.1124506253259],[-95.6747166188399,35.1124568303495],[-95.674694281332,35.1015888846824],[-95.6835225915677,35.1015936978179],[-95.6834988302301,35.097965807281],[-95.6989986837391,35.0979478202423],[-95.6988535716848,35.0985939091245],[-95.698578180558,35.0996956166445],[-95.6983620665619,35.1003236676786],[-95.6981636826146,35.1008269409532],[-95.6979238243489,35.1013925681898],[-95.6978598957417,35.1015309579976],[-95.7012722352816,35.1015486341],[-95.7012779997708,35.1016459999505],[-95.7013179999538,35.108437000361],[-95.7012978956577,35.1124140359586],[-95.6878840012053,35.1124596969762],[-95.6878623446204,35.1160500041833],[-95.6867702124239,35.116051406204],[-95.6854681053178,35.11732952464],[-95.683881967987,35.1188685960064],[-95.6834437850627,35.1193349473397],[-95.6834439207083,35.1193554896388],[-95.6834577915946,35.1214493367938],[-95.6812402967225,35.121446917954],[-95.6812444918549,35.1232448749161],[-95.6790356935731,35.1232565500416],[-95.6791151288987,35.1303926327158],[-95.6704980000099,35.1304169999198],[-95.6704960003601,35.1304970001464],[-95.6705139999034,35.1314699997058],[-95.670497000185,35.1324480002498],[-95.6704910003372,35.1333009999045],[-95.6704920001621,35.1337969999599],[-95.670492555321,35.134063038167],[-95.6747954433111,35.1340609657217],[-95.674864248872,35.137624178792],[-95.6704286410868,35.1376544912895],[-95.6703971236951,35.1349002657796],[-95.6666914500789,35.141298246305],[-95.6647018308449,35.1412984732915],[-95.664682450591,35.1376742598245],[-95.6657718016034,35.1376697007938],[-95.6657822750613,35.1334541682013],[-95.6668712577645,35.1334484951977],[-95.6668792231261,35.134532933119],[-95.6682787570163,35.1345261472034],[-95.6682678083496,35.133441219177],[-95.6688692672632,35.1334380858743],[-95.6688730851032,35.1304135917296],[-95.6687029998839,35.1304119996735],[-95.668481999951,35.1304080000639],[-95.6684080003311,35.1304060002591],[-95.6571548065636,35.1304361442631],[-95.6570176580742,35.1160753338726],[-95.6586455113702,35.1160823572],[-95.6587004783841,35.1133407452457],[-95.6593182857377,35.1132520541536],[-95.6593020001799,35.1139829997586],[-95.6592579997989,35.1160850003165],[-95.6640049995942,35.1160859996599],[-95.6657260611858,35.1160822256688]]]},"properties":{"OBJECTID":202,"ST_FIPS":40,"CO_FIPS":121,"COUNTY":"Pittsburg","CITYNAME":"Crowder","FIPS":"018550","AD_VAL_NUM":"0428","LAST_UPDAT":"04/11/2016","LAST_VERIF":"06/07/2016","ACRES":1932.84,"Shape__Area":11716799.64453125,"Shape__Length":28053.833686169142}},{"type":"Feature","id":203,"geometry":{"type":"Polygon","coordinates":[[[-95.5706029796432,34.8621699081777],[-95.5704119996105,34.8621739997872],[-95.5697329999181,34.8621970000689],[-95.5690619997234,34.8622139996641],[-95.5690744045592,34.8604034039952],[-95.5690867015971,34.8586084891587],[-95.5690912722252,34.8577454507916],[-95.5708593282826,34.8577438313086],[-95.570891841906,34.8549497400302],[-95.5709198756311,34.853648477758],[-95.570948000086,34.8523430003375],[-95.5709360003904,34.8522720000762],[-95.5709270001696,34.8520910001092],[-95.5709279999945,34.8518400002086],[-95.5709229999716,34.8513229999538],[-95.5709220001467,34.8511529997662],[-95.5709339998423,34.8503420003033],[-95.5709380000402,34.8501569997196],[-95.5709670003526,34.8492929998352],[-95.5709310003676,34.8477279996812],[-95.5709430000631,34.8472539996905],[-95.5709330000174,34.8469620001943],[-95.5709249996215,34.846718000154],[-95.5709129999259,34.8463679997031],[-95.5708850003368,34.8457239996437],[-95.5709967345885,34.8457222140447],[-95.5723239999123,34.845700999917],[-95.5767557251788,34.8456846523174],[-95.5824030003821,34.845700999917],[-95.5863638359632,34.8457132528734],[-95.5862749997681,34.8482950000544],[-95.5862730001183,34.8485479997783],[-95.5862570002247,34.8518609997069],[-95.5862439998059,34.851989999877],[-95.5862422040737,34.8523642938429],[-95.5862419193078,34.8525736407391],[-95.5862229998896,34.8526570002908],[-95.5861700109659,34.8552959238445],[-95.5867490003193,34.8553160002791],[-95.5866899998698,34.8600449996993],[-95.5866870003951,34.8602459999036],[-95.586680999649,34.8609210002628],[-95.5866653321321,34.862310597219],[-95.5712688549493,34.8621649858627],[-95.5711139997673,34.8621649998675],[-95.5706029796432,34.8621699081777]]]},"properties":{"OBJECTID":203,"ST_FIPS":40,"CO_FIPS":121,"COUNTY":"Pittsburg","CITYNAME":"Haileyville","FIPS":"031900","AD_VAL_NUM":"0730","LAST_UPDAT":"05/30/2008","LAST_VERIF":"06/11/2008","ACRES":664.34,"Shape__Area":4001751.25,"Shape__Length":8430.68740083413}},{"type":"Feature","id":204,"geometry":{"type":"Polygon","coordinates":[[[-95.7723689995913,35.1681889998716],[-95.7721460000085,35.1681910002168],[-95.7718606016495,35.1681935586612],[-95.7718020000519,35.162673000304],[-95.7717920000062,35.1623679998295],[-95.771793999656,35.1613299996858],[-95.7718070000748,35.1598669998],[-95.7718270001663,35.1596199998078],[-95.7716310003477,35.1596210000858],[-95.7714972277272,35.1596217528648],[-95.7715066151219,35.1593922989059],[-95.7715114579396,35.159170536642],[-95.7715114606345,35.1584659998196],[-95.7715114642278,35.1575670002316],[-95.7715114678211,35.1566032559519],[-95.7714904167007,35.155550504158],[-95.7714925519961,35.1554629842201],[-95.7715016285737,35.1551493672148],[-95.7715196829143,35.1547702651034],[-95.771536654785,35.1543320543412],[-95.7715448330473,35.1541306913565],[-95.7715962481226,35.1534673670391],[-95.7716467397298,35.1528937988047],[-95.7716812997154,35.1526224119483],[-95.7717236471962,35.1522900928294],[-95.7717829997854,35.1522900002844],[-95.7720599997948,35.1522900002844],[-95.7722284563684,35.1522896051316],[-95.7721803497883,35.152665293181],[-95.7721466297275,35.1529300996981],[-95.7720968756372,35.1534953159755],[-95.7720460839927,35.1541506541961],[-95.7720381734283,35.1543454730384],[-95.7720211584385,35.1547848669469],[-95.7720031849463,35.1551623157237],[-95.7719942242514,35.155472007012],[-95.7719922910769,35.1555512481611],[-95.7720132658404,35.1565998723603],[-95.7720132676371,35.1575074718841],[-95.7732435759957,35.1575061807428],[-95.7732391302333,35.1591211591947],[-95.7736181069939,35.1591244472064],[-95.773617551835,35.1596133856345],[-95.7739700004468,35.1596149998864],[-95.774766000315,35.1596190002642],[-95.7751799996935,35.1596270002848],[-95.7753549995957,35.1596299996496],[-95.7768810001082,35.1596290001061],[-95.7787850000141,35.159637999669],[-95.7792810003067,35.1596400002246],[-95.7799950001591,35.1596329997488],[-95.7807220004303,35.1596270002848],[-95.7806470000873,35.1660450002477],[-95.7806649996306,35.1680900003456],[-95.7806653921944,35.1681345668168],[-95.7741169998616,35.1681749996566],[-95.7723689995913,35.1681889998716]]]},"properties":{"OBJECTID":204,"ST_FIPS":40,"CO_FIPS":121,"COUNTY":"Pittsburg","CITYNAME":"Indianola","FIPS":"036950","AD_VAL_NUM":"0844","LAST_UPDAT":"01/01/2000","LAST_VERIF":"12/01/2000","ACRES":204.98,"Shape__Area":1243988.75390625,"Shape__Length":6366.31501444691}},{"type":"Feature","id":205,"geometry":{"type":"Polygon","coordinates":[[[-95.8988589996771,34.7386269999677],[-95.8985740001701,34.738620999881],[-95.8991170003183,34.737095000083],[-95.8993599999926,34.7362389996648],[-95.8993940003277,34.7361040003494],[-95.8994486187953,34.7356999910409],[-95.899496000435,34.7349379997417],[-95.8995038076931,34.7342234561687],[-95.8994760003435,34.733324000113],[-95.8994360001605,34.7328660000022],[-95.8993968920047,34.7326184411547],[-95.8993374873132,34.7322237832853],[-95.8992535298685,34.7317714461827],[-95.8991709998467,34.7313420001962],[-95.8953531284481,34.7313228717555],[-95.8953329998976,34.7256309998345],[-95.8952299999654,34.7247520000319],[-95.8952219995695,34.7245679999964],[-95.8952140000719,34.724397999704],[-95.8951680000411,34.724261999809],[-95.8951599996452,34.7242370000211],[-95.8950729996066,34.7241909999487],[-95.8949279998416,34.7241719997989],[-95.8943839998685,34.7241529996448],[-95.8941679999584,34.724149000117],[-95.8932239999522,34.7241320000912],[-95.892099000196,34.7241039996936],[-95.8909077191449,34.7240870616781],[-95.8910157029303,34.7167881456339],[-95.8979950000369,34.7168759997867],[-95.8986980000187,34.7168840002842],[-95.8987110004375,34.7165279999169],[-95.8987220003081,34.7162349997736],[-95.8987289999808,34.715323000324],[-95.8987299998057,34.7145049999696],[-95.8987299998057,34.7140919996976],[-95.8987270506366,34.7131710889085],[-95.9002589997929,34.7131699997287],[-95.9009850002393,34.7131680000684],[-95.9014270001051,34.7131739997876],[-95.9017800002825,34.7131770000162],[-95.9018999999331,34.7131779998463],[-95.9023689995632,34.7131800002448],[-95.902672162107,34.7131812917534],[-95.9026759997099,34.7131720001273],[-95.9031850004212,34.7119709997503],[-95.9034540000347,34.711357999672],[-95.9036080000205,34.7110069999054],[-95.9037779998998,34.7106059996999],[-95.9040380001908,34.709993999712],[-95.9041323161091,34.7097779133651],[-95.9041916848679,34.7131636706707],[-95.9085079191282,34.7131399516521],[-95.9085166875837,34.7170192318345],[-95.910627795875,34.717048263212],[-95.9106648819232,34.7196184718242],[-95.9108799996877,34.7196560001793],[-95.9108849997106,34.7205520002902],[-95.9108980001294,34.7214029998731],[-95.9108988319693,34.7214962826601],[-95.9151416846507,34.7214908550296],[-95.9151310620724,34.7244456106893],[-95.9150020002173,34.7244790000129],[-95.9146699999562,34.7245419998701],[-95.9145589996281,34.7245630000579],[-95.9143290003727,34.7245729999346],[-95.9137200001022,34.7245569996884],[-95.9132010002435,34.7245430003011],[-95.9128279999746,34.7245329996825],[-95.9128389998452,34.724647999709],[-95.9128759996551,34.7250050002426],[-95.9128859997009,34.725461999933],[-95.9128820004012,34.7261009999461],[-95.9128823597273,34.7278498162462],[-95.9127789995708,34.7278509997345],[-95.9124000003524,34.7278549998215],[-95.9118820003185,34.7278419999072],[-95.9117969999297,34.7278399998634],[-95.9111390001538,34.7278560002124],[-95.910868999817,34.7278509997345],[-95.9101330002233,34.7278390002106],[-95.9098190004039,34.7278399998634],[-95.9090159999647,34.7278439999509],[-95.9084429996793,34.7278099999388],[-95.9084319998086,34.7288380002024],[-95.9084390003796,34.7301410001668],[-95.9084719999916,34.7313230002135],[-95.9084743077636,34.7314556648285],[-95.9024275086343,34.731438492075],[-95.9009880536129,34.7348997098234],[-95.9005036847066,34.7361919063217],[-95.900326002435,34.7366768292356],[-95.8998082000305,34.7366723150382],[-95.8997746946671,34.7386270198991],[-95.8988589996771,34.7386269999677]]]},"properties":{"OBJECTID":205,"ST_FIPS":40,"CO_FIPS":121,"COUNTY":"Pittsburg","CITYNAME":"Kiowa","FIPS":"040000","AD_VAL_NUM":"0913","LAST_UPDAT":"01/01/2000","LAST_VERIF":"07/23/2012","ACRES":800.31,"Shape__Area":4805629.859375,"Shape__Length":12903.880708981866}},{"type":"Feature","id":206,"geometry":{"type":"MultiPolygon","coordinates":[[[[-95.7298220667384,34.943829725042],[-95.729850139091,34.9425805730998],[-95.7298501615489,34.9425795797329],[-95.7298575322258,34.9425867623129],[-95.7302320003419,34.942581000196],[-95.7310230010855,34.9421895007754],[-95.7320361758602,34.9416522248698],[-95.7322234763935,34.9415563141167],[-95.7332219996459,34.9410449997941],[-95.7341539999566,34.9400870001706],[-95.7342644568039,34.93947546808],[-95.7342490003911,34.9401309997713],[-95.7342132663074,34.9438164639052],[-95.736358107236,34.9438521892216],[-95.7363879609478,34.9438526862655],[-95.7363881433058,34.9457469672696],[-95.7397560701381,34.9457511997769],[-95.7397592070551,34.9464372452306],[-95.7408560625934,34.9464394549814],[-95.7408347249105,34.9466956759553],[-95.7407636160692,34.947125108102],[-95.7406666141882,34.9476519342721],[-95.7406242559276,34.9478893979945],[-95.7405826899811,34.9481433502444],[-95.7403586052335,34.9492552306895],[-95.7403463162804,34.9493219980392],[-95.7341962989284,34.9492733992071],[-95.7341994906426,34.9474861603321],[-95.7309394308146,34.9474577667546],[-95.7298166939147,34.9465182711056],[-95.7298160004153,34.9451829999203],[-95.7297979999736,34.9450180000477],[-95.7298120002173,34.9446219998823],[-95.7298220667384,34.943829725042]]],[[[-95.7213129997884,34.9565030002269],[-95.7209899997482,34.9565019996662],[-95.7198640001671,34.9565080000853],[-95.7188249997263,34.956491000124],[-95.7174630001437,34.956483999879],[-95.7165960001304,34.9564849997037],[-95.7154680000012,34.9564830000543],[-95.7152660003348,34.9564830000543],[-95.7144336986477,34.9564790522928],[-95.7144260000857,34.9348380002413],[-95.7141159995659,34.9348220002939],[-95.7139409996638,34.9348200001162],[-95.713758000264,34.9348169998495],[-95.7111520002012,34.9348179999384],[-95.7100149998511,34.9348130002301],[-95.7089910003773,34.9348120001411],[-95.7082349997937,34.9348120001411],[-95.7055259997987,34.934830000268],[-95.7053939995543,34.9348310003567],[-95.7050129997878,34.9348329997978],[-95.7044670001648,34.9348329997978],[-95.7040189995528,34.9348339998865],[-95.7033409996854,34.9348349999752],[-95.7029719996145,34.9348380002413],[-95.7026040002667,34.9348419998594],[-95.7012150000216,34.9348610000681],[-95.7011430000516,34.9348620001565],[-95.7011899999073,34.9322980000838],[-95.7011909997322,34.9307260002199],[-95.7012059998008,34.9280849998865],[-95.7012150000216,34.9275910000981],[-95.7011563202706,34.9130818869414],[-95.701163715202,34.913081914197],[-95.7021952281849,34.9130941659526],[-95.7022123878035,34.9119827470459],[-95.7022125153642,34.9119744560783],[-95.7022959823289,34.9065683621778],[-95.7022960523974,34.9065638594914],[-95.70233399993,34.9041059997829],[-95.7023440790275,34.9018069311123],[-95.7023373757988,34.9018054001692],[-95.7023383378945,34.9018011027718],[-95.7023440835191,34.9018024149036],[-95.7061829997498,34.9026789997273],[-95.7081427976113,34.9031127378677],[-95.7123928889172,34.9040466880581],[-95.7137654877219,34.9043589559838],[-95.7145279328193,34.9045289706741],[-95.7151795033527,34.9047793971763],[-95.7159475997516,34.9051207409629],[-95.7164101036638,34.9053753892003],[-95.7168951121705,34.9057386452308],[-95.7174614038374,34.9062715460703],[-95.7179132303742,34.9067758302543],[-95.7184859997926,34.9079180003311],[-95.7191300002232,34.9094089997078],[-95.7205120007956,34.9130115998984],[-95.7215071329078,34.9156186802974],[-95.7226984498915,34.9186715207485],[-95.7228663593911,34.9190384421199],[-95.7231331671154,34.9195172020012],[-95.7234696346983,34.9200086561779],[-95.7238201393559,34.9203671569709],[-95.7241480001801,34.920371999933],[-95.7253669996476,34.9203900002818],[-95.7253612773792,34.9214762092103],[-95.726417379048,34.9219266349486],[-95.7279929998019,34.9225220001639],[-95.7284565529464,34.9226768418463],[-95.7290066012763,34.9228213089278],[-95.729876881937,34.9229657028366],[-95.7305182898297,34.9229940518621],[-95.7312529419505,34.9229632722252],[-95.7316668892267,34.9229183176864],[-95.7321740798327,34.9228142350995],[-95.7325861352569,34.9227122913252],[-95.734060196078,34.9222727819638],[-95.7341699998501,34.9222440003312],[-95.7344547127946,34.922164098029],[-95.7348489932542,34.92204828997],[-95.7352858026544,34.9219101367793],[-95.735861931772,34.9217973578307],[-95.7364161752343,34.9217083791996],[-95.7364301206808,34.9217061400566],[-95.7369571963939,34.9216800039504],[-95.7374763327966,34.9216754291734],[-95.7382140463759,34.9217372088966],[-95.7389461912988,34.9218917817428],[-95.7397639501598,34.9221282741427],[-95.740417360443,34.9224074852621],[-95.7409116242921,34.9226957270242],[-95.7414522169553,34.9230755921753],[-95.7418962577935,34.923414863854],[-95.7419004664006,34.9234184427254],[-95.7418931253681,34.9241689497504],[-95.7398105116376,34.9241629197128],[-95.7398223963488,34.9259419530841],[-95.7396670246356,34.9260102971582],[-95.7395257636588,34.9260982429417],[-95.7394669662286,34.9261292747657],[-95.7392708271711,34.9263082998714],[-95.7391243146432,34.9265254511314],[-95.7390321879193,34.9268414788947],[-95.7390106076912,34.9269988261443],[-95.7389951171424,34.9270302037885],[-95.7389548860924,34.9270777500699],[-95.7387676161018,34.9271800338445],[-95.7385102856038,34.9272813232029],[-95.7379062736781,34.9272727848402],[-95.7379087970457,34.9276180262319],[-95.7380942766941,34.9276996996769],[-95.7382540726101,34.9277885333483],[-95.7383699283322,34.9279030429502],[-95.7384304388498,34.927976465795],[-95.7384678770376,34.9280429521862],[-95.7385861528211,34.9284204932304],[-95.7387121397431,34.9288355842779],[-95.7387603837654,34.9290111412175],[-95.738779116334,34.9291173318903],[-95.73878719668,34.9293154270915],[-95.738783979813,34.9293674756938],[-95.7386087670101,34.9296446802889],[-95.7382930397304,34.93014418619],[-95.7375006744459,34.931399093817],[-95.7371248480771,34.9320860819713],[-95.7369945312755,34.9323240083454],[-95.736633555855,34.9329428198972],[-95.7364252203709,34.9332842557259],[-95.7360447793565,34.9337951036531],[-95.7352579997963,34.9347999998089],[-95.735220608321,34.9348534802573],[-95.7351719995826,34.9349229996331],[-95.7350481398713,34.9350894367284],[-95.7350440004344,34.9350949997965],[-95.7350068892334,34.9351449024292],[-95.7340355373234,34.9361259018121],[-95.7335427781524,34.936624544188],[-95.7329125542851,34.9368412748915],[-95.7320057238704,34.937217479344],[-95.7316198013361,34.9374073961966],[-95.7312712846503,34.9376762182384],[-95.7309218822256,34.9379672717475],[-95.7307726415142,34.9380796978204],[-95.7306642624701,34.9379400892213],[-95.7302258073563,34.9376722437967],[-95.7298247634809,34.9373579007076],[-95.7295586079335,34.937284252814],[-95.7287927546279,34.9363534600724],[-95.7284199995991,34.9365310003232],[-95.7287547082807,34.9370209651772],[-95.7288752154795,34.9371759363546],[-95.7294745381994,34.937742085543],[-95.7303228649329,34.9384185237849],[-95.7297489995698,34.9393669998703],[-95.7294415322992,34.9398525853646],[-95.729570000368,34.9405079999007],[-95.7295779998656,34.9409700002589],[-95.7295860002615,34.9414320002235],[-95.7295065307999,34.9422251944],[-95.729498000398,34.9422359999806],[-95.7291660001369,34.9426529997506],[-95.7289290003105,34.9429660000247],[-95.7288509995943,34.9430629996908],[-95.7283760001165,34.9436500003382],[-95.7282940001007,34.9437509998515],[-95.7277080002948,34.9445170000866],[-95.7275640003548,34.9446949998223],[-95.7273650001631,34.9449399998317],[-95.7268449995811,34.9456140003061],[-95.7266391030231,34.9459181642094],[-95.7264749996853,34.9461859996379],[-95.7262959995851,34.9465180001334],[-95.7261013993418,34.9468884020627],[-95.7260019998573,34.9470989999747],[-95.7259769997429,34.9471680001652],[-95.7259499999787,34.947244999797],[-95.7258889998794,34.9474220003021],[-95.7258550004425,34.9475209997191],[-95.7258210001073,34.9476270000185],[-95.725787999597,34.9477379998378],[-95.7257509997871,34.9478559997529],[-95.7256100002201,34.9483540001569],[-95.725571999687,34.9484870002291],[-95.7255330002272,34.9486249996884],[-95.7255232139805,34.9486613104915],[-95.7255230028764,34.9486620939341],[-95.7254949996941,34.9487660001445],[-95.7254589997091,34.9489110000265],[-95.7254279997469,34.9490609999645],[-95.7254009999828,34.9492130001912],[-95.7253769996933,34.949368999782],[-95.7253559997769,34.9495259997219],[-95.7253425196577,34.9496280684816],[-95.725342010313,34.9496319230617],[-95.7253349998605,34.9496849999127],[-95.725314999769,34.9498449997007],[-95.7252949996775,34.9500040000091],[-95.7252739997611,34.9501639999108],[-95.7252629720427,34.9502474997655],[-95.7252529998447,34.9503230003368],[-95.7252339995782,34.9504830003522],[-95.725214000385,34.9506430000554],[-95.7251950001184,34.9508030001825],[-95.7251818550709,34.9509075030261],[-95.7251815074229,34.9509102656162],[-95.7251750000269,34.9509620001055],[-95.7251330001941,34.9512779999859],[-95.7250939998361,34.9516010000472],[-95.7250500003535,34.9519320000867],[-95.7250269998889,34.9520989997906],[-95.7250161185959,34.9521824240456],[-95.7250137003312,34.9522009622666],[-95.7250059999725,34.9522599998973],[-95.7249819996831,34.9524189999393],[-95.724949999896,34.9525769998005],[-95.7249120002612,34.9527330003527],[-95.7248670000554,34.9528849996611],[-95.7248140003519,34.953032999957],[-95.7247569995522,34.9531800001207],[-95.7246989998259,34.9533270000208],[-95.7246419999245,34.9534750002549],[-95.7245840001981,34.9536220003622],[-95.7245259995735,34.953766999754],[-95.7244689996721,34.9539080002012],[-95.7244109999458,34.9540500002603],[-95.7243530002195,34.9541920000733],[-95.724292999945,34.9543350002275],[-95.7242329996705,34.9544780001323],[-95.7241740001193,34.9546209997876],[-95.7241149996698,34.9547620002382],[-95.7240579997684,34.9549029997101],[-95.7240019996919,34.9550439996757],[-95.7239520003615,34.9551810000365],[-95.7239120001785,34.9553099999842],[-95.7238779998433,34.9554439996521],[-95.723856000102,34.9555800002449],[-95.7238360000105,34.9557069998963],[-95.7238179995689,34.9558309998531],[-95.7237990002006,34.9559510002977],[-95.7237819995838,34.9560640002857],[-95.7237690000634,34.9561630003101],[-95.7237570003678,34.9562479996853],[-95.7237420002992,34.9563720002961],[-95.7237399485471,34.9563955919171],[-95.7237380001012,34.9564179996437],[-95.7237339999033,34.9564769996335],[-95.7237299997053,34.9565330001086],[-95.7230209998757,34.9565280002518],[-95.72261400017,34.9565160001524],[-95.7220490002804,34.9565059997002],[-95.7218640003325,34.9565049998758],[-95.7213129997884,34.9565030002269]]],[[[-95.7187929999393,34.9595259998284],[-95.7188095370254,34.9584271000306],[-95.7190438967032,34.9584300729292],[-95.7192758587776,34.9584248456929],[-95.719477075113,34.9583784911358],[-95.7197233060273,34.9582757176546],[-95.7199466451732,34.9581133157963],[-95.7200276220079,34.9579569308624],[-95.7200970312366,34.9577506707732],[-95.7201014841855,34.9575883930349],[-95.7230931777122,34.957620819895],[-95.7230925884174,34.9577753332212],[-95.7233889453245,34.958401462273],[-95.7236223105674,34.958988501079],[-95.7237113183406,34.9592481268821],[-95.7237831557156,34.9595736936571],[-95.7238163062445,34.9601612129128],[-95.718786807852,34.9601400673461],[-95.7187929999393,34.9595259998284]]]]},"properties":{"OBJECTID":206,"ST_FIPS":40,"CO_FIPS":121,"COUNTY":"Pittsburg","CITYNAME":"Krebs","FIPS":"040300","AD_VAL_NUM":"0919","LAST_UPDAT":"05/24/2021","LAST_VERIF":"05/24/2021","ACRES":2936.07,"Shape__Area":17717885.7265625,"Shape__Length":28746.2363938368}},{"type":"Feature","id":207,"geometry":{"type":"Polygon","coordinates":[[[-95.7518580002709,34.958342999645],[-95.7514259995525,34.958333999954],[-95.7511539995659,34.9583300000092],[-95.7507019996543,34.9583470003254],[-95.7504740000487,34.958355000213],[-95.7501739995747,34.9583649997034],[-95.749870999626,34.9584009999202],[-95.7496430000204,34.9584679998314],[-95.7496420001955,34.9580939999775],[-95.7496510004163,34.9574850001222],[-95.7496520002412,34.957363000087],[-95.7496549997159,34.9570049996476],[-95.749658000089,34.9567330000205],[-95.7496410003705,34.9565150003281],[-95.7492429999873,34.9565080000853],[-95.7473270003858,34.9564979996321],[-95.7471859999205,34.9564929997731],[-95.7467859998874,34.956491000124],[-95.7463549998922,34.9564889997385],[-95.7454450002212,34.9564900002993],[-95.7451420002725,34.9564900002993],[-95.7445790000328,34.9564849997037],[-95.7442479995967,34.9564820002296],[-95.7429689998547,34.9564820002296],[-95.7422070003217,34.9564740001591],[-95.7408459996656,34.9564860002645],[-95.7405269998234,34.9564929997731],[-95.7400880003306,34.9564979996321],[-95.7391033147268,34.9565045949395],[-95.738623104122,34.956507128368],[-95.7383030002503,34.9565080000853],[-95.7367630003924,34.956517999801],[-95.7364080661422,34.9565226830719],[-95.7364887662958,34.9710286539218],[-95.7364050001921,34.9710280002497],[-95.7362729999477,34.9710269998663],[-95.7361230001598,34.9710209997743],[-95.7357189999288,34.9710059999105],[-95.7352979999793,34.9710059999105],[-95.7336300000749,34.9709860003332],[-95.7309470000192,34.970993999723],[-95.7302149997251,34.9709930000754],[-95.7288930003254,34.9709829999177],[-95.7278990000905,34.9709579998861],[-95.7277619998232,34.9709599999184],[-95.7269800001987,34.9709740001428],[-95.7259680004204,34.9710079999416],[-95.7248250002226,34.9710340003411],[-95.7245809998251,34.9710180000962],[-95.7238610001249,34.9709579998861],[-95.723888999714,34.9707309999574],[-95.7239439999656,34.9700099997148],[-95.7240679998141,34.9686310003216],[-95.7241819996169,34.9674940003088],[-95.7243210004324,34.9660840000265],[-95.7243470003717,34.9658680003365],[-95.7244670000223,34.9648309998426],[-95.7245039998322,34.9645090001139],[-95.7245769996271,34.9638069997162],[-95.7245900000459,34.9636309997285],[-95.7246269998558,34.9631240002149],[-95.7246949996279,34.9624770000723],[-95.7247749999939,34.9615890001672],[-95.7248119998038,34.9610970000066],[-95.7248539996366,34.9607509998992],[-95.7248920001697,34.960434999729],[-95.7249320003527,34.9600200001497],[-95.7250090003456,34.9594459998509],[-95.725102000232,34.9584510002767],[-95.7252650004386,34.9568989996946],[-95.7252939998526,34.9565379999651],[-95.7253290000127,34.9561120002009],[-95.7254849996483,34.9547209999285],[-95.7256169998928,34.9533189996423],[-95.7257690002288,34.9519990001322],[-95.7258579999172,34.95090899992],[-95.7259409997579,34.950208999896],[-95.7259709998951,34.9498080002377],[-95.7260379998423,34.9492310001025],[-95.7261070003376,34.9487329998715],[-95.726192999653,34.9482060002493],[-95.7261950002011,34.9481909998905],[-95.726308000179,34.9477880000722],[-95.7265159996932,34.9472760000587],[-95.726669999679,34.9469149999191],[-95.7268999998327,34.9464770001183],[-95.7271090000701,34.9460929997903],[-95.7274920003847,34.9455500000708],[-95.7279009997404,34.9450380000723],[-95.7285250000794,34.9442420003353],[-95.7290049995801,34.9436309999565],[-95.7295539995761,34.9429299996564],[-95.7296900000186,34.9427689996363],[-95.729850139091,34.9425805730998],[-95.7298220667384,34.943829725042],[-95.7298120002173,34.9446219998823],[-95.7297979999736,34.9450180000477],[-95.7298160004153,34.9451829999203],[-95.7290537879815,34.9458798780553],[-95.7298166939147,34.9465182711056],[-95.7298205881114,34.954015523684],[-95.7319875302909,34.9540317797898],[-95.7320112449161,34.9564279316356],[-95.7391019582708,34.9563672220404],[-95.7393055767013,34.956365857771],[-95.7393268317392,34.9552012979757],[-95.7415905898484,34.9552012773604],[-95.7415965887979,34.9546345168692],[-95.7462597676923,34.9546276092351],[-95.7462696320924,34.9532409911257],[-95.7461043043509,34.9532476397072],[-95.7447750250042,34.9532743429968],[-95.7442477579498,34.9532754790718],[-95.7440016752575,34.9532621671872],[-95.7438028089149,34.9532392299509],[-95.7434793363608,34.9532146500736],[-95.7431440824019,34.9531790827188],[-95.7428555408377,34.9531228811571],[-95.7425289412481,34.9530700723286],[-95.7419648450638,34.9529381333082],[-95.7417326323595,34.9528838186676],[-95.7413670764293,34.9527585647827],[-95.7411673539922,34.9526901318169],[-95.7408956738059,34.9524903642773],[-95.7406435544349,34.9522359616329],[-95.7405110403541,34.9520716010626],[-95.7403808178755,34.9518761739138],[-95.7403006001173,34.9516882498409],[-95.7402391966743,34.9514959547037],[-95.7402039458843,34.9513732742539],[-95.740171130427,34.9511730617277],[-95.7401814179336,34.9508366026509],[-95.7402344553663,34.9504844052161],[-95.7402549998368,34.9504140000065],[-95.740276509098,34.9502722579817],[-95.7403440004236,34.949793000172],[-95.7404409996097,34.9492660000006],[-95.7406651957484,34.9481535623053],[-95.7407068650012,34.9478989761111],[-95.7407491226504,34.9476620727614],[-95.7408461892101,34.9471348961625],[-95.7409177597854,34.9467026733545],[-95.740943945676,34.9463882301299],[-95.7409449023818,34.9460119101697],[-95.7408748283997,34.9457876532308],[-95.7407877960217,34.9455966490576],[-95.7405169431838,34.9452075498065],[-95.7402422707092,34.9449188149932],[-95.7399716604164,34.9447014988807],[-95.7397632431857,34.9445167173261],[-95.7396661344052,34.9443536777675],[-95.7395909840434,34.9441670287602],[-95.7395282394158,34.9440251183541],[-95.7394940127051,34.943902690342],[-95.7394831951925,34.9438027042494],[-95.7394866501131,34.9430724009064],[-95.739493453953,34.9425634951401],[-95.7399229995758,34.9427689996363],[-95.740389999556,34.9429929997384],[-95.7406780003344,34.9431520000805],[-95.7409910003289,34.9433239999229],[-95.7413029996001,34.943497000124],[-95.7417960004179,34.943767000266],[-95.7419389996348,34.9438450001252],[-95.7421260001308,34.9439480000898],[-95.7425310001868,34.9441699999669],[-95.7427989999754,34.9443209997156],[-95.7428740003184,34.9443640000175],[-95.7429499995881,34.9444060003248],[-95.7440669998467,34.9450279996924],[-95.7441980002662,34.9451000000438],[-95.7441229999232,34.9418060002521],[-95.7441199133119,34.9402413779125],[-95.7420114236096,34.9402286707],[-95.7420301660597,34.938242939111],[-95.7397266323463,34.9366401696792],[-95.7397291943415,34.9350357421296],[-95.7352178388149,34.9349972807768],[-95.7350511591089,34.9404353857847],[-95.7378508476251,34.9417523689608],[-95.7378487006516,34.9418240260901],[-95.7382010001431,34.9419829999801],[-95.7388709223595,34.9422821029894],[-95.7388199582384,34.9441464460634],[-95.7365074728132,34.9430212763066],[-95.7369833741996,34.9422526288193],[-95.7378353894157,34.9422683578036],[-95.7378461727923,34.9419084092566],[-95.7348817979318,34.9405145037094],[-95.7350481398713,34.9350894367284],[-95.7351719995826,34.9349229996331],[-95.735220608321,34.9348534802573],[-95.7352187038926,34.9349285951158],[-95.7361825485817,34.9349368123297],[-95.736438999629,34.9346049998712],[-95.7365700000486,34.9344199996718],[-95.7367280002323,34.9341969998163],[-95.7375309997732,34.9331420002371],[-95.7375580004357,34.9331039997554],[-95.737765000125,34.9328100000855],[-95.7378489997905,34.9326909997617],[-95.7388799998354,34.9311960000359],[-95.7391459999742,34.9307690002852],[-95.7387420886764,34.9306114378491],[-95.7388509105899,34.9304339112991],[-95.7391069160728,34.9300162712603],[-95.7392928673366,34.9296916093508],[-95.7393425926808,34.9296047890922],[-95.7421660003138,34.9296049997281],[-95.7421749996363,34.9311860001775],[-95.7424580003918,34.9311860001775],[-95.742781000432,34.9312030002306],[-95.7431620001985,34.9312750001998],[-95.7436690003617,34.9313810001416],[-95.7441213892439,34.9315030027538],[-95.7440818247438,34.9280406756544],[-95.743879000424,34.9280400002808],[-95.7430929997032,34.9280390001093],[-95.7425599996008,34.9280369997661],[-95.7424719997372,34.9280209999653],[-95.7422769997436,34.9279870000099],[-95.7420280002215,34.9279639997288],[-95.741419999776,34.9279769997604],[-95.7413930000118,34.9281340001491],[-95.7413632352332,34.928274960715],[-95.7412990003005,34.9284040000493],[-95.7411739997287,34.9285610003574],[-95.7410380001846,34.928695999716],[-95.7408730003281,34.9288059999565],[-95.7406969997027,34.9288829998899],[-95.7404809997926,34.9289319996759],[-95.7402081967122,34.928969792189],[-95.739956999911,34.9290220000935],[-95.739704000191,34.929121999787],[-95.7395333175921,34.9292111419821],[-95.7393883420816,34.92930150813],[-95.7392629067253,34.9293926010952],[-95.7390580001106,34.9295279997359],[-95.7390710140042,34.9293174458158],[-95.7390620021052,34.92909655982],[-95.7390394148657,34.9289685106878],[-95.7389880168584,34.9287814819854],[-95.7388609995688,34.9283629998162],[-95.7387359998954,34.9279639997288],[-95.738678000169,34.9278610003122],[-95.7385880437748,34.9277518502055],[-95.7384649997337,34.9276540001784],[-95.7383231054447,34.9275883140557],[-95.7381309998229,34.9275200000197],[-95.7385499516135,34.9275193386355],[-95.7388509069966,34.9273863863095],[-95.7390207505691,34.9273252147774],[-95.739159000393,34.9272449999869],[-95.7392458701759,34.9271423333074],[-95.7392880002644,34.9270570003152],[-95.7393119996555,34.9268819996813],[-95.7393910001966,34.9266109997391],[-95.7395030003496,34.9264449998733],[-95.7396520003125,34.9263090003009],[-95.7396880002975,34.926290000321],[-95.7398202547652,34.9262076618684],[-95.7398241597417,34.9262059443042],[-95.7398223963488,34.9259419530841],[-95.7398105116376,34.9241629197128],[-95.7418931253681,34.9241689497504],[-95.7419004664006,34.9234184427254],[-95.7418962577935,34.923414863854],[-95.7414522169553,34.9230755921753],[-95.7409116242921,34.9226957270242],[-95.740417360443,34.9224074852621],[-95.7397639501598,34.9221282741427],[-95.7389461912988,34.9218917817428],[-95.7382140463759,34.9217372088966],[-95.7374763327966,34.9216754291734],[-95.7376517477205,34.913053996364],[-95.7286660984611,34.9130624183441],[-95.7286510534767,34.9103443700271],[-95.7275511984637,34.9103466816729],[-95.7275629151899,34.9130460752969],[-95.7231810706762,34.9130508958552],[-95.7232076886564,34.9057766952203],[-95.7364225326116,34.9057687852382],[-95.736451325413,34.9021413332059],[-95.7232729144309,34.9021867382181],[-95.7232919308671,34.8985412775458],[-95.7236371561257,34.8985402843824],[-95.7321079692177,34.8985159231429],[-95.7320922199541,34.8949187898725],[-95.7364452653781,34.8949267082676],[-95.7364657802043,34.8911613048408],[-95.7470828643427,34.8911444180719],[-95.7470842729011,34.8897990277662],[-95.7472520000427,34.8898059998072],[-95.7476040003952,34.8898499998412],[-95.747898999948,34.8898929999522],[-95.7481359997745,34.8899040003197],[-95.7483969998904,34.8899040003197],[-95.748664999679,34.889855999978],[-95.7489669998028,34.8897220000116],[-95.7490069999857,34.8896999999633],[-95.7490870003517,34.8896900002073],[-95.749253999858,34.8896830001563],[-95.7493550001403,34.8897169997667],[-95.7495550001568,34.8898110000466],[-95.7497259998611,34.8898830002197],[-95.7498089997017,34.8899179996465],[-95.7498615978582,34.889933107923],[-95.7498602440971,34.8911400007496],[-95.7585482123326,34.8911797227475],[-95.7585597350227,34.8903616486392],[-95.7629826109853,34.8903562851704],[-95.762973737427,34.8912427117213],[-95.7633090003691,34.8912330002551],[-95.7681139998906,34.8912879997071],[-95.7697469996349,34.89125400001],[-95.7717572450862,34.8912195449356],[-95.7717492536734,34.8903853321926],[-95.7717468479851,34.8902870743594],[-95.7674336518271,34.8902627990934],[-95.7674358149703,34.8839745548067],[-95.7717820412829,34.8839704458595],[-95.7739195007548,34.883971460569],[-95.7739137730966,34.8857931004377],[-95.7761347471438,34.8857977737457],[-95.7761274312641,34.8839944606486],[-95.7782677348022,34.883994813623],[-95.7782494199502,34.8852340715577],[-95.7796478507091,34.8852295382263],[-95.7796480824745,34.8839968253559],[-95.7805127262068,34.8839974060319],[-95.7805609998735,34.8811770002669],[-95.7805690002695,34.8807669999108],[-95.7806010000565,34.8790919998037],[-95.7824249995965,34.8790840002928],[-95.7831224417016,34.8790892045808],[-95.7840389999725,34.8770009999104],[-95.7840659997367,34.8750960001553],[-95.7841197288722,34.8710072409173],[-95.789407818099,34.8710351568277],[-95.789400999886,34.8718439999478],[-95.7894179996044,34.8730139997901],[-95.7894079995587,34.8735610000617],[-95.7893980004113,34.8739470002188],[-95.7893799999696,34.8746109999414],[-95.7893699999238,34.8750120000633],[-95.7893790001447,34.8755990003055],[-95.7893640000761,34.8767309997229],[-95.7881084230068,34.8767297653089],[-95.788109129981,34.8776828483395],[-95.7871476936751,34.8776796904868],[-95.7871440743628,34.8802953694099],[-95.7872736779021,34.8802950613724],[-95.7893872880015,34.8802985374791],[-95.7893549998552,34.8809209512806],[-95.7893549998552,34.8811620001821],[-95.7893530002054,34.8815880000522],[-95.7893503905995,34.8817382770812],[-95.7873802630106,34.8817355114251],[-95.7873813616502,34.8821277163438],[-95.7873164107602,34.8821275962266],[-95.7872989996133,34.8839680000926],[-95.7872999608107,34.8842232452115],[-95.7816953448036,34.8894825022329],[-95.7831375702293,34.8906403901158],[-95.7830199996233,34.8907509998783],[-95.782525000054,34.8912169999119],[-95.7809380003404,34.8927420002424],[-95.7803190000242,34.8933110002004],[-95.7797619996323,34.8938409998094],[-95.7793519995535,34.8942749997705],[-95.7789080000378,34.8948290003621],[-95.7788410000906,34.8949260002023],[-95.7781180000173,34.8946049999211],[-95.7777759997106,34.8944480002381],[-95.7775630001736,34.895026000176],[-95.7769339998116,34.8967660002712],[-95.7767079998558,34.8974240002469],[-95.77655399987,34.8978729996817],[-95.77640999993,34.8982690000408],[-95.77615700021,34.89897199986],[-95.7760569997526,34.8992470003161],[-95.7758989995688,34.899685000307],[-95.7759339997289,34.8997709997887],[-95.7759920003536,34.8998309997849],[-95.7760350000112,34.8998760001217],[-95.7761549996619,34.8999269998351],[-95.7757599996516,34.9009990002632],[-95.7756170004348,34.9013860002392],[-95.7752039999829,34.9024469998819],[-95.7751679999979,34.9025719998039],[-95.7750700000886,34.9029090001719],[-95.7749720001794,34.903250000315],[-95.7746619996596,34.9040720002341],[-95.7744290000311,34.9047359996657],[-95.7743319999468,34.9050490002065],[-95.774209999748,34.905442999697],[-95.774105999991,34.9058829999414],[-95.774101999793,34.905898999638],[-95.7740599999602,34.9060769999198],[-95.773997000211,34.9064370003285],[-95.7739779999444,34.9065500000269],[-95.773957999853,34.9066619998744],[-95.7739269998908,34.9068340003427],[-95.7738230001337,34.9075479999933],[-95.7737689997071,34.9079160002342],[-95.7735739997134,34.9090359997228],[-95.7735300002308,34.9093629997755],[-95.7740959999452,34.9093719996842],[-95.7762007436727,34.9093879810208],[-95.7761901121114,34.9058599890454],[-95.7805926870469,34.9058785509968],[-95.7805893012966,34.9047745201421],[-95.7805706423898,34.8985342819328],[-95.7805834802135,34.8948707180438],[-95.7838469257917,34.8948826019059],[-95.7849321777916,34.8948617828579],[-95.7848884648715,34.8905851102313],[-95.7869297165731,34.8886273156435],[-95.7893381510538,34.8863553007192],[-95.7893504103625,34.8909604480015],[-95.7893744798222,34.8985495978669],[-95.8239600045363,34.8985988080588],[-95.8241322088814,34.9002625883875],[-95.8270906782173,34.9051875722318],[-95.8272205647259,34.9086837634989],[-95.8272856261087,34.9104349079666],[-95.8271640867457,34.9110959910917],[-95.8270053616215,34.9119497570195],[-95.8276199655827,34.9131505717388],[-95.8334137712802,34.9131383524036],[-95.833439906865,34.9250324985584],[-95.8348246023833,34.9276501335176],[-95.8334456632694,34.9276520182386],[-95.8334410001147,34.9357159997478],[-95.8334610002062,34.937503000297],[-95.8334620000311,34.9381879998307],[-95.8334810002977,34.9419089998324],[-95.8334810002977,34.942057000061],[-95.8334879999704,34.9456069998686],[-95.8334879999704,34.9459470001256],[-95.8334879999704,34.9461549997004],[-95.8334870001455,34.9464659999672],[-95.8334839997725,34.9498490000596],[-95.8334810002977,34.9523240000486],[-95.8335080000619,34.9531150000358],[-95.8243809999943,34.9530810001747],[-95.82175499984,34.9530729997722],[-95.8202049999364,34.9530679997044],[-95.8201628420001,34.9566086590736],[-95.8066559997635,34.9566129999846],[-95.8024460002687,34.9566129999846],[-95.7717419997775,34.9567080000582],[-95.7717429996024,34.9568979998749],[-95.7717440003256,34.9571339996694],[-95.7717440003256,34.9573710000708],[-95.7717490003485,34.9588460001071],[-95.7717719999147,34.9598270001208],[-95.7717800003106,34.9601640002223],[-95.7717860001584,34.9603989996695],[-95.7717869999833,34.9608129997663],[-95.7717889996331,34.9619439997128],[-95.7695230002273,34.9619339999229],[-95.7693630003937,34.9619330001647],[-95.7686670000846,34.9619300001538],[-95.766087999786,34.9619229996373],[-95.7660889996109,34.9622869999385],[-95.7661029998546,34.9627880002551],[-95.7661150004485,34.9631879999809],[-95.7660829997631,34.9636380000991],[-95.7660250000368,34.9637190001376],[-95.766019000189,34.9637279999734],[-95.7658500001346,34.9637610000988],[-95.7654790004138,34.9637630003068],[-95.7650125205581,34.9637630003068],[-95.7650250583446,34.9674297050295],[-95.7592938230016,34.9674443742809],[-95.7592544740972,34.9637873900304],[-95.7584959995533,34.9637809999677],[-95.7564319998138,34.9637410002252],[-95.7561170001696,34.9637429996974],[-95.7554970000284,34.9637470001142],[-95.7549749997966,34.9637500000585],[-95.7542609999442,34.9637539997387],[-95.7530590001951,34.9637589998908],[-95.7520459996936,34.9637690001942],[-95.7518979995556,34.96376999993],[-95.7518959999058,34.9628060001301],[-95.7518950000809,34.9619319996703],[-95.7518940002559,34.9613210000929],[-95.7518930004311,34.9609509998245],[-95.751890000058,34.9602919999108],[-95.7518790001873,34.9602170003132],[-95.7518580002709,34.958342999645]],[[-95.7336340002729,34.956553000269],[-95.7326769998479,34.9565700002174],[-95.7316960000318,34.9565679998339],[-95.7309610002629,34.9565650003629],[-95.7304509997267,34.9565650003629],[-95.7302499998852,34.9565660001865],[-95.7297839997299,34.9565670000102],[-95.7293450002371,34.9565700002174],[-95.7289679997702,34.9565729996882],[-95.7287870000202,34.9565689996575],[-95.7286330000344,34.9565670000102],[-95.7282199995826,34.9565599997718],[-95.7279640003879,34.9565559997404],[-95.7276539998682,34.956558999948],[-95.7275929997688,34.9565599997718],[-95.7270300004274,34.9565650003629],[-95.7268720316847,34.956563061824],[-95.7268693708748,34.956579330677],[-95.726807944974,34.9569549439268],[-95.7267020057542,34.9574563891362],[-95.726603934878,34.9578556823328],[-95.7265320247395,34.9581874978923],[-95.7264065112297,34.9584895838865],[-95.7261335913683,34.9589495628433],[-95.725792598073,34.9594744761501],[-95.7257674712962,34.959522934942],[-95.7255310113572,34.9599702481192],[-95.7253799443708,34.9603864163202],[-95.7252157449133,34.960860753215],[-95.7250846106447,34.9612514567169],[-95.7250580357837,34.9616048528046],[-95.7249777820928,34.9624957030809],[-95.7249099556956,34.9631410709467],[-95.7248731813628,34.9636450048862],[-95.7248599572635,34.9638240489564],[-95.7247865532267,34.9645299568284],[-95.7247494168729,34.9648531468661],[-95.7246294208155,34.9658901470797],[-95.7246039095598,34.9661021066571],[-95.7244644901294,34.9675157387861],[-95.7243508460594,34.9686492249076],[-95.7242270564166,34.970025938322],[-95.7241718163149,34.9707501199338],[-95.7241674271464,34.9707857032185],[-95.7363210993412,34.9708893443513],[-95.7362410181269,34.9565268583318],[-95.7360560002127,34.9565309997241],[-95.7351669995598,34.9565320002845],[-95.7339690000087,34.9565469998532],[-95.7336340002729,34.956553000269]],[[-95.7528580003537,34.9537600000127],[-95.7519154690929,34.9537591547719],[-95.7518785671994,34.9564898928071],[-95.751958999655,34.9564879999138],[-95.7527410001778,34.9564700001236],[-95.7530490001494,34.9564730003343],[-95.753429000091,34.9564769996335],[-95.7538559998882,34.9565240002188],[-95.7541069999584,34.9565879999857],[-95.7541160001792,34.9555519996866],[-95.7541129998062,34.955279999655],[-95.7541119999813,34.9552139999226],[-95.7541069999584,34.9547929998662],[-95.7541010001106,34.9542229999168],[-95.7540960000877,34.9537690002058],[-95.7528580003537,34.9537600000127]],[[-95.798214762804,34.9421016068522],[-95.7982180973503,34.9384218589865],[-95.8069540886225,34.9384063862715],[-95.8069445718704,34.9346363348385],[-95.8115033835968,34.9346166769329],[-95.8115115043669,34.9370892713015],[-95.8158391795707,34.9371076582865],[-95.8158397500009,34.9419094512326],[-95.8334461744108,34.9419090005688],[-95.8334405895847,34.9410511581949],[-95.8334391998909,34.9407357764926],[-95.8334249984246,34.9375121687054],[-95.8334236446635,34.9372048195304],[-95.8334193938355,34.9362398526093],[-95.8334178756827,34.9344014706866],[-95.8334172199125,34.9336072235674],[-95.8334146516291,34.930497950581],[-95.833414642646,34.9304868127738],[-95.8334123016364,34.9276521154575],[-95.8246143616438,34.9276773769013],[-95.824603868423,34.9267382747909],[-95.8189041432852,34.9276604873301],[-95.8157919901705,34.9276532356843],[-95.8157210412294,34.9131409247403],[-95.8245493038543,34.9131553156808],[-95.8261738684181,34.9131531020868],[-95.8261114408957,34.9130297690783],[-95.8256378158403,34.9120940418785],[-95.825214004164,34.9111682009704],[-95.8247921777644,34.9100802983179],[-95.8242886711494,34.9085709744802],[-95.8240381858139,34.9076591313999],[-95.8238801775453,34.9070404842645],[-95.823625832149,34.9058492486605],[-95.823443672674,34.9046898151474],[-95.8232102679053,34.9026739207041],[-95.8232046956556,34.9026200722825],[-95.8227911678926,34.8986241712773],[-95.7893745669588,34.8985770844652],[-95.7893941637067,34.9047558798496],[-95.789397845901,34.9059164277965],[-95.7938004864136,34.9059529402074],[-95.798203129621,34.9059894518653],[-95.7982258201668,34.9129102693547],[-95.79822599444,34.9129632808364],[-95.7941309999628,34.9129480000026],[-95.793823044907,34.9129468943077],[-95.7938229577704,34.9129199848877],[-95.7938066946705,34.9078779947005],[-95.789404034395,34.9078668737137],[-95.7894200001526,34.9129309998507],[-95.7828157990845,34.9129435838529],[-95.782804956419,34.9094381261829],[-95.7806035512719,34.9094214111323],[-95.7805630004217,34.9145189998008],[-95.78054499998,34.9153290001107],[-95.7805890003609,34.9157629999582],[-95.7806339996685,34.9162310001417],[-95.7806470000873,34.9164459999201],[-95.780657000133,34.9166199996643],[-95.7806310001937,34.9166810001816],[-95.7817016006713,34.9167042437585],[-95.781624237759,34.9275243653026],[-95.7825560000161,34.927488999655],[-95.7831900004009,34.9274939998097],[-95.7836520003583,34.927498999964],[-95.7837997849006,34.9275045259849],[-95.7837957981774,34.9280384882394],[-95.7841175082368,34.9280536484232],[-95.7841147036965,34.9285380098117],[-95.7839269297509,34.9285416193926],[-95.7838244113158,34.9285435902635],[-95.7838277898796,34.9289026746358],[-95.7838321386239,34.9293649988732],[-95.7816329469257,34.9293627938177],[-95.7817910162797,34.9348006162114],[-95.7820299214329,34.9348733119064],[-95.7823055299519,34.9344589038992],[-95.7823514509309,34.9343898576651],[-95.7823515722035,34.9343826294439],[-95.7824107397397,34.9343703190049],[-95.7826351820168,34.9342585027811],[-95.7829154366225,34.9341555665009],[-95.7832141803534,34.9340522058965],[-95.7835141251318,34.9339843737261],[-95.7837841101972,34.933942625839],[-95.7841805133759,34.9347208734257],[-95.7842950593544,34.9348249173424],[-95.784566076584,34.9348136217876],[-95.7849605331135,34.9348045738541],[-95.785441620474,34.934803695278],[-95.7857682802507,34.9347961997647],[-95.7860581306603,34.934794628196],[-95.7860915839214,34.9354186505501],[-95.7861204045707,34.9370109682381],[-95.7833661959607,34.9366136590705],[-95.7832751975208,34.9365134026589],[-95.7831310799014,34.9364495610172],[-95.7828977371165,34.9364000104544],[-95.7823121110097,34.9362935670399],[-95.782306607032,34.9366227502535],[-95.782588999628,34.9367260001006],[-95.7832120001422,34.9369090001271],[-95.7840130000333,34.9371710001223],[-95.7840490000183,34.9371840001678],[-95.7845999996641,34.9373909998204],[-95.7848299998179,34.9375020002408],[-95.7851466568538,34.9376355098422],[-95.7851456651138,34.9420755052254],[-95.7857999997634,34.9420740000701],[-95.7867069999596,34.9420560000604],[-95.7883890001077,34.9420520000576],[-95.7900639996848,34.942057000061],[-95.7941789996434,34.9420940000764],[-95.7945519999123,34.9420910000758],[-95.798214762804,34.9421016068522]]]},"properties":{"OBJECTID":207,"ST_FIPS":40,"CO_FIPS":121,"COUNTY":"Pittsburg","CITYNAME":"McAlester","FIPS":"044800","AD_VAL_NUM":"1071","LAST_UPDAT":"05/25/2021","LAST_VERIF":"05/25/2021","ACRES":11559.8,"Shape__Area":69753295.2890625,"Shape__Length":126451.91070467349}},{"type":"Feature","id":208,"geometry":{"type":"Polygon","coordinates":[[[-95.850164630332,34.7167543256737],[-95.8484268358216,34.7167603221792],[-95.8479911205695,34.7167533421316],[-95.8471731137734,34.7167403419483],[-95.8444401871509,34.7167508552172],[-95.8444329997303,34.7160259999266],[-95.8444190003849,34.7146140002999],[-95.8444054645702,34.7132488769852],[-95.8426290002818,34.7132450002471],[-95.8426660000917,34.709765999833],[-95.8434689996326,34.7097630002191],[-95.8443559997374,34.7097589999952],[-95.8452140004282,34.7097589999952],[-95.8454279997901,34.7097589999952],[-95.8471199999839,34.7097599998666],[-95.8471199999839,34.7095989997431],[-95.8470757480747,34.7058006441615],[-95.8558029996376,34.7057779997543],[-95.8558000001628,34.7068030002478],[-95.8557990003379,34.7075910000991],[-95.8558069998355,34.7087140000508],[-95.8558069998355,34.7095349997034],[-95.8558069998355,34.7098049999735],[-95.8558470000185,34.7109690001885],[-95.8558529998663,34.7113440002652],[-95.8558649995618,34.7120950003303],[-95.855863999737,34.712256000026],[-95.8558550004144,34.7131370001583],[-95.855862999912,34.7144360002214],[-95.8558770001557,34.7149890000951],[-95.8558920002243,34.7155579997386],[-95.8558899996762,34.7158589999236],[-95.8558849996534,34.716705999923],[-95.8558847553116,34.7167354382662],[-95.8547691573232,34.7167363258172],[-95.8536652293486,34.7167493370771],[-95.8534648277851,34.716752312809],[-95.8527313533557,34.7167433198957],[-95.851580395881,34.7167513263132],[-95.850164630332,34.7167543256737]]]},"properties":{"OBJECTID":208,"ST_FIPS":40,"CO_FIPS":121,"COUNTY":"Pittsburg","CITYNAME":"Pittsburg","FIPS":"059350","AD_VAL_NUM":"1353","LAST_UPDAT":"01/01/2000","LAST_VERIF":"12/01/2000","ACRES":303.05,"Shape__Area":1819232.43359375,"Shape__Length":5904.732039569466}},{"type":"Feature","id":209,"geometry":{"type":"Polygon","coordinates":[[[-95.358280151614,35.127643613083],[-95.3582849998216,35.1269940001108],[-95.3582979993421,35.1259609996329],[-95.3583049999131,35.1254270002631],[-95.3582849998216,35.1247359997263],[-95.3582858666959,35.1247185806667],[-95.3582882580112,35.1240946550936],[-95.3627308421128,35.1239370989556],[-95.362733999691,35.1201920006907],[-95.3627119999497,35.1167509997459],[-95.3628140000569,35.116751999816],[-95.3634390002209,35.1167399997091],[-95.3638190001625,35.1167319998818],[-95.3651559996308,35.1167459993953],[-95.3664009999359,35.1167399997091],[-95.3670450003665,35.1167580002362],[-95.3671180001614,35.1167339992876],[-95.3671810008089,35.1167209998424],[-95.3674279997828,35.1167099998015],[-95.3683109996896,35.1167050001832],[-95.3714461784217,35.1167063051983],[-95.3714968892178,35.1203119003403],[-95.3737515878174,35.120313012787],[-95.373696445632,35.1283094430753],[-95.3736930005929,35.1312459999336],[-95.3736931937307,35.1313059677254],[-95.3715240416956,35.1313085662675],[-95.3714650376528,35.1350655460192],[-95.3657210004187,35.1350130001321],[-95.3602470003522,35.1349290005471],[-95.3602880003601,35.1330549999529],[-95.3582614046724,35.1330348967614],[-95.358281000522,35.1309100009567],[-95.3582649997301,35.1306049997031],[-95.3582659986567,35.1304430003144],[-95.3582686909076,35.1299092742484],[-95.3582624673793,35.1299070907596],[-95.3573101337022,35.1297396003925],[-95.3573350421885,35.1276353681996],[-95.3582797168294,35.1276438577405],[-95.3582801507157,35.1276438481893],[-95.358280151614,35.127643613083]]]},"properties":{"OBJECTID":209,"ST_FIPS":40,"CO_FIPS":121,"COUNTY":"Pittsburg","CITYNAME":"Quinton","FIPS":"061550","AD_VAL_NUM":"1397","LAST_UPDAT":"03/06/2023","LAST_VERIF":"03/06/2023","ACRES":578.91,"Shape__Area":3510215.48828125,"Shape__Length":8576.239979809074}},{"type":"Feature","id":210,"geometry":{"type":"Polygon","coordinates":[[[-95.8156580711246,34.8642416053589],[-95.8154332183174,34.8643900618307],[-95.8135109188308,34.8622067230741],[-95.8136589998172,34.8620719999025],[-95.8140399995837,34.8616900002511],[-95.814549000295,34.8611809997588],[-95.8147700002279,34.8609689998121],[-95.8152410004061,34.8605189997136],[-95.8157109998611,34.8600810003],[-95.8160640000385,34.8597520003662],[-95.8167500003019,34.8591139998204],[-95.8182049997709,34.8577349997078],[-95.8189949997913,34.8569819999772],[-95.8193970003726,34.8565989999709],[-95.8211559996152,34.8549450000986],[-95.8212610000955,34.8548419997697],[-95.822046999918,34.8540769997608],[-95.8228550003801,34.85323100008],[-95.8232019998114,34.852852999842],[-95.8248039995936,34.8508870002424],[-95.8259340002709,34.8495019999488],[-95.8264289998402,34.8488569996883],[-95.8265729997803,34.8486700001247],[-95.8276249997415,34.8474079998002],[-95.8287150002359,34.8460780001398],[-95.8290549999945,34.8456649996586],[-95.8291520000789,34.8455420003162],[-95.8295551675717,34.8450378888671],[-95.8295546133112,34.8446756620753],[-95.8320620996283,34.8415992165373],[-95.8295499133256,34.8416056898419],[-95.829547919964,34.8403038353653],[-95.829660000067,34.8330009998839],[-95.829660999892,34.8320059997633],[-95.8296359997776,34.8272259996579],[-95.8296490001964,34.8257020001397],[-95.8296348822734,34.8145281537962],[-95.8557301184203,34.8148613709488],[-95.8560518482426,34.8148654449975],[-95.8559959999814,34.8240619997058],[-95.8559560429176,34.8309211880383],[-95.8538779998152,34.832566000299],[-95.8510666385903,34.8347407982806],[-95.8478999999586,34.834710000325],[-95.841142047738,34.8346248979538],[-95.8410459998679,34.8347399997415],[-95.8401860004256,34.8357700003597],[-95.8392340000234,34.8370139997878],[-95.8385710002246,34.8378780002896],[-95.8384389999801,34.8380509999976],[-95.8367002496623,34.8402063412304],[-95.8337872790972,34.8439892321737],[-95.8303184903231,34.8485642863573],[-95.8283666668064,34.8511089849166],[-95.8277244153957,34.8519574450272],[-95.827032695559,34.8528138837125],[-95.8262404192076,34.8536384972057],[-95.8250615043647,34.8548303710727],[-95.8233100348007,34.8566512413553],[-95.8225967688719,34.8573646827056],[-95.8211642497428,34.8588600153554],[-95.8202409999213,34.8597779999115],[-95.8191215912795,34.86093655171],[-95.8176490001023,34.8624300002847],[-95.816653141253,34.86341235576],[-95.8162320011663,34.8638041682599],[-95.8156580711246,34.8642416053589]]]},"properties":{"OBJECTID":210,"ST_FIPS":40,"CO_FIPS":121,"COUNTY":"Pittsburg","CITYNAME":"Savanna","FIPS":"065600","AD_VAL_NUM":"1496","LAST_UPDAT":"02/10/2012","LAST_VERIF":"08/25/2014","ACRES":1659.75,"Shape__Area":9992000.01171875,"Shape__Length":19743.01402049078}},{"type":"Feature","id":537,"geometry":{"type":"Polygon","coordinates":[[[-95.5514569353628,34.8676422433474],[-95.5514078900433,34.864006898044],[-95.5539273473099,34.864016931882],[-95.5537690003765,34.8639260000419],[-95.553669999744,34.8637560000998],[-95.5536789999648,34.8635459998595],[-95.5538249995547,34.8633759998691],[-95.554041000363,34.8631010002461],[-95.5536620002464,34.8629199997807],[-95.553596999949,34.8628529999798],[-95.553524999979,34.8626870002159],[-95.5535230003292,34.8626179997626],[-95.5535700001849,34.8625159996914],[-95.554006000203,34.8619470002833],[-95.5545879998109,34.8611869997772],[-95.5553610001129,34.8601120003134],[-95.5555379996649,34.8598659996723],[-95.5556249997035,34.8597439997107],[-95.5558029999788,34.8594689997377],[-95.5558409996136,34.8593549998814],[-95.5558549998573,34.8593109997395],[-95.5558520003826,34.8589589999678],[-95.5558409996136,34.8574720002318],[-95.5558340861792,34.8567655567699],[-95.5543025331799,34.8567634809763],[-95.5514932865891,34.8567619889997],[-95.5515008243527,34.8549615227766],[-95.5514951434068,34.8548784987559],[-95.5493634466275,34.8548722852383],[-95.5493693952713,34.8536468626173],[-95.5493693907797,34.8513428820021],[-95.5460802668591,34.8513516730064],[-95.5460859999072,34.8510650002684],[-95.5460900001052,34.8508790001991],[-95.5461119998465,34.8501600001309],[-95.5461389996107,34.8493059997872],[-95.5461419999837,34.8485250001036],[-95.5461902314297,34.8459121663172],[-95.5450272940224,34.8459121147104],[-95.5450239999003,34.8456040002295],[-95.5449899995651,34.8451210002283],[-95.5449920001132,34.8444729996619],[-95.5449879999153,34.8434149998202],[-95.5449829998924,34.842595000186],[-95.5449829998924,34.841674999881],[-95.5448690000896,34.8416420000581],[-95.5434100004226,34.8412410001696],[-95.5433559999959,34.8412290001722],[-95.5427228305527,34.8410842598353],[-95.5427279554414,34.840137324134],[-95.5405733686903,34.840126452032],[-95.5405914257259,34.8365017152195],[-95.5493646997773,34.8364691660399],[-95.5493331482496,34.8328799481473],[-95.5492716846195,34.8248346109573],[-95.5499649998643,34.82503800015],[-95.5517089999366,34.8254110000924],[-95.5521270004114,34.8255010003612],[-95.5529850002038,34.825675000209],[-95.5537650001785,34.8257339997729],[-95.5558380001389,34.8257550000325],[-95.5567319999164,34.8257300000038],[-95.5575899997089,34.8257319998884],[-95.5587899998081,34.8257760002868],[-95.5607790001028,34.825775000345],[-95.5612970001367,34.8257510002644],[-95.5625780004268,34.8256910000324],[-95.5626019998179,34.8256890001468],[-95.5629209996602,34.825658999645],[-95.5638770002603,34.825635000268],[-95.5643604852243,34.8256150788257],[-95.5643672773861,34.8251814752533],[-95.5644415545854,34.8204393860706],[-95.5643430004156,34.8203679998798],[-95.5641459998738,34.8202669998076],[-95.5639640002989,34.8202110000429],[-95.5638029997421,34.8201879998256],[-95.5634770002272,34.8201590002799],[-95.5631359997453,34.8201580002699],[-95.5626479998487,34.8201630003195],[-95.5624411528731,34.820167461278],[-95.5624229997178,34.8111549998923],[-95.564725000007,34.8111739999428],[-95.5663150000936,34.8111779996812],[-95.5664880003459,34.8111779996812],[-95.5711144857559,34.8111770998692],[-95.5711735957999,34.8076077100914],[-95.5733674901329,34.8076399756449],[-95.5732472021231,34.8184277480651],[-95.5710525020013,34.818433939997],[-95.5709872672437,34.8220818059485],[-95.5665672667883,34.8220486146462],[-95.5665669999887,34.8221009996417],[-95.5665951927155,34.8235684016649],[-95.5665579997678,34.8242289999205],[-95.5665419998743,34.8255740000073],[-95.5665229996077,34.827102000122],[-95.5665340003767,34.828316999634],[-95.5665000000415,34.8300590000144],[-95.5664919996456,34.8307460003021],[-95.5665040002395,34.8313430003348],[-95.5665050000644,34.832003000165],[-95.5664969996685,34.8330169997588],[-95.5664950000186,34.8333689999047],[-95.5665009998664,34.8337150002113],[-95.5665051402016,34.8339163523016],[-95.5686616241945,34.8339270718555],[-95.5686530111476,34.8357403670347],[-95.5665232762888,34.8357373498764],[-95.5665169557425,34.8366522486488],[-95.5709828610072,34.8366352467212],[-95.5709876202816,34.8377631108112],[-95.570988262577,34.8432893938383],[-95.5717780856293,34.8429133894222],[-95.572424303102,34.8428518969337],[-95.5726354440247,34.8428318049243],[-95.5726981823641,34.843158717497],[-95.5721986498959,34.8432655116641],[-95.5720015873703,34.8433076411035],[-95.5718846123473,34.8433329424968],[-95.5716746158783,34.8433772372418],[-95.5709939435229,34.8433296174409],[-95.5709967345885,34.8457222140447],[-95.5708850003368,34.8457239996437],[-95.5709129999259,34.8463679997031],[-95.5709249996215,34.846718000154],[-95.5709330000174,34.8469620001943],[-95.5709430000631,34.8472539996905],[-95.5709310003676,34.8477279996812],[-95.5709670003526,34.8492929998352],[-95.5709380000402,34.8501569997196],[-95.5709339998423,34.8503420003033],[-95.5709220001467,34.8511529997662],[-95.5709229999716,34.8513229999538],[-95.5709279999945,34.8518400002086],[-95.5709270001696,34.8520910001092],[-95.5709360003904,34.8522720000762],[-95.570948000086,34.8523430003375],[-95.5709198756311,34.853648477758],[-95.570891841906,34.8549497400302],[-95.5699770003156,34.8549680001902],[-95.5672511811636,34.8549842869728],[-95.5672371647502,34.8568272710612],[-95.5690961491789,34.8568243497673],[-95.5690912722252,34.8577454507916],[-95.5690867015971,34.8586084891587],[-95.5668220137315,34.8585947660815],[-95.566834962048,34.8604119869034],[-95.5690744045592,34.8604034039952],[-95.5690619997234,34.8622139996641],[-95.5690580004238,34.8624920000032],[-95.5690419996319,34.8628890000886],[-95.5690590002487,34.8637490000513],[-95.5690590002487,34.8640789996894],[-95.5668168879445,34.8640789996894],[-95.5668440179644,34.8622041469312],[-95.5663369998349,34.8621989998047],[-95.5646699997554,34.8622019997768],[-95.5635170004101,34.8622000000411],[-95.5625320003961,34.8622130001649],[-95.5616989998196,34.8622130001649],[-95.5602700002898,34.8622139996641],[-95.560264000442,34.8605189997136],[-95.560261000069,34.8596919998533],[-95.560261000069,34.8596089997718],[-95.5602698421863,34.858574147185],[-95.5646612995719,34.8585816739821],[-95.5646570002349,34.8578649998025],[-95.5646678662566,34.8568150249197],[-95.5669038457623,34.8568255483603],[-95.566917846006,34.8549854479975],[-95.5580687550429,34.8549657739709],[-95.5580575305934,34.8600888299127],[-95.5578559998476,34.8603599999992],[-95.5557582638776,34.8631824769343],[-95.5557795557465,34.8657727499223],[-95.5536170350748,34.8657703323593],[-95.5536200974316,34.8676405098173],[-95.5514569353628,34.8676422433474]],[[-95.5537486005347,34.8529487783289],[-95.5537601905985,34.8513311459178],[-95.5516358105972,34.8513368237648],[-95.5516358321567,34.8525880024815],[-95.551635886954,34.8529320444141],[-95.5537486005347,34.8529487783289]]]},"properties":{"OBJECTID":537,"ST_FIPS":40,"CO_FIPS":121,"COUNTY":"Pittsburg","CITYNAME":"Hartshorne","FIPS":"032850","AD_VAL_NUM":"0750","LAST_UPDAT":"10/05/2021","LAST_VERIF":"10/05/2021","ACRES":2173.36,"Shape__Area":13087025.90625,"Shape__Length":32419.623850816857}}],"source":{"service":"https://services7.arcgis.com/cpyRdAfuizCFzBhp/arcgis/rest/services/Pittsburg_County_Data/FeatureServer/8","publisher":"OU Center for Spatial Analysis (contracted by the Oklahoma State Election Board)","retrieved":"2026-09-01","crs":"EPSG:4326","note":""}}