{"type":"FeatureCollection","features":[{"type":"Feature","id":1,"properties":{"precinct":1,"pct_ceb":"610001","polling_place":"J.I. Stipe Center","address":"801 North 9th","city":"McAlester","pop2020":383,"vap2020":303,"comm":3,"label_lat":34.93065,"label_lon":-95.74984},"geometry":{"type":"Polygon","coordinates":[[[-95.76209,34.92987],[-95.75864,34.93754],[-95.75507,34.9366],[-95.7554,34.93551],[-95.74451,34.93261],[-95.73889,34.9312],[-95.73786,34.9327],[-95.73744,34.93221],[-95.74256,34.9238],[-95.74735,34.92787],[-95.75531,34.93029],[-95.75643,34.9304],[-95.7575,34.93033],[-95.76088,34.92967],[-95.76209,34.92987]]]}},{"type":"Feature","id":3,"properties":{"precinct":3,"pct_ceb":"610003","polling_place":"First Baptist Church","address":"100 East Washington","city":"McAlester","pop2020":1547,"vap2020":1220,"comm":3,"label_lat":34.93881,"label_lon":-95.74859},"geometry":{"type":"Polygon","coordinates":[[[-95.76759,34.9312],[-95.76132,34.94741],[-95.7579,34.94741],[-95.75685,34.9475],[-95.75284,34.94747],[-95.74526,34.94553],[-95.73222,34.93923],[-95.73744,34.93221],[-95.73786,34.9327],[-95.73889,34.9312],[-95.74451,34.93261],[-95.7554,34.93551],[-95.75507,34.9366],[-95.75864,34.93754],[-95.76209,34.92987],[-95.76759,34.9312]]]}},{"type":"Feature","id":4,"properties":{"precinct":4,"pct_ceb":"610004","polling_place":"Church of Christ","address":"1700 S. Main","city":"McAlester","pop2020":2304,"vap2020":1681,"comm":3,"label_lat":34.91593,"label_lon":-95.76329},"geometry":{"type":"Polygon","coordinates":[[[-95.7679,34.90756],[-95.77383,34.90755],[-95.7724,34.91667],[-95.7713,34.92376],[-95.77029,34.92357],[-95.7704,34.92286],[-95.74948,34.91756],[-95.74972,34.91673],[-95.75408,34.91671],[-95.75405,34.90936],[-95.7617,34.9094],[-95.76155,34.91071],[-95.76293,34.91069],[-95.76293,34.91242],[-95.76794,34.91242],[-95.7679,34.90756]]]}},{"type":"Feature","id":5,"properties":{"precinct":5,"pct_ceb":"610005","polling_place":"American Legion","address":"400 South 2nd","city":"McAlester","pop2020":1460,"vap2020":1097,"comm":3,"label_lat":34.92427,"label_lon":-95.76461},"geometry":{"type":"Polygon","coordinates":[[[-95.77029,34.92357],[-95.76759,34.9312],[-95.76209,34.92987],[-95.76088,34.92967],[-95.7575,34.93033],[-95.75972,34.92445],[-95.74953,34.92176],[-95.75007,34.9204],[-95.74851,34.92001],[-95.74948,34.91756],[-95.7704,34.92286],[-95.77029,34.92357]]]}},{"type":"Feature","id":6,"properties":{"precinct":6,"pct_ceb":"610006","polling_place":"Central Christian Church","address":"920 Central Avenue","city":"McAlester","pop2020":1949,"vap2020":1537,"comm":2,"label_lat":34.90696,"label_lon":-95.74306},"geometry":{"type":"Polygon","coordinates":[[[-95.76292,34.8908],[-95.76292,34.90758],[-95.76363,34.90757],[-95.76569,34.90757],[-95.76684,34.90756],[-95.7679,34.90756],[-95.76794,34.91242],[-95.76293,34.91242],[-95.76293,34.91069],[-95.76155,34.91071],[-95.7617,34.9094],[-95.75405,34.90936],[-95.75408,34.91671],[-95.74972,34.91673],[-95.74948,34.91756],[-95.74851,34.92001],[-95.74499,34.91907],[-95.74256,34.9238],[-95.74073,34.92225],[-95.73642,34.92156],[-95.7364,34.91304],[-95.72871,34.91305],[-95.72871,34.91233],[-95.72757,34.91233],[-95.72757,34.91305],[-95.72319,34.91306],[-95.72322,34.90578],[-95.73643,34.90578],[-95.73645,34.90156],[-95.72364,34.90149],[-95.72365,34.89859],[-95.73211,34.89859],[-95.7321,34.89492],[-95.73645,34.89493],[-95.73647,34.89117],[-95.74709,34.89115],[-95.74709,34.88981],[-95.74926,34.88969],[-95.75068,34.89013],[-95.74987,34.89115],[-95.75856,34.89119],[-95.75856,34.89078],[-95.76292,34.8908]]]}},{"type":"Feature","id":7,"properties":{"precinct":7,"pct_ceb":"610007","polling_place":"Assembly of God Church","address":"1800 Hardy Spring Road","city":"McAlester","pop2020":1064,"vap2020":797,"comm":2,"label_lat":34.88877,"label_lon":-95.77619},"geometry":{"type":"Polygon","coordinates":[[[-95.7922,34.88248],[-95.77885,34.89493],[-95.77642,34.89922],[-95.77383,34.90755],[-95.7679,34.90756],[-95.76684,34.90756],[-95.76569,34.90757],[-95.76363,34.90757],[-95.76292,34.90758],[-95.76292,34.8908],[-95.76309,34.88993],[-95.76332,34.89124],[-95.77176,34.89121],[-95.77175,34.88996],[-95.76732,34.88992],[-95.76733,34.88397],[-95.77393,34.88398],[-95.77392,34.8858],[-95.77614,34.8858],[-95.77613,34.884],[-95.77828,34.884],[-95.77826,34.88524],[-95.77966,34.88522],[-95.77966,34.884],[-95.78052,34.884],[-95.78061,34.8791],[-95.78313,34.8791],[-95.78405,34.87701],[-95.78413,34.87101],[-95.78942,34.87104],[-95.78934,34.88325],[-95.79063,34.88345],[-95.79162,34.88243],[-95.7922,34.88248]]]}},{"type":"Feature","id":8,"properties":{"precinct":8,"pct_ceb":"610008","polling_place":"Dream City Church","address":"124 V Hubert Smith Dr.","city":"McAlester","pop2020":1817,"vap2020":1374,"comm":2,"label_lat":34.92457,"label_lon":-95.80198},"geometry":{"type":"Polygon","coordinates":[[[-95.8296,34.91833],[-95.83336,34.92573],[-95.78325,34.9338],[-95.78183,34.93483],[-95.78164,34.93642],[-95.78169,34.93965],[-95.76859,34.93784],[-95.7713,34.92376],[-95.7724,34.91667],[-95.77794,34.91669],[-95.77848,34.91684],[-95.77811,34.91785],[-95.77994,34.91834],[-95.78066,34.91663],[-95.78061,34.90943],[-95.78281,34.90944],[-95.78282,34.91295],[-95.82683,34.913],[-95.8296,34.91833]]]}},{"type":"Feature","id":11,"properties":{"precinct":11,"pct_ceb":"610011","polling_place":"Living Word Church","address":"103 W. Taylor","city":"McAlester","pop2020":4455,"vap2020":3581,"comm":2,"label_lat":34.95017,"label_lon":-95.79841},"geometry":{"type":"Polygon","coordinates":[[[-95.8335,34.94616],[-95.83352,34.95312],[-95.82021,34.95307],[-95.82014,34.95662],[-95.80666,34.95662],[-95.80245,34.95662],[-95.8025,34.96011],[-95.77179,34.96017],[-95.7718,34.96195],[-95.7661,34.96193],[-95.76586,34.96377],[-95.76455,34.96372],[-95.76457,34.96281],[-95.75849,34.96281],[-95.76252,34.95248],[-95.76859,34.93784],[-95.78169,34.93965],[-95.78164,34.93642],[-95.80677,34.94575],[-95.8335,34.94616]]]}},{"type":"Feature","id":14,"properties":{"precinct":14,"pct_ceb":"610014","polling_place":"North Town Church of Christ Fellowship Hall","address":"2400 N. Main","city":"McAlester","pop2020":2291,"vap2020":1737,"comm":3,"label_lat":34.95492,"label_lon":-95.74333},"geometry":{"type":"Polygon","coordinates":[[[-95.76132,34.94741],[-95.7613,34.95247],[-95.76252,34.95248],[-95.75849,34.96281],[-95.7586,34.97108],[-95.72359,34.97098],[-95.726,34.94807],[-95.73222,34.93923],[-95.74526,34.94553],[-95.75284,34.94747],[-95.75685,34.9475],[-95.7579,34.94741],[-95.76132,34.94741]]]}},{"type":"Feature","id":19,"properties":{"precinct":19,"pct_ceb":"610019","polling_place":"Alderson Town Hall","address":"125 Washington St.","city":"Alderson","pop2020":527,"vap2020":412,"comm":1,"label_lat":34.90712,"label_lon":-95.64789},"geometry":{"type":"Polygon","coordinates":[[[-95.70104,34.90282],[-95.70119,34.92042],[-95.66562,34.92036],[-95.66561,34.91293],[-95.59554,34.91287],[-95.59563,34.90902],[-95.59446,34.90639],[-95.59593,34.9044],[-95.59558,34.89851],[-95.63073,34.8985],[-95.63071,34.89397],[-95.64018,34.89401],[-95.65366,34.89496],[-95.66729,34.89473],[-95.69581,34.90098],[-95.70104,34.90282]]]}},{"type":"Feature","id":20,"properties":{"precinct":20,"pct_ceb":"610020","polling_place":"Barbara Barcheers Residence","address":"2771 Crawley Road","city":"McAlester","pop2020":254,"vap2020":206,"comm":2,"label_lat":34.75399,"label_lon":-95.60828},"geometry":{"type":"Polygon","coordinates":[[[-95.7243,34.78233],[-95.72256,34.78245],[-95.71187,34.78233],[-95.70315,34.78856],[-95.70415,34.7891],[-95.70379,34.78973],[-95.70046,34.79095],[-95.69865,34.78958],[-95.69461,34.79241],[-95.69302,34.79205],[-95.69179,34.79336],[-95.68942,34.794],[-95.68636,34.79211],[-95.68564,34.79323],[-95.68334,34.79213],[-95.68152,34.79323],[-95.68234,34.79087],[-95.68069,34.79017],[-95.67923,34.79097],[-95.67863,34.79031],[-95.67681,34.79078],[-95.67467,34.7901],[-95.67237,34.79067],[-95.67162,34.79273],[-95.67163,34.80431],[-95.66405,34.80797],[-95.66307,34.80927],[-95.65436,34.81437],[-95.61806,34.84183],[-95.611,34.84441],[-95.60224,34.84624],[-95.59749,34.84985],[-95.58827,34.85132],[-95.58894,34.84958],[-95.58851,34.84677],[-95.58666,34.84284],[-95.5885,34.84173],[-95.58827,34.83754],[-95.5902,34.83688],[-95.59505,34.83295],[-95.60032,34.83094],[-95.60172,34.82968],[-95.60133,34.828],[-95.59959,34.82851],[-95.59774,34.82791],[-95.59852,34.82704],[-95.59762,34.82532],[-95.59659,34.82525],[-95.59635,34.82692],[-95.59511,34.82731],[-95.59318,34.82624],[-95.59319,34.82521],[-95.5883,34.82477],[-95.5858,34.82553],[-95.58553,34.82454],[-95.58211,34.82345],[-95.58192,34.82134],[-95.57906,34.82125],[-95.57825,34.82287],[-95.57612,34.82219],[-95.5724,34.82526],[-95.57104,34.82411],[-95.56962,34.82528],[-95.56829,34.82496],[-95.56739,34.82241],[-95.56866,34.82072],[-95.57977,34.81707],[-95.57962,34.80648],[-95.57769,34.80639],[-95.57276,34.80933],[-95.57247,34.81115],[-95.57186,34.81118],[-95.53377,34.81118],[-95.52765,34.80836],[-95.52269,34.81049],[-95.52272,34.81383],[-95.52077,34.81717],[-95.51672,34.81699],[-95.51413,34.81869],[-95.51449,34.67224],[-95.51661,34.67244],[-95.51737,34.67362],[-95.52285,34.6731],[-95.5235,34.67122],[-95.52596,34.66931],[-95.52667,34.66708],[-95.52982,34.66421],[-95.53238,34.66515],[-95.53313,34.66372],[-95.53443,34.66439],[-95.53815,34.66317],[-95.54077,34.6651],[-95.54067,34.66355],[-95.54385,34.66344],[-95.54924,34.66111],[-95.55221,34.66104],[-95.55361,34.66024],[-95.55394,34.65897],[-95.55836,34.65658],[-95.56007,34.6573],[-95.56064,34.65921],[-95.56637,34.65969],[-95.56658,34.66521],[-95.56727,34.66627],[-95.5761,34.66672],[-95.57961,34.67389],[-95.57976,34.68087],[-95.5822,34.68417],[-95.58155,34.68587],[-95.58287,34.6885],[-95.58226,34.69085],[-95.58698,34.69338],[-95.5903,34.69342],[-95.59371,34.6946],[-95.59558,34.70364],[-95.59816,34.70556],[-95.59389,34.71128],[-95.59377,34.71377],[-95.59203,34.71671],[-95.59266,34.71875],[-95.59506,34.71991],[-95.59717,34.72677],[-95.59672,34.72807],[-95.59339,34.7297],[-95.59044,34.73256],[-95.59089,34.73376],[-95.59356,34.73512],[-95.59466,34.73792],[-95.59673,34.73775],[-95.59948,34.73598],[-95.6015,34.73639],[-95.60294,34.73456],[-95.60455,34.73422],[-95.60425,34.73335],[-95.60591,34.73367],[-95.6081,34.73238],[-95.60868,34.73289],[-95.60962,34.73126],[-95.61312,34.73169],[-95.61314,34.73099],[-95.61531,34.73034],[-95.61764,34.73048],[-95.61827,34.73153],[-95.61897,34.72911],[-95.62118,34.73057],[-95.62595,34.72986],[-95.62919,34.72854],[-95.63022,34.72654],[-95.63277,34.727],[-95.63377,34.72661],[-95.63343,34.72574],[-95.6369,34.72545],[-95.63715,34.72403],[-95.64064,34.72453],[-95.64574,34.72307],[-95.64552,34.72142],[-95.64816,34.72092],[-95.64963,34.71861],[-95.65143,34.7187],[-95.65667,34.71537],[-95.65691,34.71697],[-95.68779,34.71706],[-95.69115,34.72065],[-95.69787,34.7233],[-95.69778,34.75147],[-95.70161,34.75296],[-95.70293,34.75465],[-95.69778,34.75464],[-95.69803,34.76357],[-95.69956,34.7624],[-95.70244,34.76231],[-95.70141,34.76142],[-95.70169,34.76043],[-95.70613,34.76126],[-95.70482,34.76],[-95.70441,34.75757],[-95.70518,34.75707],[-95.70649,34.75785],[-95.70925,34.75682],[-95.70973,34.75607],[-95.70868,34.75515],[-95.70918,34.75473],[-95.71481,34.75572],[-95.71567,34.75668],[-95.71506,34.75796],[-95.71558,34.75853],[-95.7213,34.75697],[-95.72156,34.75902],[-95.72354,34.75981],[-95.72296,34.76132],[-95.72474,34.76233],[-95.72538,34.7621],[-95.72513,34.76057],[-95.72831,34.76029],[-95.73519,34.76237],[-95.73783,34.75953],[-95.73807,34.75628],[-95.74182,34.75566],[-95.73993,34.7534],[-95.74046,34.75154],[-95.74159,34.75124],[-95.74194,34.752],[-95.7422,34.7667],[-95.73981,34.76786],[-95.72431,34.76784],[-95.7243,34.78233]]]}},{"type":"Feature","id":21,"properties":{"precinct":21,"pct_ceb":"610021","polling_place":"Lighthouse of Prayer Church","address":"20 Double Springs Road","city":"McAlester","pop2020":444,"vap2020":346,"comm":3,"label_lat":34.95326,"label_lon":-96.03616},"geometry":{"type":"Polygon","coordinates":[[[-96.03117,34.8547],[-96.03131,34.85121],[-96.03934,34.84339],[-96.03975,34.84024],[-96.09194,34.84014],[-96.09188,34.85454],[-96.08901,34.85492],[-96.0888,35.04988],[-96.08662,35.0504],[-96.08316,35.04987],[-96.07884,35.05092],[-96.0777,35.04943],[-96.07474,35.04859],[-96.06968,35.05024],[-96.06848,35.04881],[-96.06278,35.05078],[-96.05783,35.04978],[-96.05494,35.05008],[-96.05427,35.05097],[-96.05455,35.05235],[-96.05307,35.05406],[-96.04961,35.05545],[-96.04951,35.05704],[-96.04718,35.05972],[-96.04454,35.06476],[-96.04175,35.06636],[-96.03794,35.06393],[-96.03605,35.06111],[-96.03611,35.05791],[-96.01332,35.05748],[-95.97436,35.05824],[-95.97436,35.04371],[-95.97439,35.02914],[-95.96569,35.02915],[-95.96548,34.99993],[-95.98331,35.00014],[-95.98331,34.9718],[-95.98265,34.97106],[-95.98329,34.94069],[-95.98463,34.94075],[-95.98459,34.942],[-96.00086,34.94195],[-96.00094,34.92739],[-96.02721,34.92716],[-96.02718,34.89819],[-96.01827,34.8981],[-96.01833,34.88395],[-96.04463,34.88376],[-96.04471,34.85464],[-96.03117,34.8547]]]}},{"type":"Feature","id":26,"properties":{"precinct":26,"pct_ceb":"610026","polling_place":"Blocker Baptist Church","address":"13319 E State Highway 31","city":"McAlester","pop2020":835,"vap2020":664,"comm":1,"label_lat":35.05675,"label_lon":-95.60441},"geometry":{"type":"Polygon","coordinates":[[[-95.60501,34.95628],[-95.62991,34.95647],[-95.63035,34.96433],[-95.64029,34.96318],[-95.64048,34.96441],[-95.64293,34.96565],[-95.65116,34.96428],[-95.65082,34.96366],[-95.6516,34.96291],[-95.65032,34.96002],[-95.65684,34.95819],[-95.65681,34.96255],[-95.65499,34.96284],[-95.64476,34.96989],[-95.63601,34.9738],[-95.63284,34.9797],[-95.63092,34.98115],[-95.63875,34.98859],[-95.63945,34.99038],[-95.63851,34.99365],[-95.63575,34.99681],[-95.63615,35.0001],[-95.63727,35.0001],[-95.64698,35.00591],[-95.64873,35.01198],[-95.64715,35.01528],[-95.63411,35.02671],[-95.63248,35.02927],[-95.63205,35.03197],[-95.63289,35.03389],[-95.63547,35.03511],[-95.63966,35.0351],[-95.64848,35.037],[-95.65182,35.03849],[-95.66613,35.05123],[-95.66575,35.09447],[-95.64201,35.10568],[-95.6336,35.11097],[-95.61417,35.13007],[-95.60874,35.13603],[-95.6047,35.14221],[-95.6038,35.14523],[-95.59855,35.15975],[-95.58637,35.15978],[-95.58638,35.13085],[-95.57737,35.1306],[-95.57754,35.1161],[-95.56874,35.11615],[-95.5687,35.10159],[-95.543,35.10171],[-95.54281,35.08416],[-95.54357,35.07863],[-95.54284,35.05535],[-95.55198,35.04378],[-95.55213,35.0339],[-95.54279,35.02065],[-95.54282,35.00107],[-95.53569,35.00182],[-95.53458,34.99893],[-95.53175,34.99528],[-95.52916,34.99355],[-95.51099,34.99881],[-95.50769,35.0006],[-95.50761,34.95637],[-95.55978,34.95667],[-95.56023,34.95581],[-95.60501,34.95628]]]}},{"type":"Feature","id":27,"properties":{"precinct":27,"pct_ceb":"610027","polling_place":"Number 9 Community Center","address":"131 Bower Rd","city":"Longtown","pop2020":2361,"vap2020":1994,"comm":1,"label_lat":35.25095,"label_lon":-95.50022},"geometry":{"type":"Polygon","coordinates":[[[-95.50785,35.20266],[-95.53262,35.20229],[-95.53583,35.20149],[-95.54162,35.20226],[-95.5418,35.20112],[-95.54317,35.20094],[-95.54762,35.20222],[-95.57434,35.20203],[-95.57413,35.20271],[-95.57023,35.20386],[-95.56818,35.20659],[-95.56873,35.20904],[-95.57138,35.21022],[-95.57511,35.21028],[-95.57501,35.21754],[-95.55722,35.21741],[-95.55718,35.22108],[-95.56164,35.22111],[-95.56165,35.22476],[-95.56613,35.2248],[-95.56611,35.22659],[-95.56834,35.22661],[-95.56834,35.22929],[-95.58431,35.22239],[-95.60504,35.21563],[-95.61102,35.21646],[-95.60814,35.22041],[-95.60235,35.22075],[-95.59621,35.22344],[-95.59117,35.228],[-95.58627,35.2341],[-95.57038,35.2455],[-95.56315,35.24636],[-95.55696,35.24941],[-95.54327,35.2519],[-95.53257,35.2569],[-95.52587,35.261],[-95.52167,35.2624],[-95.51497,35.2632],[-95.51327,35.2652],[-95.51297,35.2672],[-95.51747,35.2748],[-95.51906,35.2795],[-95.51807,35.28321],[-95.51197,35.2891],[-95.50758,35.29689],[-95.50456,35.2994],[-95.50037,35.3009],[-95.49207,35.30091],[-95.48006,35.2985],[-95.46166,35.293],[-95.45126,35.29603],[-95.45099,35.20279],[-95.4552,35.20269],[-95.50785,35.20266]]]}},{"type":"Feature","id":28,"properties":{"precinct":28,"pct_ceb":"610028","polling_place":"Canadian United Methodist Church","address":"208 Creadle Dr.","city":"Canadian","pop2020":1566,"vap2020":1315,"comm":1,"label_lat":35.17924,"label_lon":-95.61756},"geometry":{"type":"Polygon","coordinates":[[[-95.71895,35.14507],[-95.73648,35.14498],[-95.73649,35.15236],[-95.72753,35.15222],[-95.72754,35.1913],[-95.71897,35.18885],[-95.71616,35.18936],[-95.71239,35.19714],[-95.70983,35.20047],[-95.70716,35.20231],[-95.69718,35.203],[-95.68793,35.20503],[-95.67999,35.20347],[-95.67911,35.20388],[-95.67747,35.20673],[-95.67444,35.20847],[-95.67423,35.2093],[-95.6805,35.21235],[-95.68277,35.2164],[-95.68097,35.221],[-95.67687,35.2248],[-95.67207,35.2273],[-95.65747,35.2314],[-95.63497,35.2417],[-95.62807,35.2468],[-95.62427,35.248],[-95.61567,35.2497],[-95.61027,35.2497],[-95.60607,35.2471],[-95.60407,35.2441],[-95.60347,35.2394],[-95.60527,35.2361],[-95.61887,35.2309],[-95.62297,35.2279],[-95.62247,35.2247],[-95.61947,35.2222],[-95.60814,35.22041],[-95.61102,35.21646],[-95.60504,35.21563],[-95.58431,35.22239],[-95.56834,35.22929],[-95.56834,35.22661],[-95.56611,35.22659],[-95.56613,35.2248],[-95.56165,35.22476],[-95.56164,35.22111],[-95.55718,35.22108],[-95.55722,35.21741],[-95.57501,35.21754],[-95.57511,35.21028],[-95.57138,35.21022],[-95.56873,35.20904],[-95.56818,35.20659],[-95.57023,35.20386],[-95.57413,35.20271],[-95.57434,35.20203],[-95.54762,35.20222],[-95.54317,35.20094],[-95.5418,35.20112],[-95.54162,35.20226],[-95.53583,35.20149],[-95.53262,35.20229],[-95.50785,35.20266],[-95.50758,35.14556],[-95.54301,35.14547],[-95.543,35.10171],[-95.5687,35.10159],[-95.56874,35.11615],[-95.57754,35.1161],[-95.57737,35.1306],[-95.58638,35.13085],[-95.58637,35.15978],[-95.59855,35.15975],[-95.6038,35.14523],[-95.63022,35.1449],[-95.71895,35.14507]]]}},{"type":"Feature","id":29,"properties":{"precinct":29,"pct_ceb":"610029","polling_place":"High Hill Baptist Church","address":"33 Church Rd","city":"McAlester","pop2020":826,"vap2020":658,"comm":2,"label_lat":34.84407,"label_lon":-95.67716},"geometry":{"type":"Polygon","coordinates":[[[-95.7243,34.78233],[-95.74215,34.78223],[-95.74179,34.78776],[-95.74,34.79173],[-95.73903,34.81123],[-95.74214,34.81139],[-95.74159,34.83607],[-95.74213,34.84042],[-95.74215,34.85501],[-95.73653,34.85498],[-95.73652,34.8695],[-95.71891,34.8695],[-95.71895,34.87709],[-95.72116,34.87964],[-95.71882,34.88321],[-95.71858,34.90579],[-95.70729,34.90592],[-95.70104,34.90282],[-95.69581,34.90098],[-95.66729,34.89473],[-95.65366,34.89496],[-95.64018,34.89401],[-95.6165,34.88928],[-95.60389,34.87984],[-95.59805,34.87386],[-95.59784,34.86391],[-95.597,34.86152],[-95.59233,34.8564],[-95.58618,34.85531],[-95.58626,34.85187],[-95.58827,34.85132],[-95.59749,34.84985],[-95.60224,34.84624],[-95.611,34.84441],[-95.61806,34.84183],[-95.65436,34.81437],[-95.66307,34.80927],[-95.66405,34.80797],[-95.67163,34.80431],[-95.67162,34.79273],[-95.67237,34.79067],[-95.67467,34.7901],[-95.67681,34.79078],[-95.67863,34.79031],[-95.67923,34.79097],[-95.68069,34.79017],[-95.68234,34.79087],[-95.68152,34.79323],[-95.68334,34.79213],[-95.68564,34.79323],[-95.68636,34.79211],[-95.68942,34.794],[-95.69179,34.79336],[-95.69302,34.79205],[-95.69461,34.79241],[-95.69865,34.78958],[-95.70046,34.79095],[-95.70379,34.78973],[-95.70415,34.7891],[-95.70315,34.78856],[-95.71187,34.78233],[-95.72256,34.78245],[-95.7243,34.78233]]]}},{"type":"Feature","id":30,"properties":{"precinct":30,"pct_ceb":"610030","polling_place":"Crowder Senior Citizens Center","address":"110 N. B Street","city":"Crowder","pop2020":517,"vap2020":409,"comm":1,"label_lat":35.12547,"label_lon":-95.64826},"geometry":{"type":"Polygon","coordinates":[[[-95.67853,35.12446],[-95.68012,35.12451],[-95.67964,35.12591],[-95.68083,35.12674],[-95.68471,35.12598],[-95.69055,35.12761],[-95.69266,35.12731],[-95.6953,35.12561],[-95.70132,35.12539],[-95.70129,35.11597],[-95.72164,35.11599],[-95.72611,35.12258],[-95.72825,35.12333],[-95.72784,35.12467],[-95.72438,35.12783],[-95.72374,35.12957],[-95.71796,35.13054],[-95.71893,35.13054],[-95.71895,35.14507],[-95.63022,35.1449],[-95.6038,35.14523],[-95.6047,35.14221],[-95.60874,35.13603],[-95.61417,35.13007],[-95.6336,35.11097],[-95.64201,35.10568],[-95.64458,35.10644],[-95.64658,35.10967],[-95.65639,35.11123],[-95.66026,35.11036],[-95.66861,35.11251],[-95.67321,35.11423],[-95.67595,35.11617],[-95.67859,35.11647],[-95.68034,35.11874],[-95.67933,35.12099],[-95.67719,35.12122],[-95.67722,35.12573],[-95.67853,35.12446]]]}},{"type":"Feature","id":32,"properties":{"precinct":32,"pct_ceb":"610032","polling_place":"Frink Community Center","address":"454 Frink Rd","city":"McAlester","pop2020":729,"vap2020":567,"comm":2,"label_lat":34.88171,"label_lon":-95.75018},"geometry":{"type":"Polygon","coordinates":[[[-95.74213,34.84042],[-95.77687,34.84029],[-95.7769,34.85494],[-95.82507,34.85484],[-95.81508,34.86463],[-95.81328,34.86243],[-95.7922,34.88248],[-95.79162,34.88243],[-95.79063,34.88345],[-95.78934,34.88325],[-95.78942,34.87104],[-95.78413,34.87101],[-95.78405,34.87701],[-95.78313,34.8791],[-95.78061,34.8791],[-95.78052,34.884],[-95.77966,34.884],[-95.77966,34.88522],[-95.77826,34.88524],[-95.77828,34.884],[-95.77613,34.884],[-95.77614,34.8858],[-95.77392,34.8858],[-95.77393,34.88398],[-95.76733,34.88397],[-95.76732,34.88992],[-95.77175,34.88996],[-95.77176,34.89121],[-95.76332,34.89124],[-95.76309,34.88993],[-95.76292,34.8908],[-95.75856,34.89078],[-95.75856,34.89119],[-95.74987,34.89115],[-95.75068,34.89013],[-95.74926,34.88969],[-95.74709,34.88981],[-95.74709,34.89115],[-95.73647,34.89117],[-95.73645,34.89493],[-95.7321,34.89492],[-95.73211,34.89859],[-95.72365,34.89859],[-95.72364,34.90149],[-95.73645,34.90156],[-95.73643,34.90578],[-95.72322,34.90578],[-95.72319,34.91306],[-95.72757,34.91305],[-95.72757,34.91233],[-95.72871,34.91233],[-95.72871,34.91305],[-95.7364,34.91304],[-95.73642,34.92156],[-95.73053,34.923],[-95.72537,34.92148],[-95.72537,34.9204],[-95.72085,34.92133],[-95.71458,34.91594],[-95.7129,34.91275],[-95.71079,34.90855],[-95.70729,34.90592],[-95.71858,34.90579],[-95.71882,34.88321],[-95.72116,34.87964],[-95.71895,34.87709],[-95.71891,34.8695],[-95.73652,34.8695],[-95.73653,34.85498],[-95.74215,34.85501],[-95.74213,34.84042]]]}},{"type":"Feature","id":33,"properties":{"precinct":33,"pct_ceb":"610033","polling_place":"Haileyville Civic Center","address":"200 N. Craig Ave","city":"Haileyville","pop2020":982,"vap2020":735,"comm":1,"label_lat":34.87293,"label_lon":-95.57782},"geometry":{"type":"Polygon","coordinates":[[[-95.58827,34.85132],[-95.58626,34.85187],[-95.58618,34.85531],[-95.59233,34.8564],[-95.597,34.86152],[-95.59784,34.86391],[-95.59805,34.87386],[-95.60389,34.87984],[-95.6165,34.88928],[-95.64018,34.89401],[-95.63071,34.89397],[-95.63073,34.8985],[-95.59558,34.89851],[-95.59593,34.9044],[-95.59446,34.90639],[-95.59563,34.90902],[-95.59554,34.91287],[-95.59432,34.91287],[-95.57855,34.91289],[-95.57515,34.91288],[-95.57236,34.91292],[-95.56434,34.91288],[-95.56684,34.90746],[-95.56474,34.90392],[-95.5647,34.90049],[-95.56311,34.89694],[-95.56366,34.89551],[-95.56529,34.89486],[-95.56546,34.89335],[-95.56373,34.89011],[-95.56066,34.88907],[-95.56019,34.88189],[-95.55665,34.87753],[-95.56025,34.86376],[-95.56032,34.85506],[-95.56274,34.85668],[-95.56468,34.85633],[-95.56468,34.86221],[-95.56907,34.86222],[-95.56898,34.85775],[-95.57107,34.85772],[-95.57092,34.85643],[-95.57275,34.8551],[-95.57106,34.85496],[-95.57095,34.85016],[-95.57089,34.84573],[-95.57519,34.8457],[-95.57525,34.833],[-95.5823,34.83277],[-95.59505,34.83295],[-95.5902,34.83688],[-95.58827,34.83754],[-95.5885,34.84173],[-95.58666,34.84284],[-95.58851,34.84677],[-95.58894,34.84958],[-95.58827,34.85132]]]}},{"type":"Feature","id":34,"properties":{"precinct":34,"pct_ceb":"610034","polling_place":"Hartshorne Catholic Hall","address":"912 E. Cherokee","city":"Hartshorne","pop2020":1625,"vap2020":1295,"comm":1,"label_lat":34.89459,"label_lon":-95.53641},"geometry":{"type":"Polygon","coordinates":[[[-95.60501,34.95628],[-95.56023,34.95581],[-95.55978,34.95667],[-95.50761,34.95637],[-95.50748,34.85494],[-95.51411,34.85494],[-95.51419,34.83199],[-95.5294,34.83917],[-95.54342,34.84125],[-95.56806,34.84852],[-95.57095,34.85016],[-95.57106,34.85496],[-95.57275,34.8551],[-95.57092,34.85643],[-95.57107,34.85772],[-95.56898,34.85775],[-95.56907,34.86222],[-95.56468,34.86221],[-95.56468,34.85633],[-95.56274,34.85668],[-95.56032,34.85506],[-95.56025,34.86376],[-95.55665,34.87753],[-95.56019,34.88189],[-95.56066,34.88907],[-95.56373,34.89011],[-95.56546,34.89335],[-95.56529,34.89486],[-95.56366,34.89551],[-95.56311,34.89694],[-95.5647,34.90049],[-95.56474,34.90392],[-95.56684,34.90746],[-95.56434,34.91288],[-95.57236,34.91292],[-95.57515,34.91288],[-95.57855,34.91289],[-95.59432,34.91287],[-95.59554,34.91287],[-95.5955,34.91884],[-95.59707,34.92],[-95.59551,34.92052],[-95.59547,34.92724],[-95.57785,34.92585],[-95.5756,34.92737],[-95.57059,34.92765],[-95.56946,34.92878],[-95.57219,34.92775],[-95.57094,34.92924],[-95.57433,34.93148],[-95.57597,34.93183],[-95.57588,34.93013],[-95.57847,34.93288],[-95.58583,34.93451],[-95.58818,34.93561],[-95.58843,34.93669],[-95.59476,34.93805],[-95.5945,34.9405],[-95.58982,34.94306],[-95.58889,34.94513],[-95.58925,34.94722],[-95.60183,34.94788],[-95.60653,34.94942],[-95.6065,34.95191],[-95.60501,34.95628]]]}},{"type":"Feature","id":35,"properties":{"precinct":35,"pct_ceb":"610035","polling_place":"Taylor Gym - Hartshorne","address":"413 S. 5th St.","city":"Hartshorne","pop2020":1244,"vap2020":945,"comm":1,"label_lat":34.82836,"label_lon":-95.55685},"geometry":{"type":"Polygon","coordinates":[[[-95.51413,34.81869],[-95.51672,34.81699],[-95.52077,34.81717],[-95.52272,34.81383],[-95.52269,34.81049],[-95.52765,34.80836],[-95.53377,34.81118],[-95.57186,34.81118],[-95.57247,34.81115],[-95.57276,34.80933],[-95.57769,34.80639],[-95.57962,34.80648],[-95.57977,34.81707],[-95.56866,34.82072],[-95.56739,34.82241],[-95.56829,34.82496],[-95.56962,34.82528],[-95.57104,34.82411],[-95.5724,34.82526],[-95.57612,34.82219],[-95.57825,34.82287],[-95.57906,34.82125],[-95.58192,34.82134],[-95.58211,34.82345],[-95.58553,34.82454],[-95.5858,34.82553],[-95.5883,34.82477],[-95.59319,34.82521],[-95.59318,34.82624],[-95.59511,34.82731],[-95.59635,34.82692],[-95.59659,34.82525],[-95.59762,34.82532],[-95.59852,34.82704],[-95.59774,34.82791],[-95.59959,34.82851],[-95.60133,34.828],[-95.60172,34.82968],[-95.60032,34.83094],[-95.59505,34.83295],[-95.5823,34.83277],[-95.57525,34.833],[-95.57519,34.8457],[-95.57089,34.84573],[-95.57095,34.85016],[-95.56806,34.84852],[-95.54342,34.84125],[-95.5294,34.83917],[-95.51419,34.83199],[-95.51413,34.81869]]]}},{"type":"Feature","id":36,"properties":{"precinct":36,"pct_ceb":"610036","polling_place":"Blue Fire Dept.","address":"162 Verner Rd.","city":"McAlester","pop2020":1336,"vap2020":1044,"comm":3,"label_lat":34.9275,"label_lon":-95.9117},"geometry":{"type":"Polygon","coordinates":[[[-95.87752,34.87227],[-95.87768,34.88422],[-95.98324,34.88402],[-95.98336,34.86953],[-96.02037,34.86911],[-96.02322,34.86747],[-96.0296,34.86018],[-96.03117,34.85694],[-96.03117,34.8547],[-96.04471,34.85464],[-96.04463,34.88376],[-96.01833,34.88395],[-96.01827,34.8981],[-96.02718,34.89819],[-96.02721,34.92716],[-96.00094,34.92739],[-96.00086,34.94195],[-95.98459,34.942],[-95.98463,34.94075],[-95.98329,34.94069],[-95.98265,34.97106],[-95.98331,34.9718],[-95.98331,35.00014],[-95.96548,34.99993],[-95.95673,34.99988],[-95.95686,34.98515],[-95.94801,34.98523],[-95.94765,34.95635],[-95.91237,34.95629],[-95.91249,34.97004],[-95.85968,34.97095],[-95.85978,34.94201],[-95.82445,34.94192],[-95.82442,34.94569],[-95.8317,34.94573],[-95.8335,34.94616],[-95.80677,34.94575],[-95.78164,34.93642],[-95.78183,34.93483],[-95.78325,34.9338],[-95.83336,34.92573],[-95.8296,34.91833],[-95.83986,34.91567],[-95.84345,34.91292],[-95.84511,34.91302],[-95.84567,34.9139],[-95.84853,34.91392],[-95.84984,34.91539],[-95.85262,34.91484],[-95.8538,34.91563],[-95.85963,34.91102],[-95.85965,34.88079],[-95.8621,34.87904],[-95.86504,34.87844],[-95.86612,34.87629],[-95.86915,34.87547],[-95.86868,34.87481],[-95.87301,34.87448],[-95.87752,34.87227]]]}},{"type":"Feature","id":37,"properties":{"precinct":37,"pct_ceb":"610037","polling_place":"Shady Grove Church","address":"106 Shady Grove Road","city":"McAlester","pop2020":1292,"vap2020":1030,"comm":3,"label_lat":35.08376,"label_lon":-95.73685},"geometry":{"type":"Polygon","coordinates":[[[-95.89655,35.14905],[-95.88998,35.1541],[-95.88528,35.1597],[-95.87452,35.18028],[-95.87067,35.18599],[-95.86918,35.1869],[-95.85678,35.1866],[-95.84778,35.1884],[-95.83998,35.1845],[-95.83728,35.1845],[-95.82528,35.1871],[-95.80838,35.1954],[-95.79758,35.1971],[-95.79208,35.1972],[-95.78638,35.196],[-95.78248,35.1939],[-95.76768,35.1784],[-95.76398,35.1771],[-95.75798,35.1767],[-95.75598,35.1772],[-95.75188,35.18097],[-95.74958,35.18372],[-95.7471,35.18909],[-95.7439,35.19189],[-95.73629,35.19295],[-95.72754,35.1913],[-95.72753,35.15222],[-95.73649,35.15236],[-95.73648,35.14498],[-95.71895,35.14507],[-95.71893,35.13054],[-95.71796,35.13054],[-95.72374,35.12957],[-95.72438,35.12783],[-95.72784,35.12467],[-95.72825,35.12333],[-95.72611,35.12258],[-95.72164,35.11599],[-95.70129,35.11597],[-95.70132,35.12539],[-95.6953,35.12561],[-95.69266,35.12731],[-95.69055,35.12761],[-95.68471,35.12598],[-95.68083,35.12674],[-95.67964,35.12591],[-95.68012,35.12451],[-95.67853,35.12446],[-95.69208,35.11084],[-95.69976,35.09305],[-95.70579,35.06606],[-95.70683,35.05762],[-95.71872,35.01491],[-95.71893,35.00743],[-95.72131,34.99315],[-95.72359,34.97098],[-95.7586,34.97108],[-95.75792,34.97525],[-95.74582,34.99453],[-95.74391,34.99703],[-95.74088,34.99876],[-95.7426,35.00008],[-95.75709,35.00052],[-95.76646,35.006],[-95.77054,35.01179],[-95.77464,35.02636],[-95.77463,35.03029],[-95.77191,35.03724],[-95.77184,35.05848],[-95.76874,35.06381],[-95.77178,35.07192],[-95.77113,35.10576],[-95.77197,35.14511],[-95.8483,35.14517],[-95.85027,35.14449],[-95.85161,35.14516],[-95.88418,35.14514],[-95.88559,35.14139],[-95.88907,35.14162],[-95.89655,35.14905]]]}},{"type":"Feature","id":38,"properties":{"precinct":38,"pct_ceb":"610038","polling_place":"Ti Valley Baptist Church","address":"5608 Pine Top Rd","city":"Pittsburg","pop2020":135,"vap2020":115,"comm":2,"label_lat":34.6657,"label_lon":-95.63237},"geometry":{"type":"Polygon","coordinates":[[[-95.68955,34.59373],[-95.68949,34.60829],[-95.70673,34.60816],[-95.70673,34.65157],[-95.698,34.65162],[-95.69787,34.7233],[-95.69115,34.72065],[-95.68779,34.71706],[-95.65691,34.71697],[-95.65667,34.71537],[-95.65143,34.7187],[-95.64963,34.71861],[-95.64816,34.72092],[-95.64552,34.72142],[-95.64574,34.72307],[-95.64064,34.72453],[-95.63715,34.72403],[-95.6369,34.72545],[-95.63343,34.72574],[-95.63377,34.72661],[-95.63277,34.727],[-95.63022,34.72654],[-95.62919,34.72854],[-95.62595,34.72986],[-95.62118,34.73057],[-95.61897,34.72911],[-95.61827,34.73153],[-95.61764,34.73048],[-95.61531,34.73034],[-95.61314,34.73099],[-95.61312,34.73169],[-95.60962,34.73126],[-95.60868,34.73289],[-95.6081,34.73238],[-95.60591,34.73367],[-95.60425,34.73335],[-95.60455,34.73422],[-95.60294,34.73456],[-95.6015,34.73639],[-95.59948,34.73598],[-95.59673,34.73775],[-95.59466,34.73792],[-95.59356,34.73512],[-95.59089,34.73376],[-95.59044,34.73256],[-95.59339,34.7297],[-95.59672,34.72807],[-95.59717,34.72677],[-95.59506,34.71991],[-95.59266,34.71875],[-95.59203,34.71671],[-95.59377,34.71377],[-95.59389,34.71128],[-95.59816,34.70556],[-95.59558,34.70364],[-95.59371,34.6946],[-95.5903,34.69342],[-95.58698,34.69338],[-95.58226,34.69085],[-95.58287,34.6885],[-95.58155,34.68587],[-95.5822,34.68417],[-95.57976,34.68087],[-95.57961,34.67389],[-95.5761,34.66672],[-95.56727,34.66627],[-95.56658,34.66521],[-95.56637,34.65969],[-95.56064,34.65921],[-95.56007,34.6573],[-95.55836,34.65658],[-95.55394,34.65897],[-95.55361,34.66024],[-95.55221,34.66104],[-95.54924,34.66111],[-95.54385,34.66344],[-95.54067,34.66355],[-95.54077,34.6651],[-95.53815,34.66317],[-95.53443,34.66439],[-95.53313,34.66372],[-95.53238,34.66515],[-95.52982,34.66421],[-95.52667,34.66708],[-95.52596,34.66931],[-95.5235,34.67122],[-95.52285,34.6731],[-95.51737,34.67362],[-95.51661,34.67244],[-95.51449,34.67224],[-95.51452,34.59416],[-95.57648,34.59416],[-95.62527,34.59384],[-95.67089,34.59386],[-95.67526,34.59371],[-95.68955,34.59373]]]}},{"type":"Feature","id":39,"properties":{"precinct":39,"pct_ceb":"610039","polling_place":"Kiowa City Hall","address":"813 S. Harrison","city":"Kiowa","pop2020":482,"vap2020":389,"comm":2,"label_lat":34.78247,"label_lon":-95.98685},"geometry":{"type":"Polygon","coordinates":[[[-96.09194,34.84014],[-96.03975,34.84024],[-96.03934,34.84339],[-96.03131,34.85121],[-96.03117,34.8547],[-96.03117,34.85694],[-96.0296,34.86018],[-96.02322,34.86747],[-96.02037,34.86911],[-95.98336,34.86953],[-95.98324,34.88402],[-95.87768,34.88422],[-95.87752,34.87227],[-95.87749,34.8696],[-95.85998,34.86947],[-95.85999,34.855],[-95.82507,34.85484],[-95.84115,34.83463],[-95.84769,34.83442],[-95.84724,34.82991],[-95.84916,34.82825],[-95.84908,34.82328],[-95.8781,34.78798],[-95.88243,34.78061],[-95.89887,34.73863],[-95.89978,34.73863],[-95.89982,34.73668],[-95.90244,34.73144],[-95.90848,34.73146],[-95.90845,34.72782],[-95.91289,34.72786],[-95.91284,34.72454],[-95.91514,34.72445],[-95.91515,34.7215],[-95.91091,34.7215],[-95.91063,34.71705],[-95.90852,34.71703],[-95.90852,34.71315],[-95.9042,34.71317],[-95.90414,34.70978],[-95.91142,34.69266],[-95.91385,34.68994],[-95.92966,34.68055],[-96.09205,34.68056],[-96.09194,34.84014]]]}},{"type":"Feature","id":40,"properties":{"precinct":40,"pct_ceb":"610040","polling_place":"Assembly of God Church","address":"1800 Hardy Springs Rd","city":"McAlester","pop2020":567,"vap2020":445,"comm":2,"label_lat":34.8866,"label_lon":-95.82367},"geometry":{"type":"Polygon","coordinates":[[[-95.87752,34.87227],[-95.87301,34.87448],[-95.86868,34.87481],[-95.86915,34.87547],[-95.86612,34.87629],[-95.86504,34.87844],[-95.8621,34.87904],[-95.85965,34.88079],[-95.85963,34.91102],[-95.8538,34.91563],[-95.85262,34.91484],[-95.84984,34.91539],[-95.84853,34.91392],[-95.84567,34.9139],[-95.84511,34.91302],[-95.84345,34.91292],[-95.83986,34.91567],[-95.8296,34.91833],[-95.82683,34.913],[-95.78282,34.91295],[-95.78281,34.90944],[-95.78061,34.90943],[-95.78066,34.91663],[-95.77994,34.91834],[-95.77811,34.91785],[-95.77848,34.91684],[-95.77794,34.91669],[-95.7724,34.91667],[-95.77383,34.90755],[-95.77642,34.89922],[-95.77885,34.89493],[-95.7922,34.88248],[-95.81328,34.86243],[-95.81508,34.86463],[-95.82507,34.85484],[-95.85999,34.855],[-95.85998,34.86947],[-95.87749,34.8696],[-95.87752,34.87227]]]}},{"type":"Feature","id":41,"properties":{"precinct":41,"pct_ceb":"610041","polling_place":"Krebs City Hall","address":"5 NE Washington","city":"Krebs","pop2020":1909,"vap2020":1465,"comm":1,"label_lat":34.93031,"label_lon":-95.71979},"geometry":{"type":"Polygon","coordinates":[[[-95.74256,34.9238],[-95.73744,34.93221],[-95.73222,34.93923],[-95.726,34.94807],[-95.72266,34.9474],[-95.72266,34.94643],[-95.72467,34.94577],[-95.7251,34.94431],[-95.72025,34.94439],[-95.71465,34.94183],[-95.70781,34.94228],[-95.70381,34.93933],[-95.69879,34.94041],[-95.6967,34.93915],[-95.69821,34.93759],[-95.69357,34.93576],[-95.69241,34.93576],[-95.69021,34.93778],[-95.68809,34.93733],[-95.68949,34.93418],[-95.68869,34.93295],[-95.68763,34.93345],[-95.68694,34.93329],[-95.68694,34.93174],[-95.6883,34.93057],[-95.6888,34.93135],[-95.69011,34.93062],[-95.69058,34.92895],[-95.69263,34.92906],[-95.69347,34.9302],[-95.69555,34.93062],[-95.69497,34.93137],[-95.6958,34.93263],[-95.69711,34.93274],[-95.70092,34.93039],[-95.70122,34.9276],[-95.70547,34.92439],[-95.70664,34.92446],[-95.70747,34.92153],[-95.70897,34.92137],[-95.7095,34.92029],[-95.709,34.91933],[-95.70972,34.91878],[-95.70833,34.91665],[-95.70983,34.91475],[-95.71103,34.91443],[-95.71175,34.91255],[-95.7129,34.91275],[-95.71458,34.91594],[-95.72085,34.92133],[-95.72537,34.9204],[-95.72537,34.92148],[-95.73053,34.923],[-95.73642,34.92156],[-95.74073,34.92225],[-95.74256,34.9238]]]}},{"type":"Feature","id":42,"properties":{"precinct":42,"pct_ceb":"610042","polling_place":"Church on Flowery Mound (Bug Tussle)","address":"2180 Flowery Mound Rd","city":"McAlester","pop2020":1184,"vap2020":918,"comm":3,"label_lat":35.02942,"label_lon":-95.67337},"geometry":{"type":"Polygon","coordinates":[[[-95.726,34.94807],[-95.72359,34.97098],[-95.72131,34.99315],[-95.71893,35.00743],[-95.71872,35.01491],[-95.70683,35.05762],[-95.70579,35.06606],[-95.69976,35.09305],[-95.69208,35.11084],[-95.67853,35.12446],[-95.67722,35.12573],[-95.67719,35.12122],[-95.67933,35.12099],[-95.68034,35.11874],[-95.67859,35.11647],[-95.67595,35.11617],[-95.67321,35.11423],[-95.66861,35.11251],[-95.66026,35.11036],[-95.65639,35.11123],[-95.64658,35.10967],[-95.64458,35.10644],[-95.64201,35.10568],[-95.66575,35.09447],[-95.66613,35.05123],[-95.65182,35.03849],[-95.64848,35.037],[-95.63966,35.0351],[-95.63547,35.03511],[-95.63289,35.03389],[-95.63205,35.03197],[-95.63248,35.02927],[-95.63411,35.02671],[-95.64715,35.01528],[-95.64873,35.01198],[-95.64698,35.00591],[-95.63727,35.0001],[-95.63615,35.0001],[-95.63575,34.99681],[-95.63851,34.99365],[-95.63945,34.99038],[-95.63875,34.98859],[-95.63092,34.98115],[-95.63284,34.9797],[-95.63601,34.9738],[-95.64476,34.96989],[-95.65499,34.96284],[-95.65681,34.96255],[-95.65684,34.95819],[-95.66531,34.95426],[-95.66656,34.95433],[-95.66704,34.95268],[-95.67006,34.95337],[-95.6707,34.95206],[-95.67162,34.95234],[-95.67365,34.94966],[-95.67196,34.94843],[-95.67301,34.94664],[-95.67493,34.94604],[-95.67704,34.94698],[-95.67832,34.94657],[-95.67802,34.94488],[-95.68002,34.94295],[-95.68035,34.93995],[-95.68252,34.93808],[-95.68463,34.9384],[-95.68677,34.93718],[-95.68908,34.93435],[-95.68763,34.93345],[-95.68869,34.93295],[-95.68949,34.93418],[-95.68809,34.93733],[-95.69021,34.93778],[-95.69241,34.93576],[-95.69357,34.93576],[-95.69821,34.93759],[-95.6967,34.93915],[-95.69879,34.94041],[-95.70381,34.93933],[-95.70781,34.94228],[-95.71465,34.94183],[-95.72025,34.94439],[-95.7251,34.94431],[-95.72467,34.94577],[-95.72266,34.94643],[-95.72266,34.9474],[-95.726,34.94807]]]}},{"type":"Feature","id":43,"properties":{"precinct":43,"pct_ceb":"610043","polling_place":"Pittsburg School Safe Room","address":"305 2nd St.","city":"Pittsburg","pop2020":1454,"vap2020":1098,"comm":2,"label_lat":34.68804,"label_lon":-95.80748},"geometry":{"type":"Polygon","coordinates":[[[-95.68955,34.59373],[-95.88199,34.59353],[-95.8822,34.68054],[-95.92966,34.68055],[-95.91385,34.68994],[-95.91142,34.69266],[-95.90414,34.70978],[-95.9042,34.71317],[-95.90852,34.71315],[-95.90852,34.71703],[-95.91063,34.71705],[-95.91091,34.7215],[-95.91515,34.7215],[-95.91514,34.72445],[-95.91284,34.72454],[-95.91289,34.72786],[-95.90845,34.72782],[-95.90848,34.73146],[-95.90244,34.73144],[-95.89982,34.73668],[-95.89978,34.73863],[-95.89887,34.73863],[-95.8121,34.73832],[-95.81181,34.78208],[-95.74215,34.78223],[-95.7243,34.78233],[-95.72431,34.76784],[-95.73981,34.76786],[-95.7422,34.7667],[-95.74194,34.752],[-95.74159,34.75124],[-95.74046,34.75154],[-95.73993,34.7534],[-95.74182,34.75566],[-95.73807,34.75628],[-95.73783,34.75953],[-95.73519,34.76237],[-95.72831,34.76029],[-95.72513,34.76057],[-95.72538,34.7621],[-95.72474,34.76233],[-95.72296,34.76132],[-95.72354,34.75981],[-95.72156,34.75902],[-95.7213,34.75697],[-95.71558,34.75853],[-95.71506,34.75796],[-95.71567,34.75668],[-95.71481,34.75572],[-95.70918,34.75473],[-95.70868,34.75515],[-95.70973,34.75607],[-95.70925,34.75682],[-95.70649,34.75785],[-95.70518,34.75707],[-95.70441,34.75757],[-95.70482,34.76],[-95.70613,34.76126],[-95.70169,34.76043],[-95.70141,34.76142],[-95.70244,34.76231],[-95.69956,34.7624],[-95.69803,34.76357],[-95.69778,34.75464],[-95.70293,34.75465],[-95.70161,34.75296],[-95.69778,34.75147],[-95.69787,34.7233],[-95.698,34.65162],[-95.70673,34.65157],[-95.70673,34.60816],[-95.68949,34.60829],[-95.68955,34.59373]]]}},{"type":"Feature","id":44,"properties":{"precinct":44,"pct_ceb":"610044","polling_place":"Quinton City Hall","address":"1020 N Main","city":"Quinton","pop2020":691,"vap2020":529,"comm":1,"label_lat":35.0996,"label_lon":-95.44622},"geometry":{"type":"Polygon","coordinates":[[[-95.543,35.10171],[-95.54301,35.14547],[-95.50758,35.14556],[-95.50785,35.20266],[-95.4552,35.20269],[-95.45503,35.16039],[-95.39368,35.16019],[-95.39367,35.15008],[-95.39063,35.14295],[-95.38416,35.13433],[-95.37592,35.12859],[-95.37264,35.12802],[-95.37112,35.12264],[-95.34951,35.12604],[-95.34944,35.02931],[-95.50775,35.02927],[-95.50769,35.0006],[-95.51099,34.99881],[-95.52916,34.99355],[-95.53175,34.99528],[-95.53458,34.99893],[-95.53569,35.00182],[-95.54282,35.00107],[-95.54279,35.02065],[-95.55213,35.0339],[-95.55198,35.04378],[-95.54284,35.05535],[-95.54357,35.07863],[-95.54281,35.08416],[-95.543,35.10171]]]}},{"type":"Feature","id":46,"properties":{"precinct":46,"pct_ceb":"610046","polling_place":"New Hope Church","address":"10735 State Highway 113","city":"McAlester","pop2020":748,"vap2020":580,"comm":3,"label_lat":35.05299,"label_lon":-95.78928},"geometry":{"type":"Polygon","coordinates":[[[-95.90067,35.14656],[-95.89655,35.14905],[-95.88907,35.14162],[-95.88559,35.14139],[-95.88418,35.14514],[-95.85161,35.14516],[-95.85027,35.14449],[-95.8483,35.14517],[-95.77197,35.14511],[-95.77113,35.10576],[-95.77178,35.07192],[-95.76874,35.06381],[-95.77184,35.05848],[-95.77191,35.03724],[-95.77463,35.03029],[-95.77464,35.02636],[-95.77054,35.01179],[-95.76646,35.006],[-95.75709,35.00052],[-95.7426,35.00008],[-95.74088,34.99876],[-95.74391,34.99703],[-95.74582,34.99453],[-95.75792,34.97525],[-95.7586,34.97108],[-95.75849,34.96281],[-95.76457,34.96281],[-95.76455,34.96372],[-95.76586,34.96377],[-95.7661,34.96193],[-95.7718,34.96195],[-95.77179,34.96017],[-95.8025,34.96011],[-95.80245,34.95662],[-95.80666,34.95662],[-95.80665,34.97798],[-95.80881,34.97796],[-95.80877,34.98161],[-95.80666,34.98162],[-95.80664,34.98525],[-95.80766,34.98584],[-95.80711,34.98822],[-95.80922,34.99177],[-95.80839,34.99561],[-95.80989,34.99802],[-95.80777,35.0001],[-95.80952,35.00277],[-95.80847,35.00421],[-95.80446,35.00323],[-95.80293,35.00092],[-95.79993,35.00055],[-95.80097,34.99831],[-95.80011,34.99784],[-95.79708,34.99843],[-95.79706,35.0001],[-95.79598,35.00064],[-95.79461,35.00051],[-95.79476,34.99953],[-95.79206,34.99923],[-95.78762,35.00208],[-95.79372,35.00346],[-95.79499,35.00458],[-95.79097,35.00692],[-95.78892,35.00957],[-95.78828,35.01215],[-95.79337,35.01242],[-95.79453,35.01081],[-95.80042,35.01201],[-95.8001,35.01383],[-95.80216,35.01685],[-95.80391,35.01739],[-95.80271,35.0187],[-95.80329,35.02204],[-95.8007,35.02545],[-95.80104,35.02751],[-95.80662,35.02712],[-95.80696,35.08708],[-95.85986,35.08715],[-95.85988,35.07824],[-95.86428,35.07836],[-95.86427,35.08354],[-95.86868,35.0835],[-95.86872,35.08713],[-95.87747,35.0871],[-95.87745,35.09441],[-95.88632,35.09441],[-95.88937,35.10167],[-95.88956,35.10166],[-95.89054,35.10666],[-95.89166,35.12811],[-95.89371,35.134],[-95.90067,35.14656]]]}},{"type":"Feature","id":47,"properties":{"precinct":47,"pct_ceb":"610047","polling_place":"Savanna City Hall","address":"105 H Street","city":"Savanna","pop2020":1199,"vap2020":966,"comm":2,"label_lat":34.79684,"label_lon":-95.80553},"geometry":{"type":"Polygon","coordinates":[[[-95.74215,34.78223],[-95.81181,34.78208],[-95.8121,34.73832],[-95.89887,34.73863],[-95.88243,34.78061],[-95.8781,34.78798],[-95.84908,34.82328],[-95.84916,34.82825],[-95.84724,34.82991],[-95.84769,34.83442],[-95.84115,34.83463],[-95.82507,34.85484],[-95.7769,34.85494],[-95.77687,34.84029],[-95.74213,34.84042],[-95.74159,34.83607],[-95.74214,34.81139],[-95.73903,34.81123],[-95.74,34.79173],[-95.74179,34.78776],[-95.74215,34.78223]]]}},{"type":"Feature","id":48,"properties":{"precinct":48,"pct_ceb":"610048","polling_place":"Scipio Community Center","address":"1520 N. 4 Corners Rd","city":"McAlester","pop2020":209,"vap2020":173,"comm":3,"label_lat":35.09819,"label_lon":-95.97072},"geometry":{"type":"Polygon","coordinates":[[[-95.97436,35.04371],[-95.97436,35.05824],[-96.01332,35.05748],[-96.03611,35.05791],[-96.03605,35.06111],[-96.03794,35.06393],[-96.04175,35.06636],[-96.04454,35.06476],[-96.04718,35.05972],[-96.04951,35.05704],[-96.04961,35.05545],[-96.05307,35.05406],[-96.05455,35.05235],[-96.05427,35.05097],[-96.05494,35.05008],[-96.05783,35.04978],[-96.06278,35.05078],[-96.06848,35.04881],[-96.06968,35.05024],[-96.07474,35.04859],[-96.0777,35.04943],[-96.07884,35.05092],[-96.08316,35.04987],[-96.08662,35.0504],[-96.07325,35.05342],[-96.07011,35.05552],[-96.06691,35.06251],[-96.06431,35.07114],[-96.06293,35.08677],[-96.06095,35.09158],[-96.05494,35.09731],[-96.04186,35.10435],[-96.02998,35.12034],[-96.02625,35.12059],[-96.01388,35.11656],[-96.0113,35.11695],[-96.00976,35.11804],[-96.00892,35.11951],[-96.00889,35.12221],[-96.01303,35.13693],[-96.01365,35.14179],[-96.01227,35.14511],[-96.00913,35.14723],[-96.00386,35.14907],[-95.99479,35.1503],[-95.96768,35.1526],[-95.94898,35.1507],[-95.92847,35.1436],[-95.92338,35.1427],[-95.90797,35.1435],[-95.90067,35.14656],[-95.89371,35.134],[-95.89166,35.12811],[-95.89054,35.10666],[-95.88956,35.10166],[-95.88653,35.09441],[-95.93017,35.09437],[-95.93042,35.04368],[-95.97436,35.04371]]]}},{"type":"Feature","id":49,"properties":{"precinct":49,"pct_ceb":"610049","polling_place":"Tannehill Fire Department","address":"10771 Tannehill Rd","city":"McAlester","pop2020":1109,"vap2020":820,"comm":3,"label_lat":35.02188,"label_lon":-95.88444},"geometry":{"type":"Polygon","coordinates":[[[-95.97436,35.04371],[-95.93042,35.04368],[-95.93017,35.09437],[-95.88653,35.09441],[-95.88956,35.10166],[-95.88937,35.10167],[-95.88632,35.09441],[-95.87745,35.09441],[-95.87747,35.0871],[-95.86872,35.08713],[-95.86868,35.0835],[-95.86427,35.08354],[-95.86428,35.07836],[-95.85988,35.07824],[-95.85986,35.08715],[-95.80696,35.08708],[-95.80662,35.02712],[-95.80104,35.02751],[-95.8007,35.02545],[-95.80329,35.02204],[-95.80271,35.0187],[-95.80391,35.01739],[-95.80216,35.01685],[-95.8001,35.01383],[-95.80042,35.01201],[-95.79453,35.01081],[-95.79337,35.01242],[-95.78828,35.01215],[-95.78892,35.00957],[-95.79097,35.00692],[-95.79499,35.00458],[-95.79372,35.00346],[-95.78762,35.00208],[-95.79206,34.99923],[-95.79476,34.99953],[-95.79461,35.00051],[-95.79598,35.00064],[-95.79706,35.0001],[-95.79708,34.99843],[-95.80011,34.99784],[-95.80097,34.99831],[-95.79993,35.00055],[-95.80293,35.00092],[-95.80446,35.00323],[-95.80847,35.00421],[-95.80952,35.00277],[-95.80777,35.0001],[-95.80989,34.99802],[-95.80839,34.99561],[-95.80922,34.99177],[-95.80711,34.98822],[-95.80766,34.98584],[-95.80664,34.98525],[-95.80666,34.98162],[-95.80877,34.98161],[-95.80881,34.97796],[-95.80665,34.97798],[-95.80666,34.95662],[-95.82014,34.95662],[-95.82021,34.95307],[-95.83352,34.95312],[-95.8335,34.94616],[-95.8317,34.94573],[-95.82442,34.94569],[-95.82445,34.94192],[-95.85978,34.94201],[-95.85968,34.97095],[-95.91249,34.97004],[-95.91237,34.95629],[-95.94765,34.95635],[-95.94801,34.98523],[-95.95686,34.98515],[-95.95673,34.99988],[-95.96548,34.99993],[-95.96569,35.02915],[-95.97439,35.02914],[-95.97436,35.04371]]]}},{"type":"Feature","id":51,"properties":{"precinct":51,"pct_ceb":"610051","polling_place":"Richville Baptist Church","address":"2268 Richville Rd.","city":"McAlester","pop2020":446,"vap2020":341,"comm":1,"label_lat":34.9342,"label_lon":-95.63587},"geometry":{"type":"Polygon","coordinates":[[[-95.70729,34.90592],[-95.71079,34.90855],[-95.7129,34.91275],[-95.71175,34.91255],[-95.71103,34.91443],[-95.70983,34.91475],[-95.70833,34.91665],[-95.70972,34.91878],[-95.709,34.91933],[-95.7095,34.92029],[-95.70897,34.92137],[-95.70747,34.92153],[-95.70664,34.92446],[-95.70547,34.92439],[-95.70122,34.9276],[-95.70092,34.93039],[-95.69711,34.93274],[-95.6958,34.93263],[-95.69497,34.93137],[-95.69555,34.93062],[-95.69347,34.9302],[-95.69263,34.92906],[-95.69058,34.92895],[-95.69011,34.93062],[-95.6888,34.93135],[-95.6883,34.93057],[-95.68694,34.93174],[-95.68694,34.93329],[-95.68763,34.93345],[-95.68908,34.93435],[-95.68677,34.93718],[-95.68463,34.9384],[-95.68252,34.93808],[-95.68035,34.93995],[-95.68002,34.94295],[-95.67802,34.94488],[-95.67832,34.94657],[-95.67704,34.94698],[-95.67493,34.94604],[-95.67301,34.94664],[-95.67196,34.94843],[-95.67365,34.94966],[-95.67162,34.95234],[-95.6707,34.95206],[-95.67006,34.95337],[-95.66704,34.95268],[-95.66656,34.95433],[-95.66531,34.95426],[-95.65684,34.95819],[-95.65032,34.96002],[-95.6516,34.96291],[-95.65082,34.96366],[-95.65116,34.96428],[-95.64293,34.96565],[-95.64048,34.96441],[-95.64029,34.96318],[-95.63035,34.96433],[-95.62991,34.95647],[-95.60501,34.95628],[-95.6065,34.95191],[-95.60653,34.94942],[-95.60183,34.94788],[-95.58925,34.94722],[-95.58889,34.94513],[-95.58982,34.94306],[-95.5945,34.9405],[-95.59476,34.93805],[-95.58843,34.93669],[-95.58818,34.93561],[-95.58583,34.93451],[-95.57847,34.93288],[-95.57588,34.93013],[-95.57597,34.93183],[-95.57433,34.93148],[-95.57094,34.92924],[-95.57219,34.92775],[-95.56946,34.92878],[-95.57059,34.92765],[-95.5756,34.92737],[-95.57785,34.92585],[-95.59547,34.92724],[-95.59551,34.92052],[-95.59707,34.92],[-95.5955,34.91884],[-95.59554,34.91287],[-95.66561,34.91293],[-95.66562,34.92036],[-95.70119,34.92042],[-95.70104,34.90282],[-95.70729,34.90592]]]}},{"type":"Feature","id":52,"properties":{"precinct":52,"pct_ceb":"610052","polling_place":"Quinton City Hall","address":"1020 N Main","city":"Quinton","pop2020":755,"vap2020":540,"comm":1,"label_lat":35.14162,"label_lon":-95.36956},"geometry":{"type":"Polygon","coordinates":[[[-95.34951,35.12604],[-95.37112,35.12264],[-95.37264,35.12802],[-95.37592,35.12859],[-95.38416,35.13433],[-95.39063,35.14295],[-95.39367,35.15008],[-95.39368,35.16019],[-95.34953,35.16003],[-95.34951,35.12604]]]}},{"type":"Feature","id":54,"properties":{"precinct":54,"pct_ceb":"610054","polling_place":"Dream City Church","address":"124 V Hubert Smith Dr.","city":"McAlester","pop2020":514,"vap2020":388,"comm":3,"label_lat":34.93828,"label_lon":-95.76664},"geometry":{"type":"Polygon","coordinates":[[[-95.7713,34.92376],[-95.76859,34.93784],[-95.76252,34.95248],[-95.7613,34.95247],[-95.76132,34.94741],[-95.76759,34.9312],[-95.77029,34.92357],[-95.7713,34.92376]]]}},{"type":"Feature","id":55,"properties":{"precinct":55,"pct_ceb":"610055","polling_place":"J.I. Stipe Center","address":"801 N. 9th St.","city":"McAlester","pop2020":563,"vap2020":390,"comm":1,"label_lat":34.92462,"label_lon":-95.75163},"geometry":{"type":"Polygon","coordinates":[[[-95.7575,34.93033],[-95.75643,34.9304],[-95.75531,34.93029],[-95.74735,34.92787],[-95.74256,34.9238],[-95.74499,34.91907],[-95.74851,34.92001],[-95.75007,34.9204],[-95.74953,34.92176],[-95.75972,34.92445],[-95.7575,34.93033]]]}}],"source":{"service":"https://services7.arcgis.com/cpyRdAfuizCFzBhp/arcgis/rest/services/Pittsburg_County_Data/FeatureServer/10","publisher":"OU Center for Spatial Analysis (contracted by the Oklahoma State Election Board)","retrieved":"2026-09-01","crs":"EPSG:4326","note":"Simplified with shared-edge topology (tolerance 0.0005 deg) from pittsburg_pct2020.geojson; polling places joined from polling_places.csv."}}